{
"type": "FeatureCollection",
"name": "Advances (both sides)",
"crs": { "type": "name", "properties": { "name": "urn:ogc:def:crs:OGC:1.3:CRS84" } },
"features": [
{ "type": "Feature", "properties": { "Name": "", "description": "", "tessellate": -1, "extrude": 0, "visibility": -1 }, "geometry": { "type": "Polygon", "coordinates": [ [ [ 35.840162, 47.5051508, 0.0 ], [ 35.8412733, 47.5138827, 0.0 ], [ 35.8395453, 47.51167, 0.0 ], [ 35.8355971, 47.5104525, 0.0 ], [ 35.8337947, 47.5141628, 0.0 ], [ 35.8319922, 47.5142787, 0.0 ], [ 35.8307048, 47.5171772, 0.0 ], [ 35.8282157, 47.5246544, 0.0 ], [ 35.8260699, 47.5265671, 0.0 ], [ 35.8196326, 47.525234, 0.0 ], [ 35.8191176, 47.5236691, 0.0 ], [ 35.8155127, 47.5225099, 0.0 ], [ 35.8155986, 47.520829, 0.0 ], [ 35.816886, 47.519119, 0.0 ], [ 35.8159848, 47.5173801, 0.0 ], [ 35.8148261, 47.5147135, 0.0 ], [ 35.8138543, 47.5136523, 0.0 ], [ 35.8296043, 47.5075649, 0.0 ], [ 35.840162, 47.5051508, 0.0 ] ] ] } },
{ "type": "Feature", "properties": { "Name": "", "description": "", "tessellate": -1, "extrude": 0, "visibility": -1 }, "geometry": { "type": "Polygon", "coordinates": [ [ [ 35.9347593, 47.5211046, 0.0 ], [ 35.9355746, 47.5260023, 0.0 ], [ 35.9456597, 47.5248431, 0.0 ], [ 35.953127, 47.5230754, 0.0 ], [ 35.9525875, 47.5247382, 0.0 ], [ 35.9522441, 47.5270855, 0.0 ], [ 35.9502271, 47.5270565, 0.0 ], [ 35.9488109, 47.5254627, 0.0 ], [ 35.9466651, 47.5254917, 0.0 ], [ 35.9462789, 47.52639, 0.0 ], [ 35.9450344, 47.5273173, 0.0 ], [ 35.9403137, 47.527752, 0.0 ], [ 35.93864, 47.5280128, 0.0 ], [ 35.9399274, 47.5287083, 0.0 ], [ 35.9389404, 47.5298963, 0.0 ], [ 35.9382108, 47.5291139, 0.0 ], [ 35.9337905, 47.527723, 0.0 ], [ 35.9281257, 47.5287952, 0.0 ], [ 35.926967, 47.5258974, 0.0 ], [ 35.926967, 47.5244774, 0.0 ], [ 35.9273532, 47.5238109, 0.0 ], [ 35.9312585, 47.523579, 0.0 ], [ 35.931264, 47.521385, 0.0 ], [ 35.9347593, 47.5211046, 0.0 ] ] ] } },
{ "type": "Feature", "properties": { "Name": "", "description": "", "tessellate": -1, "extrude": 0, "visibility": -1 }, "geometry": { "type": "Polygon", "coordinates": [ [ [ 37.2119381, 48.4512972, 0.0 ], [ 37.2125926, 48.444289, 0.0 ], [ 37.231543, 48.4527651, 0.0 ], [ 37.2570033, 48.4584926, 0.0 ], [ 37.2677502, 48.4581007, 0.0 ], [ 37.2649178, 48.4664104, 0.0 ], [ 37.2493825, 48.4649876, 0.0 ], [ 37.2477517, 48.470394, 0.0 ], [ 37.2298131, 48.4694266, 0.0 ], [ 37.2277531, 48.4746049, 0.0 ], [ 37.2407135, 48.4759706, 0.0 ], [ 37.2395122, 48.4807219, 0.0 ], [ 37.2345337, 48.4813337, 0.0 ], [ 37.2201142, 48.4786448, 0.0 ], [ 37.2031197, 48.4779051, 0.0 ], [ 37.2097287, 48.4895678, 0.0 ], [ 37.2029481, 48.4919, 0.0 ], [ 37.1916184, 48.4925257, 0.0 ], [ 37.178658, 48.4906486, 0.0 ], [ 37.172564, 48.4897385, 0.0 ], [ 37.1760831, 48.4859839, 0.0 ], [ 37.1810612, 48.4800672, 0.0 ], [ 37.1916184, 48.475117, 0.0 ], [ 37.1974549, 48.4707354, 0.0 ], [ 37.198914, 48.4639063, 0.0 ], [ 37.2000935, 48.4561359, 0.0 ], [ 37.2018959, 48.4506141, 0.0 ], [ 37.2119381, 48.4512972, 0.0 ] ] ] } },
{ "type": "Feature", "properties": { "Name": "", "description": "", "tessellate": -1, "extrude": 0, "visibility": -1 }, "geometry": { "type": "Polygon", "coordinates": [ [ [ 36.0223266, 47.792376, 0.0 ], [ 36.0771693, 47.8001587, 0.0 ], [ 36.0891985, 47.8186706, 0.0 ], [ 36.0634594, 47.8209281, 0.0 ], [ 36.0342964, 47.8086081, 0.0 ], [ 36.0223266, 47.792376, 0.0 ] ] ] } },
{ "type": "Feature", "properties": { "Name": "", "description": "", "tessellate": -1, "extrude": 0, "visibility": -1 }, "geometry": { "type": "Polygon", "coordinates": [ [ [ 36.0728974, 47.6263347, 0.0 ], [ 36.0856861, 47.6276073, 0.0 ], [ 36.093709, 47.6280343, 0.0 ], [ 36.0940523, 47.6301167, 0.0 ], [ 36.1034937, 47.6328931, 0.0 ], [ 36.1014337, 47.6419152, 0.0 ], [ 36.1163683, 47.644344, 0.0 ], [ 36.1136217, 47.6631921, 0.0 ], [ 36.1110468, 47.6710532, 0.0 ], [ 36.0964556, 47.6754456, 0.0 ], [ 36.0789461, 47.6754456, 0.0 ], [ 36.0816018, 47.66841, 0.0 ], [ 36.0738771, 47.668988, 0.0 ], [ 36.0718172, 47.6667916, 0.0 ], [ 36.076967, 47.6437814, 0.0 ], [ 36.0690706, 47.6433188, 0.0 ], [ 36.0697216, 47.6407366, 0.0 ], [ 36.0728974, 47.6263347, 0.0 ] ] ] } },
{ "type": "Feature", "properties": { "Name": "", "description": "", "tessellate": -1, "extrude": 0, "visibility": -1 }, "geometry": { "type": "Polygon", "coordinates": [ [ [ 37.4280468, 48.5653375, 0.0 ], [ 37.4295059, 48.5600833, 0.0 ], [ 37.4270239, 48.5536426, 0.0 ], [ 37.4496499, 48.5517719, 0.0 ], [ 37.4490491, 48.5542717, 0.0 ], [ 37.4486628, 48.5564589, 0.0 ], [ 37.4600354, 48.5585324, 0.0 ], [ 37.4580613, 48.5648944, 0.0 ], [ 37.4573317, 48.5670528, 0.0 ], [ 37.4535123, 48.566854, 0.0 ], [ 37.4499932, 48.5669392, 0.0 ], [ 37.4449292, 48.5656044, 0.0 ], [ 37.4349728, 48.5661724, 0.0 ], [ 37.431325, 48.5663712, 0.0 ], [ 37.4295655, 48.5662576, 0.0 ], [ 37.4280468, 48.5653375, 0.0 ] ] ] } },
{ "type": "Feature", "properties": { "Name": "", "description": "", "tessellate": -1, "extrude": 0, "visibility": -1 }, "geometry": { "type": "Polygon", "coordinates": [ [ [ 37.159633, 50.3350266, 0.0 ], [ 37.1594613, 50.3270821, 0.0 ], [ 37.161376, 50.3253696, 0.0 ], [ 37.1683283, 50.3258353, 0.0 ], [ 37.1687664, 50.3276095, 0.0 ], [ 37.1706547, 50.3303491, 0.0 ], [ 37.1749462, 50.332979, 0.0 ], [ 37.1787458, 50.3359984, 0.0 ], [ 37.1815782, 50.3389019, 0.0 ], [ 37.1842389, 50.3412026, 0.0 ], [ 37.192822, 50.3436676, 0.0 ], [ 37.1976285, 50.3453656, 0.0 ], [ 37.1967702, 50.3516094, 0.0 ], [ 37.2009759, 50.3535809, 0.0 ], [ 37.2081857, 50.3536904, 0.0 ], [ 37.214623, 50.3522666, 0.0 ], [ 37.2231202, 50.3539643, 0.0 ], [ 37.2251802, 50.3516094, 0.0 ], [ 37.2265534, 50.3545667, 0.0 ], [ 37.2266393, 50.3571405, 0.0 ], [ 37.2250943, 50.3587285, 0.0 ], [ 37.2235494, 50.3629994, 0.0 ], [ 37.2299867, 50.366613, 0.0 ], [ 37.2341924, 50.3667772, 0.0 ], [ 37.234879, 50.3682554, 0.0 ], [ 37.2295575, 50.370719, 0.0 ], [ 37.2259526, 50.3715401, 0.0 ], [ 37.2210603, 50.3705548, 0.0 ], [ 37.2180562, 50.3704453, 0.0 ], [ 37.218142, 50.3722518, 0.0 ], [ 37.2156529, 50.3737846, 0.0 ], [ 37.2116193, 50.3738108, 0.0 ], [ 37.212519, 50.371203, 0.0 ], [ 37.21636, 50.369595, 0.0 ], [ 37.218163, 50.367514, 0.0 ], [ 37.217305, 50.365927, 0.0 ], [ 37.200372, 50.355093, 0.0 ], [ 37.1947965, 50.3545929, 0.0 ], [ 37.1592271, 50.3457989, 0.0 ], [ 37.1538823, 50.3397927, 0.0 ], [ 37.159633, 50.3350266, 0.0 ] ] ] } }
]
}
