{
"type": "FeatureCollection",
"name": "Frontlines",
"crs": { "type": "name", "properties": { "name": "urn:ogc:def:crs:OGC:1.3:CRS84" } },
"features": [
{ "type": "Feature", "properties": { "Name": "Active offensive operations beginning / David D's trap (August 6, 2024)", "tessellate": 1, "extrude": 0, "visibility": -1 }, "geometry": { "type": "LineString", "coordinates": [ [ 37.8911478, 48.3211386, 0.0 ], [ 37.8774149, 48.3257043, 0.0 ], [ 37.8674585, 48.3371167, 0.0 ], [ 37.8465158, 48.3446475, 0.0 ], [ 37.8314096, 48.3382578, 0.0 ], [ 37.8187067, 48.3414528, 0.0 ], [ 37.7994806, 48.3389425, 0.0 ], [ 37.7948458, 48.3312967, 0.0 ], [ 37.7996523, 48.3199971, 0.0 ], [ 37.81802, 48.315431, 0.0 ], [ 37.8266031, 48.3024151, 0.0 ], [ 37.8314096, 48.2992177, 0.0 ], [ 37.8369028, 48.290538, 0.0 ], [ 37.81905, 48.2859692, 0.0 ], [ 37.7950174, 48.2877968, 0.0 ], [ 37.796734, 48.2820854, 0.0 ], [ 37.8169901, 48.2788867, 0.0 ], [ 37.8334696, 48.2750024, 0.0 ], [ 37.8324396, 48.2615191, 0.0 ], [ 37.8032572, 48.2622047, 0.0 ], [ 37.776478, 48.259462, 0.0 ], [ 37.7500421, 48.25169, 0.0 ], [ 37.7359659, 48.2356852, 0.0 ], [ 37.7225763, 48.2347704, 0.0 ], [ 37.7036936, 48.2407158, 0.0 ], [ 37.7071268, 48.2523758, 0.0 ], [ 37.6806909, 48.2583191, 0.0 ], [ 37.6714212, 48.2689467, 0.0 ], [ 37.656315, 48.2777443, 0.0 ], [ 37.624386, 48.2770588, 0.0 ], [ 37.6154596, 48.2823139, 0.0 ], [ 37.5938303, 48.280943, 0.0 ], [ 37.5811273, 48.294878, 0.0 ], [ 37.5577814, 48.2983041, 0.0 ], [ 37.5495417, 48.3092659, 0.0 ], [ 37.5289423, 48.3081242, 0.0 ], [ 37.5220758, 48.2983041, 0.0 ], [ 37.5220758, 48.2861977, 0.0 ], [ 37.5110895, 48.2800291, 0.0 ], [ 37.5011331, 48.2861977, 0.0 ], [ 37.4736673, 48.286883, 0.0 ], [ 37.4685175, 48.2814, 0.0 ], [ 37.4523813, 48.2754594, 0.0 ], [ 37.4410517, 48.2688325, 0.0 ], [ 37.4321253, 48.2592334, 0.0 ], [ 37.4321253, 48.2507756, 0.0 ], [ 37.4163324, 48.2464318, 0.0 ], [ 37.4080927, 48.2347704, 0.0 ], [ 37.4238855, 48.2276809, 0.0 ], [ 37.4269754, 48.2112109, 0.0 ], [ 37.4266321, 48.2022875, 0.0 ], [ 37.4283487, 48.2028596, 0.0 ], [ 37.4348719, 48.2070926, 0.0 ], [ 37.442425, 48.21327, 0.0 ], [ 37.4544413, 48.2152145, 0.0 ], [ 37.4681742, 48.2140707, 0.0 ], [ 37.4846537, 48.212698, 0.0 ], [ 37.4719507, 48.1965666, 0.0 ], [ 37.4753839, 48.1894717, 0.0 ], [ 37.4856836, 48.1895861, 0.0 ], [ 37.5126345, 48.2067494, 0.0 ], [ 37.5176126, 48.1981685, 0.0 ], [ 37.5224192, 48.191646, 0.0 ], [ 37.5404436, 48.1880984, 0.0 ], [ 37.5672228, 48.1892428, 0.0 ], [ 37.5586397, 48.1650899, 0.0 ], [ 37.5466234, 48.1561584, 0.0 ], [ 37.5425035, 48.1442474, 0.0 ], [ 37.528084, 48.1387491, 0.0 ], [ 37.5425035, 48.1288964, 0.0 ], [ 37.5449068, 48.1217922, 0.0 ], [ 37.5328905, 48.112624, 0.0 ], [ 37.5479967, 48.0988686, 0.0 ], [ 37.5788957, 48.0862562, 0.0 ], [ 37.5840456, 48.073182, 0.0 ], [ 37.5661928, 48.0665289, 0.0 ], [ 37.5524599, 48.0513842, 0.0 ], [ 37.5555498, 48.0385307, 0.0 ], [ 37.5455934, 48.02797, 0.0 ], [ 37.5177846, 48.0155692, 0.0 ], [ 37.4971849, 48.0017887, 0.0 ], [ 37.4740121, 47.9745574, 0.0 ], [ 37.4096998, 47.9776137, 0.0 ], [ 37.3967826, 47.9708553, 0.0 ], [ 37.4576194, 47.9497727, 0.0 ], [ 37.4363645, 47.900791, 0.0 ], [ 37.4370765, 47.882743, 0.0 ], [ 37.4461632, 47.857258, 0.0 ], [ 37.4099431, 47.8382214, 0.0 ], [ 37.4049776, 47.7982056, 0.0 ], [ 37.3454984, 47.7876585, 0.0 ], [ 37.2970486, 47.7686504, 0.0 ], [ 37.2388474, 47.7651709, 0.0 ], [ 37.1905216, 47.773106, 0.0 ], [ 37.1785286, 47.747638, 0.0 ], [ 37.1382097, 47.7353631, 0.0 ], [ 37.0938029, 47.7398256, 0.0 ], [ 37.0329113, 47.7405698, 0.0 ], [ 36.9749546, 47.7590739, 0.0 ], [ 36.9382399, 47.7662464, 0.0 ], [ 36.8791838, 47.7571424, 0.0 ], [ 36.8155048, 47.7546603, 0.0 ], [ 36.7876108, 47.7486833, 0.0 ], [ 36.702598, 47.7528588, 0.0 ], [ 36.6540765, 47.7429439, 0.0 ], [ 36.5791391, 47.7179002, 0.0 ], [ 36.5485692, 47.6963502, 0.0 ], [ 36.5233385, 47.67933, 0.0 ], [ 36.4892471, 47.6616875, 0.0 ], [ 36.4179696, 47.6480047, 0.0 ], [ 36.3565736, 47.63828, 0.0 ], [ 36.330755, 47.6251995, 0.0 ], [ 36.3282906, 47.6079521, 0.0 ], [ 36.2894309, 47.6028558, 0.0 ], [ 36.2260499, 47.6022842, 0.0 ], [ 36.1502267, 47.5848602, 0.0 ], [ 36.0989459, 47.5856315, 0.0 ], [ 36.0942554, 47.5667919, 0.0 ], [ 36.0633742, 47.551829, 0.0 ], [ 36.0476127, 47.5363979, 0.0 ], [ 36.0230894, 47.5252533, 0.0 ], [ 36.007914, 47.526043, 0.0 ], [ 35.998512, 47.519428, 0.0 ], [ 35.9864569, 47.5175927, 0.0 ], [ 35.9673388, 47.5157289, 0.0 ] ] } },
{ "type": "Feature", "properties": { "Name": "Russian Kharkiv offensive May 2024", "tessellate": 1, "extrude": 0, "visibility": -1 }, "geometry": { "type": "LineString", "coordinates": [ [ 36.3675002, 50.2878125, 0.0 ], [ 36.3867263, 50.2821088, 0.0 ], [ 36.3856963, 50.2674077, 0.0 ], [ 36.3946227, 50.2551167, 0.0 ], [ 36.4128188, 50.2485309, 0.0 ], [ 36.433342, 50.249042, 0.0 ], [ 36.4574507, 50.2426029, 0.0 ], [ 36.4780501, 50.2417246, 0.0 ], [ 36.4838866, 50.2371134, 0.0 ], [ 36.4680938, 50.2305252, 0.0 ], [ 36.4685243, 50.2240145, 0.0 ], [ 36.4804534, 50.2199821, 0.0 ], [ 36.5044873, 50.2251127, 0.0 ], [ 36.5168456, 50.22767, 0.0 ], [ 36.5264586, 50.2142702, 0.0 ], [ 36.5398482, 50.2054815, 0.0 ], [ 36.5360717, 50.2008667, 0.0 ], [ 36.5518645, 50.1975702, 0.0 ], [ 36.5758971, 50.1955922, 0.0 ], [ 36.6040496, 50.2107549, 0.0 ], [ 36.6325454, 50.2184443, 0.0 ], [ 36.6569213, 50.2133914, 0.0 ], [ 36.6788939, 50.2221787, 0.0 ], [ 36.7125236, 50.235137, 0.0 ], [ 36.7722618, 50.2322821, 0.0 ], [ 36.7942345, 50.2344782, 0.0 ], [ 36.82994, 50.2452377, 0.0 ], [ 36.8471062, 50.2606041, 0.0 ], [ 36.8627274, 50.2716868, 0.0 ], [ 36.8493366, 50.2845227, 0.0 ], [ 36.8692505, 50.2925285, 0.0 ], [ 36.8883116, 50.2956709, 0.0 ], [ 36.909198, 50.292234, 0.0 ], [ 36.9234955, 50.2875931, 0.0 ], [ 36.9303626, 50.282164, 0.0 ], [ 36.9451248, 50.2817797, 0.0 ], [ 36.9434941, 50.2890732, 0.0 ], [ 36.9449532, 50.2968054, 0.0 ], [ 36.9573128, 50.2941735, 0.0 ], [ 36.9734489, 50.2976826, 0.0 ], [ 36.9844083, 50.3003143, 0.0 ], [ 37.0094709, 50.306893, 0.0 ], [ 37.0173673, 50.3145668, 0.0 ], [ 37.0391683, 50.3182937, 0.0 ], [ 37.0546178, 50.3353897, 0.0 ], [ 37.059908, 50.347151, 0.0 ] ] } },
{ "type": "Feature", "properties": { "Name": "Линия 3", "tessellate": 1, "extrude": 0, "visibility": -1 }, "geometry": { "type": "LineString", "coordinates": [ [ 37.9094912, 48.3410434, 0.0 ], [ 37.9113402, 48.3468314, 0.0 ], [ 37.9044737, 48.3519651, 0.0 ], [ 37.8835311, 48.3588094, 0.0 ], [ 37.8775229, 48.3671353, 0.0 ], [ 37.8879943, 48.3770561, 0.0 ], [ 37.9025855, 48.3810468, 0.0 ], [ 37.9221549, 48.384809, 0.0 ], [ 37.918035, 48.3976899, 0.0 ], [ 37.9202666, 48.4074909, 0.0 ], [ 37.9285063, 48.4130743, 0.0 ], [ 37.9359609, 48.4152751, 0.0 ], [ 37.955702, 48.4178956, 0.0 ], [ 37.9545003, 48.42849, 0.0 ], [ 37.9416257, 48.4509246, 0.0 ], [ 37.953642, 48.4554787, 0.0 ], [ 37.9665166, 48.4598047, 0.0 ], [ 37.953642, 48.466862, 0.0 ], [ 37.9567319, 48.4760807, 0.0 ], [ 37.9672033, 48.4887109, 0.0 ], [ 37.9752714, 48.4936028, 0.0 ], [ 37.975443, 48.4996318, 0.0 ], [ 37.9672033, 48.5066836, 0.0 ], [ 37.954157, 48.5171458, 0.0 ], [ 37.956217, 48.5206706, 0.0 ], [ 37.9493505, 48.5238541, 0.0 ], [ 37.9393941, 48.5244226, 0.0 ], [ 37.9407674, 48.539314, 0.0 ], [ 37.9361326, 48.5517012, 0.0 ], [ 37.9208547, 48.5580641, 0.0 ], [ 37.9083234, 48.5605636, 0.0 ], [ 37.8975088, 48.5722641, 0.0 ], [ 37.8861791, 48.580555, 0.0 ], [ 37.8750211, 48.587482, 0.0 ], [ 37.862104, 48.58963, 0.0 ], [ 37.8580267, 48.5937269, 0.0 ], [ 37.8543359, 48.5959408, 0.0 ], [ 37.8562242, 48.6033198, 0.0 ], [ 37.8437788, 48.6081439, 0.0 ], [ 37.8441221, 48.6202873, 0.0 ], [ 37.8492719, 48.6255069, 0.0 ], [ 37.8566534, 48.6306126, 0.0 ], [ 37.8757078, 48.6374193, 0.0 ], [ 37.8784544, 48.6497824, 0.0 ], [ 37.8878957, 48.6512568, 0.0 ], [ 37.9084951, 48.6534114, 0.0 ], [ 37.9064352, 48.6664509, 0.0 ], [ 37.9136449, 48.6695119, 0.0 ], [ 37.9079801, 48.6816405, 0.0 ], [ 37.9160482, 48.6938796, 0.0 ], [ 37.9294378, 48.7002245, 0.0 ], [ 37.9393941, 48.7048695, 0.0 ], [ 37.9512388, 48.6992049, 0.0 ], [ 37.9646284, 48.6994315, 0.0 ], [ 37.9771596, 48.7040765, 0.0 ], [ 37.9884035, 48.7155172, 0.0 ], [ 38.0004198, 48.7182354, 0.0 ], [ 38.0079729, 48.729673, 0.0 ], [ 38.0175859, 48.7354474, 0.0 ], [ 38.024624, 48.7419003, 0.0 ], [ 38.0275423, 48.7483524, 0.0 ], [ 38.0326921, 48.746315, 0.0 ], [ 38.037327, 48.7483524, 0.0 ], [ 38.0455667, 48.7510689, 0.0 ], [ 38.0522615, 48.7469942, 0.0 ], [ 38.0594713, 48.7490316, 0.0 ], [ 38.0665094, 48.7567277, 0.0 ], [ 38.0774957, 48.7651015, 0.0 ], [ 38.0747491, 48.7683827, 0.0 ], [ 38.0881387, 48.7706455, 0.0 ], [ 38.0974084, 48.7696273, 0.0 ], [ 38.110798, 48.7706455, 0.0 ], [ 38.1348306, 48.7765283, 0.0 ], [ 38.1439287, 48.7751708, 0.0 ], [ 38.1586916, 48.7744921, 0.0 ], [ 38.1765443, 48.7789039, 0.0 ], [ 38.1854707, 48.7871609, 0.0 ], [ 38.1827241, 48.7938334, 0.0 ], [ 38.1865007, 48.8018618, 0.0 ], [ 38.1830675, 48.8090976, 0.0 ], [ 38.187359, 48.8155411, 0.0 ], [ 38.2034952, 48.818706, 0.0 ], [ 38.2151681, 48.8173496, 0.0 ], [ 38.2409174, 48.8131673, 0.0 ], [ 38.2458955, 48.810002, 0.0 ], [ 38.2477838, 48.8274085, 0.0 ], [ 38.252762, 48.8318157, 0.0 ], [ 38.2673532, 48.8407419, 0.0 ], [ 38.2598001, 48.8462776, 0.0 ], [ 38.2496721, 48.8596059, 0.0 ], [ 38.2546503, 48.8710113, 0.0 ], [ 38.2392007, 48.8714629, 0.0 ], [ 38.2333643, 48.8746243, 0.0 ], [ 38.2376558, 48.8829785, 0.0 ], [ 38.2507021, 48.8918955, 0.0 ], [ 38.2646066, 48.8947171, 0.0 ], [ 38.2647783, 48.902278, 0.0 ], [ 38.2503587, 48.9037449, 0.0 ], [ 38.2443506, 48.9132223, 0.0 ], [ 38.2472688, 48.9179604, 0.0 ], [ 38.2457239, 48.9223596, 0.0 ], [ 38.2383424, 48.9275479, 0.0 ], [ 38.2271844, 48.9349911, 0.0 ], [ 38.2348289, 48.9413318, 0.0 ], [ 38.2332839, 48.9475329, 0.0 ], [ 38.2279624, 48.9493366, 0.0 ], [ 38.221611, 48.9495621, 0.0 ], [ 38.2090797, 48.9479838, 0.0 ], [ 38.1903686, 48.9580164, 0.0 ], [ 38.1853904, 48.9616232, 0.0 ], [ 38.1809272, 48.9696247, 0.0 ], [ 38.1716575, 48.9795403, 0.0 ], [ 38.1428184, 48.9844974, 0.0 ], [ 38.1086578, 48.9874264, 0.0 ], [ 38.1026496, 48.9931711, 0.0 ], [ 38.079647, 48.9958743, 0.0 ], [ 38.0763854, 49.005109, 0.0 ], [ 38.0393066, 49.0067981, 0.0 ], [ 38.0049743, 49.0052216, 0.0 ], [ 37.9874648, 49.0092754, 0.0 ], [ 37.9699554, 49.0297642, 0.0 ], [ 37.9943313, 49.0446189, 0.0 ], [ 37.9994811, 49.0695919, 0.0 ], [ 37.9953613, 49.0920793, 0.0 ], [ 38.004631, 49.1051173, 0.0 ], [ 38.0111541, 49.1177025, 0.0 ], [ 38.0276336, 49.1466813, 0.0 ], [ 38.0533828, 49.1500498, 0.0 ], [ 38.0623092, 49.1689093, 0.0 ], [ 38.0506362, 49.1882104, 0.0 ], [ 38.0526962, 49.2043637, 0.0 ], [ 38.0406799, 49.2149053, 0.0 ], [ 38.0272903, 49.2202874, 0.0 ], [ 37.991928, 49.2214086, 0.0 ], [ 37.9830016, 49.2243236, 0.0 ], [ 37.9854049, 49.2279111, 0.0 ], [ 38.0121841, 49.2297047, 0.0 ], [ 38.0314102, 49.2344127, 0.0 ], [ 38.0070342, 49.2460686, 0.0 ], [ 38.013214, 49.2572735, 0.0 ], [ 37.9943313, 49.2700441, 0.0 ], [ 37.9836883, 49.2843791, 0.0 ], [ 37.9771652, 49.2910972, 0.0 ], [ 37.9661788, 49.3005009, 0.0 ], [ 37.9369964, 49.3043067, 0.0 ], [ 37.918457, 49.3112459, 0.0 ], [ 37.9205169, 49.3181841, 0.0 ], [ 37.9606857, 49.314827, 0.0 ], [ 37.9641189, 49.3387692, 0.0 ], [ 37.9496993, 49.3481639, 0.0 ], [ 37.9442062, 49.3685128, 0.0 ], [ 37.939743, 49.3823721, 0.0 ], [ 37.9109039, 49.3848306, 0.0 ], [ 37.907814, 49.4053878, 0.0 ], [ 37.895111, 49.4156632, 0.0 ], [ 37.8954543, 49.4212468, 0.0 ], [ 37.897171, 49.4312955, 0.0 ], [ 37.9119338, 49.4382168, 0.0 ], [ 37.9260101, 49.4471461, 0.0 ], [ 37.9249801, 49.4587517, 0.0 ], [ 37.8999175, 49.4739241, 0.0 ], [ 37.907814, 49.4801702, 0.0 ], [ 37.9222335, 49.4797241, 0.0 ], [ 37.9291, 49.4991267, 0.0 ], [ 37.9212035, 49.5169614, 0.0 ], [ 37.9222335, 49.5307788, 0.0 ], [ 37.9009475, 49.5359036, 0.0 ], [ 37.8789748, 49.5381316, 0.0 ], [ 37.8731384, 49.5490474, 0.0 ], [ 37.8755416, 49.5575111, 0.0 ], [ 37.840866, 49.5624104, 0.0 ], [ 37.8164901, 49.5568429, 0.0 ], [ 37.8068771, 49.5617423, 0.0 ], [ 37.808937, 49.5722076, 0.0 ], [ 37.8329696, 49.5799994, 0.0 ], [ 37.8566589, 49.5891254, 0.0 ], [ 37.8587188, 49.5989172, 0.0 ], [ 37.8666152, 49.614936, 0.0 ], [ 37.8765716, 49.6167155, 0.0 ], [ 37.872795, 49.6376202, 0.0 ], [ 37.8659286, 49.6498475, 0.0 ], [ 37.8724517, 49.6580714, 0.0 ], [ 37.8542556, 49.6778476, 0.0 ], [ 37.851509, 49.6840676, 0.0 ], [ 37.8604354, 49.690509, 0.0 ], [ 37.8851547, 49.6969495, 0.0 ], [ 37.8700485, 49.711604, 0.0 ], [ 37.842926, 49.729805, 0.0 ], [ 37.8346862, 49.7395685, 0.0 ], [ 37.8013839, 49.7550974, 0.0 ], [ 37.7852477, 49.7604204, 0.0 ], [ 37.7612151, 49.7681822, 0.0 ], [ 37.7351226, 49.7655212, 0.0 ], [ 37.7055969, 49.7668517, 0.0 ], [ 37.6939239, 49.7650776, 0.0 ], [ 37.6880874, 49.7688474, 0.0 ], [ 37.6774444, 49.7814851, 0.0 ], [ 37.6784744, 49.7901301, 0.0 ], [ 37.6743545, 49.8045349, 0.0 ], [ 37.680191, 49.8105171, 0.0 ], [ 37.6805343, 49.8164987, 0.0 ], [ 37.678131, 49.8264663, 0.0 ], [ 37.6856841, 49.8366532, 0.0 ], [ 37.6966705, 49.8463953, 0.0 ], [ 37.7148666, 49.8563567, 0.0 ], [ 37.7260246, 49.8594554, 0.0 ], [ 37.7364959, 49.8625539, 0.0 ], [ 37.7371826, 49.8728439, 0.0 ], [ 37.7395858, 49.8803664, 0.0 ], [ 37.7481689, 49.890542, 0.0 ], [ 37.755722, 49.9016, 0.0 ], [ 37.7636184, 49.8999415, 0.0 ], [ 37.7727165, 49.9061331, 0.0 ], [ 37.7783813, 49.9133187, 0.0 ], [ 37.777523, 49.9277974, 0.0 ], [ 37.786106, 49.932991, 0.0 ], [ 37.7931442, 49.9384049, 0.0 ], [ 37.8106536, 49.948016, 0.0 ], [ 37.820095, 49.957073, 0.0 ], [ 37.8329696, 49.968447, 0.0 ], [ 37.8497924, 49.9686678, 0.0 ], [ 37.8669586, 49.9713177, 0.0 ], [ 37.8892745, 49.9821364, 0.0 ], [ 37.8978576, 49.994277, 0.0 ], [ 37.9009603, 50.0026071, 0.0 ], [ 37.9133199, 50.0043725, 0.0 ], [ 37.9236196, 50.0063584, 0.0 ], [ 37.9342626, 50.0125363, 0.0 ], [ 37.9356359, 50.0139704, 0.0 ] ] } },
{ "type": "Feature", "properties": { "Name": "Линия 4", "tessellate": 1, "extrude": 0, "visibility": -1 }, "geometry": { "type": "LineString", "coordinates": [ [ 35.9673388, 47.5157289, 0.0 ], [ 35.9553871, 47.5173233, 0.0 ], [ 35.9498081, 47.5188883, 0.0 ], [ 35.9413108, 47.525554, 0.0 ], [ 35.9362468, 47.5295529, 0.0 ], [ 35.9280071, 47.5300745, 0.0 ], [ 35.9207115, 47.5293211, 0.0 ], [ 35.9185657, 47.5274665, 0.0 ], [ 35.9166774, 47.5203954, 0.0 ], [ 35.9144458, 47.5171494, 0.0 ], [ 35.9164199, 47.5123958, 0.0 ], [ 35.9116134, 47.5049168, 0.0 ], [ 35.9006271, 47.5037572, 0.0 ], [ 35.8977088, 47.4974947, 0.0 ], [ 35.8892974, 47.4880996, 0.0 ], [ 35.8843193, 47.4832274, 0.0 ], [ 35.8791694, 47.4679119, 0.0 ], [ 35.8729896, 47.4626897, 0.0 ], [ 35.8767662, 47.4492256, 0.0 ], [ 35.8666381, 47.4448142, 0.0 ], [ 35.8523902, 47.4446981, 0.0 ], [ 35.8551368, 47.451199, 0.0 ], [ 35.8498153, 47.4582794, 0.0 ], [ 35.8345375, 47.4615291, 0.0 ], [ 35.8307609, 47.4550295, 0.0 ], [ 35.8228645, 47.4571188, 0.0 ], [ 35.8130798, 47.4639663, 0.0 ], [ 35.8014068, 47.4650108, 0.0 ], [ 35.7945404, 47.4704648, 0.0 ], [ 35.7892189, 47.4770786, 0.0 ], [ 35.7698211, 47.4826474, 0.0 ], [ 35.7471618, 47.4899556, 0.0 ], [ 35.7378921, 47.4943632, 0.0 ], [ 35.7257041, 47.5027135, 0.0 ], [ 35.7119712, 47.5109465, 0.0 ], [ 35.7033882, 47.5116422, 0.0 ], [ 35.6891403, 47.5088594, 0.0 ], [ 35.6786689, 47.5052647, 0.0 ], [ 35.6738624, 47.5016698, 0.0 ], [ 35.6623611, 47.4994663, 0.0 ], [ 35.6333503, 47.5002781, 0.0 ], [ 35.6191024, 47.5037572, 0.0 ], [ 35.6160125, 47.5070041, 0.0 ], [ 35.6098327, 47.5157001, 0.0 ], [ 35.6007347, 47.526829, 0.0 ], [ 35.5873451, 47.5336675, 0.0 ], [ 35.5634841, 47.534247, 0.0 ], [ 35.5418548, 47.5344787, 0.0 ], [ 35.5308685, 47.5320449, 0.0 ], [ 35.5214271, 47.5260176, 0.0 ], [ 35.515419, 47.5188304, 0.0 ], [ 35.5073509, 47.5078158, 0.0 ], [ 35.4908714, 47.5012059, 0.0 ], [ 35.4745635, 47.5031773, 0.0 ], [ 35.4670104, 47.5030614, 0.0 ], [ 35.4618606, 47.5088594, 0.0 ], [ 35.4488143, 47.5070041, 0.0 ], [ 35.439373, 47.5039891, 0.0 ], [ 35.4319915, 47.5057285, 0.0 ], [ 35.4218635, 47.504221, 0.0 ], [ 35.4187736, 47.4983066, 0.0 ], [ 35.3945693, 47.5019017, 0.0 ], [ 35.385643, 47.507236, 0.0 ], [ 35.3801498, 47.51941, 0.0 ], [ 35.3815231, 47.5305381, 0.0 ], [ 35.3797207, 47.5356956, 0.0 ], [ 35.3634986, 47.5378976, 0.0 ] ] } }
]
}
