{
  "type": "FeatureCollection",
  "features": [
    {
      "type": "Feature",
      "properties": {
        "Name": "Automatically generated Gray Zone"
      },
      "geometry": {
        "type": "Polygon",
        "coordinates": [
          [
            [
              33.12318203524963,
              52.1775376956803
            ],
            [
              33.21640144224778,
              52.20355434901334
            ],
            [
              33.23521199959198,
              52.21817207233225
            ],
            [
              33.26938641148189,
              52.229449004866794
            ],
            [
              33.358366433293966,
              52.22711219683349
            ],
            [
              33.422284632547345,
              52.19911227537451
            ],
            [
              33.51040681970342,
              52.18631945517177
            ],
            [
              33.58866338485187,
              52.191644075494914
            ],
            [
              33.719308680148465,
              52.227430259002666
            ],
            [
              33.74716545021112,
              52.21310393263836
            ],
            [
              33.78207307003604,
              52.17142050645477
            ],
            [
              33.805883433963686,
              52.15457199681669
            ],
            [
              33.82583956430251,
              52.12968505479373
            ],
            [
              33.87984463382258,
              52.097816759699896
            ],
            [
              33.87265014074726,
              52.075976179904956
            ],
            [
              33.88397064849945,
              52.037300294955415
            ],
            [
              33.888111132733,
              51.98525309474019
            ],
            [
              33.92884558229929,
              51.93507010815191
            ],
            [
              33.95914003451239,
              51.91970050305208
            ],
            [
              33.98866704857223,
              51.88673603396353
            ],
            [
              34.067898245451005,
              51.848866585385636
            ],
            [
              34.076118017570685,
              51.83009153487678
            ],
            [
              34.098083878566435,
              51.811597564097056
            ],
            [
              34.011479520232434,
              51.78873114939744
            ],
            [
              33.950014991966064,
              51.75697611210426
            ],
            [
              33.91130612726873,
              51.71361652077528
            ],
            [
              33.90052618124129,
              51.66452571930209
            ],
            [
              33.90125701402248,
              51.65537019859824
            ],
            [
              33.94305618307749,
              51.5822346142249
            ],
            [
              33.999902862420065,
              51.54617290737211
            ],
            [
              34.0097956211903,
              51.53080415010514
            ],
            [
              34.06264921906262,
              51.49904341982895
            ],
            [
              34.05083263608946,
              51.490657450652876
            ],
            [
              34.02053020702286,
              51.43453052297317
            ],
            [
              34.03173081289161,
              51.37572936891111
            ],
            [
              34.06755980987521,
              51.33919866387433
            ],
            [
              34.04383305169056,
              51.310959346767206
            ],
            [
              34.03825960837159,
              51.254635878175876
            ],
            [
              34.0640242150427,
              51.20161513470203
            ],
            [
              34.110360570979864,
              51.16500460270086
            ],
            [
              34.19414832151279,
              51.131574757211474
            ],
            [
              34.26468659744584,
              51.119235231794676
            ],
            [
              34.30302828061694,
              51.11623465299236
            ],
            [
              34.38248153697014,
              51.11930322297942
            ],
            [
              34.405609384902284,
              51.126018846108785
            ],
            [
              34.4581077703922,
              51.11333232881604
            ],
            [
              34.51993090829107,
              51.114551659559446
            ],
            [
              34.60113256986149,
              51.06106824098592
            ],
            [
              34.67917732931869,
              51.041728752012894
            ],
            [
              34.76304085302078,
              51.04261972396266
            ],
            [
              34.777729967037466,
              51.0466303197885
            ],
            [
              34.82812356823951,
              51.03959308182419
            ],
            [
              34.910717639315905,
              51.04871687944266
            ],
            [
              34.9519100215598,
              51.06518303397475
            ],
            [
              34.95706980112331,
              51.04096225256117
            ],
            [
              35.012353438054795,
              50.98969802915283
            ],
            [
              35.07307950654241,
              50.94410463336229
            ],
            [
              35.12339803134018,
              50.92682038404649
            ],
            [
              35.128604565274294,
              50.8979831473043
            ],
            [
              35.176235701494385,
              50.847307645175896
            ],
            [
              35.1788557460843,
              50.82873131208799
            ],
            [
              35.201405105810885,
              50.80485832867034
            ],
            [
              35.19908336220686,
              50.78745465307206
            ],
            [
              35.231934223291034,
              50.73182535068269
            ],
            [
              35.19929194201382,
              50.68916400684539
            ],
            [
              35.192268235146564,
              50.61838946388556
            ],
            [
              35.21312580663598,
              50.58448864935901
            ],
            [
              35.217903841704825,
              50.54725783729037
            ],
            [
              35.24493308818981,
              50.50365221244771
            ],
            [
              35.25511073193587,
              50.47815024201426
            ],
            [
              35.289532749263756,
              50.43636379042701
            ],
            [
              35.318933366466936,
              50.40981723463201
            ],
            [
              35.390487935883456,
              50.37041426967489
            ],
            [
              35.41963401958428,
              50.32288293382753
            ],
            [
              35.47108181184948,
              50.26893264935088
            ],
            [
              35.555211539814344,
              50.23581743690664
            ],
            [
              35.57713125558853,
              50.23123095071941
            ],
            [
              35.635577333555304,
              50.2246035226866
            ],
            [
              35.69919236891473,
              50.22495546872719
            ],
            [
              35.78441494744351,
              50.23615757046451
            ],
            [
              35.84785499651011,
              50.25672510147439
            ],
            [
              35.884887777358514,
              50.28827892083664
            ],
            [
              35.904388981117954,
              50.34336174149836
            ],
            [
              35.88684746201055,
              50.39871737200709
            ],
            [
              35.83522475486333,
              50.44462826154566
            ],
            [
              35.79506087695647,
              50.45950176906381
            ],
            [
              35.78076657576731,
              50.506107173061494
            ],
            [
              35.740001750316836,
              50.547630424975516
            ],
            [
              35.67853610899073,
              50.577147554111136
            ],
            [
              35.64246201526078,
              50.58377939899592
            ],
            [
              35.62870823833682,
              50.60216209884186
            ],
            [
              35.63431855225246,
              50.62251316671539
            ],
            [
              35.61019221527781,
              50.66939393545023
            ],
            [
              35.56816530123563,
              50.79464661097128
            ],
            [
              35.56630133749153,
              50.84561552617334
            ],
            [
              35.545228806613444,
              50.93367596421878
            ],
            [
              35.49157576880672,
              50.987622002374565
            ],
            [
              35.47174965985163,
              51.01981702200667
            ],
            [
              35.40921159465697,
              51.07042337286694
            ],
            [
              35.39961886365173,
              51.083760019652956
            ],
            [
              35.33940303897703,
              51.1195274377277
            ],
            [
              35.28027535872931,
              51.143168662459225
            ],
            [
              35.24185419318888,
              51.17603902911256
            ],
            [
              35.16821630768879,
              51.20580578248349
            ],
            [
              35.092214648163896,
              51.2248303089429
            ],
            [
              34.99964230885138,
              51.22282053787185
            ],
            [
              34.95370888920439,
              51.21459375343313
            ],
            [
              34.92013373491668,
              51.21861961007867
            ],
            [
              34.86614615363296,
              51.26555220372432
            ],
            [
              34.85673281162075,
              51.2862764241055
            ],
            [
              34.82249106252484,
              51.32973405831131
            ],
            [
              34.76581834156131,
              51.362805536669576
            ],
            [
              34.69402872598122,
              51.38119993229948
            ],
            [
              34.64170015234527,
              51.3880958163547
            ],
            [
              34.56519915946592,
              51.38949323456223
            ],
            [
              34.54364065087791,
              51.38492523919323
            ],
            [
              34.5277357571306,
              51.42079060716654
            ],
            [
              34.4786321563539,
              51.46119258458214
            ],
            [
              34.481438666631114,
              51.487167681978256
            ],
            [
              34.475365250998344,
              51.527939647367695
            ],
            [
              34.451388696917114,
              51.60370618364126
            ],
            [
              34.43689603284768,
              51.626072403028544
            ],
            [
              34.45504198217078,
              51.64214372453905
            ],
            [
              34.50766018213643,
              51.66339723932574
            ],
            [
              34.568432886144976,
              51.71563458510553
            ],
            [
              34.59155006608718,
              51.76514196115057
            ],
            [
              34.59385172588263,
              51.781021789195556
            ],
            [
              34.59262703194037,
              51.81321606775813
            ],
            [
              34.58469674184632,
              51.838713126629536
            ],
            [
              34.54806758246011,
              51.88957361446055
            ],
            [
              34.49723150264815,
              51.921052052022
            ],
            [
              34.4692912699336,
              51.92949799211432
            ],
            [
              34.42626223216552,
              51.969089263753894
            ],
            [
              34.40389737287781,
              51.97920936169115
            ],
            [
              34.376581089412,
              52.00411309788249
            ],
            [
              34.281620274725995,
              52.05966412240154
            ],
            [
              34.27687155922491,
              52.06855676241506
            ],
            [
              34.298945056024294,
              52.143262671753824
            ],
            [
              34.275308191519336,
              52.19871803028751
            ],
            [
              34.24381431797483,
              52.2551425547637
            ],
            [
              34.227275799304586,
              52.27155554426196
            ],
            [
              34.17065444475384,
              52.309192957503434
            ],
            [
              34.15088582928444,
              52.31495594944729
            ],
            [
              34.140400933449826,
              52.338869363101516
            ],
            [
              34.09601070779005,
              52.377395547333066
            ],
            [
              34.06724739238433,
              52.39481789364262
            ],
            [
              34.01315091845889,
              52.4125048868546
            ],
            [
              33.99945030898794,
              52.43310336007053
            ],
            [
              33.94468596432712,
              52.468889069804014
            ],
            [
              33.87250195703205,
              52.490375071457436
            ],
            [
              33.7924531236126,
              52.494712227918555
            ],
            [
              33.6836369722998,
              52.4884029110165
            ],
            [
              33.613116808582696,
              52.470809129699326
            ],
            [
              33.600398583709946,
              52.47555653409277
            ],
            [
              33.51620211468008,
              52.48391169622792
            ],
            [
              33.43355346290196,
              52.48222823755973
            ],
            [
              33.335249448843044,
              52.465857262060965
            ],
            [
              33.25952617966507,
              52.4243452644269
            ],
            [
              33.21566371396563,
              52.38567182697753
            ],
            [
              33.18392924372764,
              52.34370466601743
            ],
            [
              33.12499998589034,
              52.20804121734351
            ],
            [
              33.12318203524963,
              52.1775376956803
            ]
          ]
        ]
      }
    }
  ]
}