{
"type": "FeatureCollection",
"name": "Land corridor to Crimea",
"crs": { "type": "name", "properties": { "name": "urn:ogc:def:crs:OGC:1.3:CRS84" } },
"features": [
{ "type": "Feature", "properties": { "Name": "", "description": "", "tessellate": 1, "extrude": 0, "visibility": -1, "__________": "Трасса \"Новороссия\"" }, "geometry": { "type": "LineString", "coordinates": [ [ 34.0876377, 44.9891396, 0.0 ], [ 34.074541, 44.9938034, 0.0 ], [ 34.0481051, 45.0161359, 0.0 ], [ 34.0470752, 45.0365189, 0.0 ], [ 34.0472624, 45.1413638, 0.0 ], [ 34.1344843, 45.2805513, 0.0 ], [ 34.1921625, 45.3375341, 0.0 ], [ 34.2457209, 45.3944597, 0.0 ], [ 34.3733477, 45.5955606, 0.0 ], [ 34.3719744, 45.6320636, 0.0 ], [ 34.3815875, 45.6599051, 0.0 ], [ 34.3898272, 45.6819765, 0.0 ], [ 34.3959422, 45.6989988, 0.0 ], [ 34.4116513, 45.7111028, 0.0 ], [ 34.4235664, 45.7259891, 0.0 ], [ 34.423408, 45.7411852, 0.0 ], [ 34.4268413, 45.7613084, 0.0 ], [ 34.4275279, 45.7814244, 0.0 ], [ 34.4412608, 45.7972247, 0.0 ], [ 34.458427, 45.8106275, 0.0 ], [ 34.4987565, 45.8514643, 0.0 ], [ 34.5701676, 45.8987922, 0.0 ], [ 34.6017533, 45.9198139, 0.0 ], [ 34.60038, 45.9293666, 0.0 ], [ 34.5935136, 45.9427375, 0.0 ], [ 34.5765243, 45.9706047, 0.0 ], [ 34.5703445, 45.9806258, 0.0 ], [ 34.565538, 45.9846814, 0.0 ], [ 34.5566116, 45.9868284, 0.0 ], [ 34.5490585, 45.9899295, 0.0 ], [ 34.5463119, 45.9947, 0.0 ], [ 34.5466553, 45.9985161, 0.0 ], [ 34.5469986, 46.0137779, 0.0 ], [ 34.5627914, 46.0352327, 0.0 ], [ 34.5909439, 46.0814513, 0.0 ], [ 34.598497, 46.0943094, 0.0 ], [ 34.6001383, 46.1453363, 0.0 ], [ 34.6015116, 46.1615087, 0.0 ], [ 34.5980784, 46.1714952, 0.0 ], [ 34.685969, 46.228051, 0.0 ], [ 34.7045084, 46.2413498, 0.0 ], [ 34.7196146, 46.2570193, 0.0 ], [ 34.8642901, 46.3818072, 0.0 ], [ 34.9357013, 46.4518671, 0.0 ], [ 35.0400714, 46.5567882, 0.0 ], [ 35.0771502, 46.5851105, 0.0 ], [ 35.1320819, 46.6247369, 0.0 ], [ 35.1732806, 46.6483103, 0.0 ], [ 35.1897601, 46.673758, 0.0 ], [ 35.203493, 46.6926004, 0.0 ], [ 35.2172259, 46.7387366, 0.0 ], [ 35.276823, 46.7762544, 0.0 ], [ 35.3018152, 46.7925491, 0.0 ], [ 35.320425, 46.8063419, 0.0 ], [ 35.3317547, 46.814801, 0.0 ], [ 35.3406811, 46.8213793, 0.0 ], [ 35.3502941, 46.8249031, 0.0 ], [ 35.3581905, 46.8284267, 0.0 ], [ 35.364027, 46.8314802, 0.0 ], [ 35.3722668, 46.8371171, 0.0 ], [ 35.3731443, 46.8403547, 0.0 ], [ 35.3729727, 46.8437012, 0.0 ], [ 35.3753427, 46.8466477, 0.0 ], [ 35.3768351, 46.8486911, 0.0 ], [ 35.3774026, 46.8500524, 0.0 ], [ 35.3816941, 46.848174, 0.0 ], [ 35.386329, 46.848174, 0.0 ], [ 35.3870156, 46.8462955, 0.0 ], [ 35.3927996, 46.8462255, 0.0 ], [ 35.4717638, 46.8233258, 0.0 ], [ 35.4953646, 46.8180409, 0.0 ], [ 35.6388735, 46.7305715, 0.0 ], [ 35.8531974, 46.7191951, 0.0 ], [ 36.0449056, 46.7263051, 0.0 ], [ 36.0648183, 46.7314823, 0.0 ], [ 36.086791, 46.7324236, 0.0 ], [ 36.3271169, 46.7357179, 0.0 ], [ 36.346343, 46.7376003, 0.0 ], [ 36.3528661, 46.7463055, 0.0 ], [ 36.367629, 46.7481875, 0.0 ], [ 36.3779287, 46.7550092, 0.0 ], [ 36.3837652, 46.7623004, 0.0 ], [ 36.3930349, 46.7634763, 0.0 ], [ 36.4091711, 46.7592429, 0.0 ], [ 36.4328603, 46.7514808, 0.0 ], [ 36.4479665, 46.7472465, 0.0 ], [ 36.4627294, 46.7495989, 0.0 ], [ 36.477149, 46.7554796, 0.0 ], [ 36.583785, 46.790081, 0.0 ], [ 36.6497029, 46.7966624, 0.0 ], [ 36.6637792, 46.8088829, 0.0 ], [ 36.6716756, 46.8161668, 0.0 ], [ 36.691245, 46.8269734, 0.0 ], [ 36.7012014, 46.832141, 0.0 ], [ 36.7276372, 46.8401264, 0.0 ], [ 36.7640476, 46.8706168, 0.0 ], [ 36.7702804, 46.8807923, 0.0 ], [ 36.7792068, 46.9023774, 0.0 ], [ 36.7874465, 46.9220779, 0.0 ], [ 36.7936263, 46.9323943, 0.0 ], [ 36.8032189, 46.9439752, 0.0 ], [ 36.815599, 46.9417712, 0.0 ], [ 36.8320785, 46.9366141, 0.0 ], [ 36.8506179, 46.9314565, 0.0 ], [ 36.9014297, 46.9473965, 0.0 ], [ 36.9261489, 46.9727031, 0.0 ], [ 36.9488082, 46.9858203, 0.0 ], [ 36.9838271, 46.9951878, 0.0 ], [ 37.009233, 47.0148542, 0.0 ], [ 37.0222793, 47.0232804, 0.0 ], [ 37.0758376, 47.0326414, 0.0 ], [ 37.0971236, 47.0410648, 0.0 ], [ 37.1746182, 47.0785065, 0.0 ], [ 37.2034573, 47.0864551, 0.0 ], [ 37.2721218, 47.0635411, 0.0 ], [ 37.286681, 47.0583826, 0.0 ], [ 37.3098873, 47.0588636, 0.0 ], [ 37.3359799, 47.065412, 0.0 ], [ 37.3696255, 47.0780389, 0.0 ], [ 37.397778, 47.081312, 0.0 ], [ 37.4211239, 47.0827148, 0.0 ], [ 37.4430966, 47.0901953, 0.0 ], [ 37.4719357, 47.0934677, 0.0 ], [ 37.493154, 47.1006891, 0.0 ], [ 37.5396107, 47.0972275, 0.0 ], [ 37.5435538, 47.0973174, 0.0 ], [ 37.5471415, 47.0961901, 0.0 ], [ 37.548429, 47.0970666, 0.0 ], [ 37.5501456, 47.096716, 0.0 ], [ 37.5514331, 47.0959564, 0.0 ], [ 37.5508323, 47.0951384, 0.0 ], [ 37.5496306, 47.0948462, 0.0 ], [ 37.547914, 47.0953136, 0.0 ], [ 37.5472274, 47.0960148, 0.0 ], [ 37.5481715, 47.0968913, 0.0 ], [ 37.5498881, 47.096716, 0.0 ], [ 37.5515189, 47.095898, 0.0 ], [ 37.5521197, 47.0952552, 0.0 ], [ 37.5603595, 47.0935022, 0.0 ], [ 37.5614753, 47.0953136, 0.0 ], [ 37.5617327, 47.0975924, 0.0 ], [ 37.5619044, 47.1010397, 0.0 ], [ 37.5633635, 47.1033766, 0.0 ], [ 37.565166, 47.1043114, 0.0 ], [ 37.5670543, 47.1029093, 0.0 ], [ 37.5694575, 47.1016239, 0.0 ], [ 37.5725474, 47.1010397, 0.0 ], [ 37.5753906, 47.1035721, 0.0 ], [ 37.5830296, 47.1061427, 0.0 ], [ 37.6043156, 47.1116923, 0.0 ], [ 37.611182, 47.1143793, 0.0 ], [ 37.612212, 47.1158395, 0.0 ], [ 37.6237991, 47.113211, 0.0 ], [ 37.6322479, 47.1170457, 0.0 ], [ 37.6391144, 47.1182139, 0.0 ], [ 37.6720733, 47.1288428, 0.0 ], [ 37.6904411, 47.1314122, 0.0 ], [ 37.7010117, 47.1299515, 0.0 ], [ 37.7482186, 47.1126641, 0.0 ], [ 37.7671013, 47.1107948, 0.0 ], [ 37.7725945, 47.1082245, 0.0 ], [ 37.7849541, 47.101915, 0.0 ], [ 37.7976571, 47.1002791, 0.0 ], [ 37.8055535, 47.1014476, 0.0 ], [ 37.8206597, 47.1058877, 0.0 ], [ 37.8398858, 47.1068225, 0.0 ], [ 37.8839103, 47.1120959, 0.0 ], [ 37.8924933, 47.1153669, 0.0 ], [ 37.8993598, 47.1148997, 0.0 ], [ 37.9096595, 47.1113949, 0.0 ], [ 37.969741, 47.1043848, 0.0 ], [ 37.9913703, 47.1029826, 0.0 ], [ 38.0051032, 47.1022815, 0.0 ], [ 38.0318824, 47.1081236, 0.0 ], [ 38.043212, 47.1118622, 0.0 ], [ 38.0514518, 47.1195723, 0.0 ], [ 38.0593482, 47.1237773, 0.0 ], [ 38.0727378, 47.1244781, 0.0 ], [ 38.0833808, 47.1254125, 0.0 ], [ 38.0998603, 47.1289163, 0.0 ], [ 38.10913, 47.1298506, 0.0 ], [ 38.1289735, 47.1400347, 0.0 ], [ 38.1619324, 47.151243, 0.0 ], [ 38.1866517, 47.1568463, 0.0 ], [ 38.2333436, 47.1605815, 0.0 ], [ 38.3040681, 47.162449, 0.0 ], [ 38.3384003, 47.1643164, 0.0 ], [ 38.3514466, 47.1619821, 0.0 ], [ 38.4215402, 47.1760362, 0.0 ], [ 38.4579324, 47.1877035, 0.0 ], [ 38.4812784, 47.1937696, 0.0 ], [ 38.4970712, 47.1942361, 0.0 ], [ 38.5156106, 47.1863036, 0.0 ], [ 38.5279703, 47.1755694, 0.0 ], [ 38.5492563, 47.1727689, 0.0 ], [ 38.5739755, 47.1765029, 0.0 ], [ 38.6426401, 47.1937696, 0.0 ], [ 38.675599, 47.1989018, 0.0 ], [ 38.7401437, 47.2072989, 0.0 ], [ 38.7687667, 47.2128978, 0.0 ], [ 38.7742599, 47.2219922, 0.0 ], [ 38.7804397, 47.2282875, 0.0 ], [ 38.7917693, 47.2334164, 0.0 ], [ 38.8055022, 47.2364469, 0.0 ], [ 38.8164886, 47.2420411, 0.0 ], [ 38.8219817, 47.2490332, 0.0 ], [ 38.8247283, 47.2560243, 0.0 ], [ 38.8291915, 47.2627814, 0.0 ], [ 38.835028, 47.2651113, 0.0 ], [ 38.8436767, 47.2680356, 0.0 ], [ 38.8824722, 47.2878342, 0.0 ], [ 38.9030715, 47.2885329, 0.0 ], [ 38.9610931, 47.2869027, 0.0 ], [ 38.9744827, 47.2943545, 0.0 ], [ 39.0115902, 47.3164258, 0.0 ], [ 39.0328762, 47.323408, 0.0 ], [ 39.0534756, 47.3224771, 0.0 ], [ 39.0871212, 47.3224771, 0.0 ], [ 39.1042873, 47.3154948, 0.0 ], [ 39.1242, 47.3075804, 0.0 ], [ 39.1956112, 47.2991991, 0.0 ], [ 39.2093441, 47.3029243, 0.0 ], [ 39.2182705, 47.2978021, 0.0 ], [ 39.281676, 47.2949144, 0.0 ], [ 39.3208148, 47.2879284, 0.0 ], [ 39.3633868, 47.2883942, 0.0 ], [ 39.376051, 47.2858752, 0.0 ], [ 39.3904705, 47.2841285, 0.0 ], [ 39.4026585, 47.282964, 0.0 ], [ 39.4131298, 47.2821489, 0.0 ], [ 39.4237728, 47.2835463, 0.0 ], [ 39.4304676, 47.2841285, 0.0 ], [ 39.4376774, 47.2830805, 0.0 ], [ 39.4466038, 47.2805185, 0.0 ], [ 39.448976, 47.2798051, 0.0 ], [ 39.4639842, 47.2781524, 0.0 ], [ 39.4699923, 47.2761725, 0.0 ], [ 39.4832102, 47.2753572, 0.0 ], [ 39.4885317, 47.2738431, 0.0 ], [ 39.4967715, 47.2710477, 0.0 ], [ 39.5043246, 47.2701159, 0.0 ], [ 39.5194308, 47.2701159, 0.0 ], [ 39.5338503, 47.2737266, 0.0 ], [ 39.5563515, 47.2712976, 0.0 ], [ 39.5659646, 47.2673372, 0.0 ], [ 39.5807274, 47.2657064, 0.0 ], [ 39.5917138, 47.2659394, 0.0 ], [ 39.6199509, 47.2604743, 0.0 ], [ 39.6403786, 47.2569792, 0.0 ], [ 39.6465584, 47.2580278, 0.0 ], [ 39.6530816, 47.2609403, 0.0 ], [ 39.6575448, 47.2622218, 0.0 ], [ 39.6626946, 47.2628043, 0.0 ], [ 39.6690461, 47.2629208, 0.0 ], [ 39.6821438, 47.2660346, 0.0 ], [ 39.6830021, 47.2627728, 0.0 ], [ 39.6869503, 47.2611419, 0.0 ], [ 39.704036, 47.2537214, 0.0 ], [ 39.6970408, 47.2513619, 0.0 ], [ 39.6971695, 47.2504298, 0.0 ], [ 39.6971695, 47.2492063, 0.0 ], [ 39.6966974, 47.2444576, 0.0 ], [ 39.6985643, 47.2402767, 0.0 ], [ 39.7014825, 47.2405244, 0.0 ], [ 39.7012465, 47.2398907, 0.0 ], [ 39.699959, 47.2381643, 0.0 ] ] } }
]
}
