{"type": "FeatureCollection", "features": [{"type": "Feature", "properties": {"name": "", "description": "", "styleUrl": "#poly-000000-1200-77"}, "geometry": {"type": "Polygon", "coordinates": [[[36.9455836, 50.220296, 0.0], [36.9743241, 50.2170096, 0.0], [36.9852246, 50.2182179, 0.0], [36.9930301, 50.2202713, 0.0], [37.0023907, 50.2207441, 0.0], [37.0078839, 50.2264003, 0.0], [36.9963973, 50.2278952, 0.0], [36.9998158, 50.2377654, 0.0], [36.9930062, 50.2387386, 0.0], [36.9968117, 50.2466031, 0.0], [37.0100329, 50.242401, 0.0], [37.018101, 50.2505244, 0.0], [37.0165561, 50.251622, 0.0], [37.0253108, 50.2627068, 0.0], [37.0637336, 50.2493327, 0.0], [37.0620463, 50.2464629, 0.0], [37.0761226, 50.2421815, 0.0], [37.0773242, 50.2363625, 0.0], [37.082474, 50.2362527, 0.0], [37.0855639, 50.2391074, 0.0], [37.0927737, 50.2410836, 0.0], [37.1022151, 50.2410836, 0.0], [37.1107982, 50.2352645, 0.0], [37.1173213, 50.2368017, 0.0], [37.1181796, 50.2382291, 0.0], [37.1235011, 50.239327, 0.0], [37.1327708, 50.2415228, 0.0], [37.1363757, 50.2427304, 0.0], [37.1435855, 50.24295, 0.0], [37.1530269, 50.2471215, 0.0], [37.1592067, 50.253488, 0.0], [37.1623985, 50.256713, 0.0], [37.1613686, 50.2624197, 0.0], [37.1392243, 50.2777806, 0.0], [37.137336, 50.2851301, 0.0], [37.0765981, 50.2773379, 0.0], [37.0808038, 50.2637326, 0.0], [37.078658, 50.263568, 0.0], [37.0755681, 50.2715781, 0.0], [37.0609769, 50.2698226, 0.0], [37.0542821, 50.2919263, 0.0], [37.0354856, 50.2903871, 0.0], [37.0256853, 50.2844914, 0.0], [37.0123548, 50.2825647, 0.0], [37.0105085, 50.2795077, 0.0], [36.9932747, 50.2799396, 0.0], [36.9886019, 50.2756359, 0.0], [36.9782747, 50.2707247, 0.0], [36.9708444, 50.2720883, 0.0], [36.9648131, 50.2720463, 0.0], [36.956157, 50.2701361, 0.0], [36.9563286, 50.2666249, 0.0], [36.9522087, 50.259921, 0.0], [36.9472833, 50.2568179, 0.0], [36.9629903, 50.2524002, 0.0], [36.9633336, 50.2429049, 0.0], [36.9852443, 50.2394435, 0.0], [36.9819828, 50.2302201, 0.0], [36.9500467, 50.2335294, 0.0], [36.9455836, 50.220296, 0.0]]]}}, {"type": "Feature", "properties": {"name": "", "description": "", "styleUrl": "#poly-000000-1200-77"}, "geometry": {"type": "Polygon", "coordinates": [[[37.10807, 48.421964, 0.0], [37.12488, 48.4213, 0.0], [37.1246896, 48.4190871, 0.0], [37.1325001, 48.4195428, 0.0], [37.1499238, 48.4169795, 0.0], [37.1603951, 48.4161819, 0.0], [37.1706717, 48.4134406, 0.0], [37.1904956, 48.4141996, 0.0], [37.1889823, 48.4217329, 0.0], [37.2048293, 48.4229152, 0.0], [37.1868027, 48.4382243, 0.0], [37.1677053, 48.4443168, 0.0], [37.1661175, 48.4440606, 0.0], [37.1646154, 48.4439752, 0.0], [37.1628988, 48.4443737, 0.0], [37.1613539, 48.4455124, 0.0], [37.1606815, 48.4462001, 0.0], [37.1507681, 48.4487335, 0.0], [37.1536863, 48.4332745, 0.0], [37.1505929, 48.4321093, 0.0], [37.1496059, 48.4302584, 0.0], [37.148018, 48.428436, 0.0], [37.1461726, 48.4280942, 0.0], [37.1432973, 48.426528, 0.0], [37.1411086, 48.425218, 0.0], [37.140894, 48.4240504, 0.0], [37.1356584, 48.4245345, 0.0], [37.1281482, 48.4242497, 0.0], [37.118621, 48.4237656, 0.0], [37.1109391, 48.4236801, 0.0], [37.10807, 48.421964, 0.0]]]}}, {"type": "Feature", "properties": {"name": "", "description": "", "styleUrl": "#poly-000000-1200-77"}, "geometry": {"type": "Polygon", "coordinates": [[[37.0881775, 48.4017776, 0.0], [37.0973395, 48.3986744, 0.0], [37.1146598, 48.3970233, 0.0], [37.1105863, 48.4006848, 0.0], [37.1130165, 48.4035928, 0.0], [37.1074445, 48.4093906, 0.0], [37.1083953, 48.4121117, 0.0], [37.10883, 48.4195, 0.0], [37.10807, 48.421964, 0.0], [37.1050693, 48.4220815, 0.0], [37.1005203, 48.4218537, 0.0], [37.0974733, 48.4219107, 0.0], [37.0969583, 48.4233916, 0.0], [37.0937826, 48.4232207, 0.0], [37.090521, 48.4223948, 0.0], [37.0861008, 48.421455, 0.0], [37.0799209, 48.4200594, 0.0], [37.080908, 48.4173536, 0.0], [37.0820238, 48.4169263, 0.0], [37.0858862, 48.4175245, 0.0], [37.0890619, 48.4168409, 0.0], [37.0937826, 48.4108021, 0.0], [37.0943405, 48.4078679, 0.0], [37.0953705, 48.4045062, 0.0], [37.0921089, 48.4031956, 0.0], [37.0881775, 48.4017776, 0.0]]]}}], "name": "/tmp/outputs/"}