{"type": "FeatureCollection", "features": [{"type": "Feature", "properties": {"description": "", "styleUrl": "#poly-0F9D58-1-77", "\u043d\u0430\u0437\u0432\u0430\u043d\u0438\u0435": "Polygon 5", "\u043e\u043f\u0438\u0441\u0430\u043d\u0438\u0435": ""}, "geometry": {"type": "Polygon", "coordinates": [[[36.4952442, 47.9288447, 0.0], [36.5068425, 47.9216271, 0.0], [36.5180434, 47.920707, 0.0], [36.5290302, 47.9185216, 0.0], [36.5718309, 47.9209202, 0.0], [36.5731184, 47.9206902, 0.0], [36.5735475, 47.9214954, 0.0], [36.5729467, 47.9225883, 0.0], [36.5707151, 47.9220131, 0.0], [36.5690843, 47.9230484, 0.0], [36.5695135, 47.9239687, 0.0], [36.5676252, 47.925004, 0.0], [36.5688268, 47.9267294, 0.0], [36.5664236, 47.927132, 0.0], [36.5648786, 47.9260393, 0.0], [36.5629904, 47.9263844, 0.0], [36.5635912, 47.9286273, 0.0], [36.5674536, 47.92972, 0.0], [36.5687288, 47.9321611, 0.0], [36.5408767, 47.9382278, 0.0], [36.5414757, 47.9405481, 0.0], [36.5260256, 47.9360053, 0.0], [36.5035581, 47.9376725, 0.0], [36.4952442, 47.9288447, 0.0]]]}}, {"type": "Feature", "properties": {"description": "", "styleUrl": "#poly-0F9D58-1-77", "\u043d\u0430\u0437\u0432\u0430\u043d\u0438\u0435": "Polygon 4", "\u043e\u043f\u0438\u0441\u0430\u043d\u0438\u0435": ""}, "geometry": {"type": "Polygon", "coordinates": [[[36.5604461, 47.9497841, 0.0], [36.5746082, 47.9463348, 0.0], [36.5692262, 47.9367047, 0.0], [36.5912847, 47.9316442, 0.0], [36.6095666, 47.9338295, 0.0], [36.6059617, 47.9467666, 0.0], [36.6030373, 47.9586805, 0.0], [36.597423, 47.957771, 0.0], [36.584822, 47.9557625, 0.0], [36.5659393, 47.9573145, 0.0], [36.5653385, 47.9561074, 0.0], [36.5604461, 47.9497841, 0.0]]]}}, {"type": "Feature", "properties": {"description": "", "styleUrl": "#poly-0F9D58-1-77", "\u043d\u0430\u0437\u0432\u0430\u043d\u0438\u0435": "Polygon 1", "\u043e\u043f\u0438\u0441\u0430\u043d\u0438\u0435": ""}, "geometry": {"type": "Polygon", "coordinates": [[[37.6204001, 49.1439425, 0.0], [37.6243871, 49.1411201, 0.0], [37.6576894, 49.1523488, 0.0], [37.6490568, 49.162357, 0.0], [37.6176467, 49.1638135, 0.0], [37.6204001, 49.1439425, 0.0]]]}}, {"type": "Feature", "properties": {"description": "", "styleUrl": "#poly-0F9D58-1-74", "\u043d\u0430\u0437\u0432\u0430\u043d\u0438\u0435": "Polygon 2", "\u043e\u043f\u0438\u0441\u0430\u043d\u0438\u0435": ""}, "geometry": {"type": "Polygon", "coordinates": [[[37.8330027, 49.2601989, 0.0], [37.8349335, 49.2531972, 0.0], [37.8462652, 49.2462991, 0.0], [37.8475081, 49.2296611, 0.0], [37.8508143, 49.2294309, 0.0], [37.860084, 49.2383981, 0.0], [37.8703837, 49.2377257, 0.0], [37.8667788, 49.2459069, 0.0], [37.8757052, 49.2475318, 0.0], [37.8857474, 49.2501091, 0.0], [37.8945879, 49.2530224, 0.0], [37.8902964, 49.2582883, 0.0], [37.8962187, 49.257112, 0.0], [37.8989259, 49.2577567, 0.0], [37.8946498, 49.2667334, 0.0], [37.885699, 49.2699311, 0.0], [37.8550567, 49.2718447, 0.0], [37.8338146, 49.2684866, 0.0], [37.8330027, 49.2601989, 0.0]]]}}, {"type": "Feature", "properties": {"description": "", "styleUrl": "#poly-0F9D58-1-74", "\u043d\u0430\u0437\u0432\u0430\u043d\u0438\u0435": "Polygon 1", "\u043e\u043f\u0438\u0441\u0430\u043d\u0438\u0435": ""}, "geometry": {"type": "Polygon", "coordinates": [[[37.6201592, 49.0668118, 0.0], [37.628828, 49.0620316, 0.0], [37.6367245, 49.0607943, 0.0], [37.6482258, 49.0603444, 0.0], [37.6596413, 49.0588258, 0.0], [37.6575088, 49.0613413, 0.0], [37.6575088, 49.0630285, 0.0], [37.6510715, 49.0618475, 0.0], [37.6444625, 49.0639283, 0.0], [37.6395702, 49.0669088, 0.0], [37.6292705, 49.0678086, 0.0], [37.6219749, 49.0680335, 0.0], [37.6201592, 49.0668118, 0.0]]]}}, {"type": "Feature", "properties": {"name": "Polygon 16", "description": "", "styleUrl": "#poly-0F9D58-1-77", "\u043d\u0430\u0437\u0432\u0430\u043d\u0438\u0435": "", "\u043e\u043f\u0438\u0441\u0430\u043d\u0438\u0435": ""}, "geometry": {"type": "Polygon", "coordinates": [[[36.653014, 48.106463, 0.0], [36.6813398, 48.1000841, 0.0], [36.6813398, 48.0987084, 0.0], [36.6980768, 48.0928039, 0.0], [36.7053576, 48.0933005, 0.0], [36.705186, 48.0967401, 0.0], [36.714799, 48.0961669, 0.0], [36.7235537, 48.0985744, 0.0], [36.7197772, 48.1121007, 0.0], [36.7290469, 48.1124445, 0.0], [36.7317935, 48.1154244, 0.0], [36.7396899, 48.1169715, 0.0], [36.747243, 48.1193782, 0.0], [36.75425, 48.1227822, 0.0], [36.7279857, 48.1254177, 0.0], [36.7060131, 48.1317195, 0.0], [36.6716808, 48.120032, 0.0], [36.653014, 48.106463, 0.0]]]}}, {"type": "Feature", "properties": {"description": "", "styleUrl": "#poly-0F9D58-1-77", "\u043d\u0430\u0437\u0432\u0430\u043d\u0438\u0435": "Polygon 3", "\u043e\u043f\u0438\u0441\u0430\u043d\u0438\u0435": ""}, "geometry": {"type": "Polygon", "coordinates": [[[37.6690826, 49.0466758, 0.0], [37.6821289, 49.0453256, 0.0], [37.7049599, 49.0444254, 0.0], [37.7077065, 49.0502761, 0.0], [37.713028, 49.0564636, 0.0], [37.7041437, 49.0602488, 0.0], [37.6977064, 49.0629483, 0.0], [37.6931573, 49.0663788, 0.0], [37.6965906, 49.0695841, 0.0], [37.6983072, 49.0730141, 0.0], [37.6941873, 49.0726205, 0.0], [37.6858617, 49.0697528, 0.0], [37.6738454, 49.0585053, 0.0], [37.6596413, 49.0588258, 0.0], [37.6611862, 49.0512886, 0.0], [37.6690826, 49.0466758, 0.0]]]}}, {"type": "Feature", "properties": {"name": "Polygon 14", "description": "", "styleUrl": "#poly-0F9D58-1-77", "\u043d\u0430\u0437\u0432\u0430\u043d\u0438\u0435": "", "\u043e\u043f\u0438\u0441\u0430\u043d\u0438\u0435": ""}, "geometry": {"type": "Polygon", "coordinates": [[[35.2851029, 47.6006038, 0.0], [35.290711, 47.591995, 0.0], [35.29767, 47.582998, 0.0], [35.300739, 47.580712, 0.0], [35.3204635, 47.5726944, 0.0], [35.326474, 47.566728, 0.0], [35.3281216, 47.5625677, 0.0], [35.3347747, 47.56399, 0.0], [35.3363637, 47.5611843, 0.0], [35.3375438, 47.5593743, 0.0], [35.3375009, 47.5566954, 0.0], [35.3359345, 47.5564855, 0.0], [35.3335956, 47.555899, 0.0], [35.3355268, 47.5540743, 0.0], [35.3405908, 47.5568258, 0.0], [35.344561, 47.556514, 0.0], [35.3418786, 47.5596417, 0.0], [35.3411916, 47.5620676, 0.0], [35.3492168, 47.563197, 0.0], [35.343037, 47.5695095, 0.0], [35.3402904, 47.5746053, 0.0], [35.3380588, 47.579469, 0.0], [35.3420929, 47.582827, 0.0], [35.3509334, 47.5846217, 0.0], [35.3699878, 47.5856638, 0.0], [35.38279, 47.586572, 0.0], [35.3856949, 47.5854901, 0.0], [35.3918747, 47.5843322, 0.0], [35.3953079, 47.5871689, 0.0], [35.4009956, 47.5878468, 0.0], [35.3979911, 47.5946205, 0.0], [35.3737868, 47.5969357, 0.0], [35.3492392, 47.6006399, 0.0], [35.3384895, 47.6008353, 0.0], [35.3237267, 47.60234, 0.0], [35.2851029, 47.6006038, 0.0]]]}}, {"type": "Feature", "properties": {"name": "Polygon 22", "description": "", "styleUrl": "#poly-0F9D58-1-79", "\u043d\u0430\u0437\u0432\u0430\u043d\u0438\u0435": "Polygon 22", "\u043e\u043f\u0438\u0441\u0430\u043d\u0438\u0435": ""}, "geometry": {"type": "Polygon", "coordinates": [[[36.4203493, 47.8923747, 0.0], [36.4152852, 47.913837, 0.0], [36.3744336, 47.9113519, 0.0], [36.3531476, 47.8932842, 0.0], [36.3773914, 47.894701, 0.0], [36.3797947, 47.8873342, 0.0], [36.4002224, 47.8892911, 0.0], [36.4026256, 47.8765123, 0.0], [36.4307781, 47.8763972, 0.0], [36.4314647, 47.862809, 0.0], [36.4438243, 47.8592387, 0.0], [36.4527507, 47.8605056, 0.0], [36.4558406, 47.8660337, 0.0], [36.4575573, 47.8743246, 0.0], [36.4788433, 47.8789302, 0.0], [36.508884, 47.8786999, 0.0], [36.5039421, 47.8992574, 0.0], [36.4907242, 47.91088, 0.0], [36.4624001, 47.9158274, 0.0], [36.4361359, 47.914907, 0.0], [36.4402558, 47.8930423, 0.0], [36.4203493, 47.8923747, 0.0]]]}}, {"type": "Feature", "properties": {"name": "Polygon 1", "description": "", "styleUrl": "#poly-0F9D58-1-77", "\u043d\u0430\u0437\u0432\u0430\u043d\u0438\u0435": "", "\u043e\u043f\u0438\u0441\u0430\u043d\u0438\u0435": ""}, "geometry": {"type": "Polygon", "coordinates": [[[36.7776647, 48.1226094, 0.0], [36.806376, 48.108813, 0.0], [36.808179, 48.101362, 0.0], [36.8352846, 48.103842, 0.0], [36.830409, 48.11695, 0.0], [36.831267, 48.125259, 0.0], [36.843181, 48.1277946, 0.0], [36.8457454, 48.1346982, 0.0], [36.7951054, 48.1249594, 0.0], [36.7776647, 48.1226094, 0.0]]]}}, {"type": "Feature", "properties": {"name": "Polygon 7", "description": "", "styleUrl": "#poly-0F9D58-1-77", "\u043d\u0430\u0437\u0432\u0430\u043d\u0438\u0435": "", "\u043e\u043f\u0438\u0441\u0430\u043d\u0438\u0435": ""}, "geometry": {"type": "Polygon", "coordinates": [[[36.8766445, 48.1695138, 0.0], [36.8656582, 48.1541704, 0.0], [36.878014, 48.1588101, 0.0], [36.8982701, 48.1612147, 0.0], [36.8956951, 48.1706605, 0.0], [36.9102864, 48.1755258, 0.0], [36.9152645, 48.174839, 0.0], [36.9112305, 48.1896612, 0.0], [36.9186119, 48.1916067, 0.0], [36.9188694, 48.1934376, 0.0], [36.9147533, 48.1953811, 0.0], [36.8975872, 48.1853104, 0.0], [36.8766445, 48.1695138, 0.0]]]}}, {"type": "Feature", "properties": {"name": "Polygon 13", "description": "", "styleUrl": "#poly-0F9D58-1-77", "\u043d\u0430\u0437\u0432\u0430\u043d\u0438\u0435": "", "\u043e\u043f\u0438\u0441\u0430\u043d\u0438\u0435": ""}, "geometry": {"type": "Polygon", "coordinates": [[[37.8839862, 49.3296088, 0.0], [37.8884493, 49.3233436, 0.0], [37.9071616, 49.3303376, 0.0], [37.9188354, 49.3287582, 0.0], [37.9296397, 49.3259893, 0.0], [37.940422, 49.3264291, 0.0], [37.9357636, 49.3295783, 0.0], [37.9296696, 49.3345004, 0.0], [37.927953, 49.3385273, 0.0], [37.9303134, 49.3391424, 0.0], [37.9304313, 49.3423439, 0.0], [37.9356402, 49.3431059, 0.0], [37.9348411, 49.3464401, 0.0], [37.9256356, 49.345238, 0.0], [37.8867543, 49.3421064, 0.0], [37.8837502, 49.3411557, 0.0], [37.8800595, 49.3325987, 0.0], [37.8736006, 49.3311191, 0.0], [37.8839862, 49.3296088, 0.0]]]}}, {"type": "Feature", "properties": {"description": "", "styleUrl": "#poly-0F9D58-1-77", "\u043d\u0430\u0437\u0432\u0430\u043d\u0438\u0435": "Polygon 8", "\u043e\u043f\u0438\u0441\u0430\u043d\u0438\u0435": ""}, "geometry": {"type": "Polygon", "coordinates": [[[36.6405309, 47.9979867, 0.0], [36.6317043, 48.028863, 0.0], [36.6371546, 48.0351479, 0.0], [36.6304654, 48.0354298, 0.0], [36.6310662, 48.0383566, 0.0], [36.6200583, 48.0546676, 0.0], [36.6087073, 48.0579519, 0.0], [36.5939015, 48.0566607, 0.0], [36.5877217, 48.0550543, 0.0], [36.5854901, 48.0496612, 0.0], [36.5724005, 48.0398889, 0.0], [36.5846318, 48.031527, 0.0], [36.5838802, 48.0121786, 0.0], [36.5706325, 48.0018727, 0.0], [36.5543861, 47.9984002, 0.0], [36.5706443, 47.9870981, 0.0], [36.571395, 47.979075, 0.0], [36.5913452, 47.9739234, 0.0], [36.597423, 47.957771, 0.0], [36.6030373, 47.9586805, 0.0], [36.6059617, 47.9467666, 0.0], [36.6095666, 47.9338295, 0.0], [36.611792, 47.9248724, 0.0], [36.6120066, 47.9228594, 0.0], [36.6159977, 47.9228306, 0.0], [36.6167273, 47.9232332, 0.0], [36.6223921, 47.9228881, 0.0], [36.6261257, 47.9229744, 0.0], [36.6266836, 47.9251025, 0.0], [36.6247954, 47.9253901, 0.0], [36.6222205, 47.9367768, 0.0], [36.6346659, 47.9380993, 0.0], [36.6298594, 47.9613244, 0.0], [36.6390433, 47.9628762, 0.0], [36.6399016, 47.9613819, 0.0], [36.6494288, 47.9626463, 0.0], [36.6473688, 47.9729905, 0.0], [36.6998382, 47.9790888, 0.0], [36.7109962, 47.9781121, 0.0], [36.7158885, 47.9778822, 0.0], [36.7165752, 47.9834552, 0.0], [36.7182918, 47.9835127, 0.0], [36.7180343, 47.9912104, 0.0], [36.7203517, 47.9956907, 0.0], [36.7128844, 47.998505, 0.0], [36.7056747, 48.0041906, 0.0], [36.7051597, 48.0057986, 0.0], [36.7063613, 48.0083827, 0.0], [36.7070479, 48.012115, 0.0], [36.7018981, 48.0167083, 0.0], [36.699924, 48.0192918, 0.0], [36.7017264, 48.0203826, 0.0], [36.7097087, 48.0182584, 0.0], [36.7114253, 48.0214159, 0.0], [36.7178626, 48.0200381, 0.0], [36.7183776, 48.0246307, 0.0], [36.719256, 48.029833, 0.0], [36.733398, 48.0275582, 0.0], [36.7348571, 48.0386929, 0.0], [36.7415519, 48.0387503, 0.0], [36.7410369, 48.0373155, 0.0], [36.755425, 48.035291, 0.0], [36.7585464, 48.0482759, 0.0], [36.7588897, 48.0516038, 0.0], [36.7532249, 48.0495382, 0.0], [36.7444701, 48.051489, 0.0], [36.7441268, 48.0582588, 0.0], [36.7436118, 48.061127, 0.0], [36.7365737, 48.0661748, 0.0], [36.7017944, 48.0728295, 0.0], [36.692868, 48.0513758, 0.0], [36.668435, 48.0484467, 0.0], [36.6678341, 48.0391506, 0.0], [36.6597668, 48.0283898, 0.0], [36.6664609, 48.0222183, 0.0], [36.6946648, 48.0080028, 0.0], [36.7010162, 48.0061078, 0.0], [36.702647, 48.0008818, 0.0], [36.6982696, 47.9963446, 0.0], [36.7002437, 47.9934727, 0.0], [36.6957805, 47.9930706, 0.0], [36.696553, 47.9911176, 0.0], [36.6936348, 47.990457, 0.0], [36.6924331, 47.9873838, 0.0], [36.6798607, 47.9861783, 0.0], [36.6756972, 48.0026645, 0.0], [36.6405309, 47.9979867, 0.0]]]}}], "name": "/tmp/outputs/"}