{"type": "FeatureCollection", "features": [{"type": "Feature", "properties": {"name": "Rodynske", "description": "Captured July 13, 2026.<br>Four battles were fought for the city, the first one beginning in August 2025.", "styleUrl": "#icon-ci-1"}, "geometry": {"type": "Point", "coordinates": [37.2087743, 48.3509787, 0.0]}}, {"type": "Feature", "properties": {"name": "Chasiv Yar", "description": "Captured July 28, 2026", "styleUrl": "#icon-ci-1"}, "geometry": {"type": "Point", "coordinates": [37.8371941, 48.5802527, 0.0]}}, {"type": "Feature", "properties": {"name": "Kostiantynivka", "description": "Captured July 28, 2026", "styleUrl": "#icon-ci-1"}, "geometry": {"type": "Point", "coordinates": [37.6986037, 48.5248616, 0.0]}}, {"type": "Feature", "properties": {"name": "Bilytske", "description": "Captured July 26, 2026", "styleUrl": "#icon-ci-1"}, "geometry": {"type": "Point", "coordinates": [37.1826937, 48.4058172, 0.0]}}], "name": "/tmp/outputs/"}