{
  "type": "FeatureCollection",
  "features": [
    {
      "type": "Feature",
      "properties": {
        "Name": "Town/city line 1"
      },
      "geometry": {
        "type": "LineString",
        "coordinates": [
          [
            35.916796,
            47.632718
          ],
          [
            35.916474,
            47.633138
          ],
          [
            35.916667,
            47.633658
          ],
          [
            35.917858,
            47.633405
          ],
          [
            35.918995,
            47.633947
          ],
          [
            35.925411,
            47.631048
          ],
          [
            35.930142,
            47.629508
          ],
          [
            35.938425,
            47.627006
          ],
          [
            35.942137,
            47.625864
          ],
          [
            35.943854,
            47.625155
          ],
          [
            35.947673,
            47.624418
          ],
          [
            35.958788,
            47.62018
          ],
          [
            35.958488,
            47.619153
          ],
          [
            35.960312,
            47.618618
          ],
          [
            35.959797,
            47.618083
          ],
          [
            35.958338,
            47.618198
          ],
          [
            35.958118,
            47.618524
          ],
          [
            35.958536,
            47.619898
          ],
          [
            35.95601,
            47.620259
          ],
          [
            35.955709,
            47.619985
          ],
          [
            35.954422,
            47.620404
          ],
          [
            35.954454,
            47.620585
          ],
          [
            35.950688,
            47.621286
          ],
          [
            35.950452,
            47.620961
          ],
          [
            35.94983,
            47.621265
          ],
          [
            35.948006,
            47.62146
          ],
          [
            35.947341,
            47.621749
          ],
          [
            35.946708,
            47.622096
          ],
          [
            35.945485,
            47.622436
          ],
          [
            35.943907,
            47.622964
          ],
          [
            35.941579,
            47.623579
          ],
          [
            35.939648,
            47.624128
          ],
          [
            35.936451,
            47.625502
          ],
          [
            35.933061,
            47.626471
          ],
          [
            35.928769,
            47.627614
          ],
          [
            35.925593,
            47.628496
          ],
          [
            35.921731,
            47.630014
          ],
          [
            35.917912,
            47.632212
          ],
          [
            35.916989,
            47.632646
          ]
        ]
      }
    }
  ]
}