{
"type": "FeatureCollection",
"name": "Ukrainian-controlled territory",
"crs": { "type": "name", "properties": { "name": "urn:ogc:def:crs:OGC:1.3:CRS84" } },
"features": [
{ "type": "Feature", "properties": { "Name": "Ukrainian-controlled Sumy region", "description": "", "tessellate": -1, "extrude": 0, "visibility": -1, "________________": "" }, "geometry": { "type": "Polygon", "coordinates": [ [ [ 33.397128, 52.3088034, 0.0 ], [ 33.3375963, 52.1732439, 0.0 ], [ 33.4831651, 52.0501118, 0.0 ], [ 33.3623155, 52.0264585, 0.0 ], [ 33.3938653, 51.973903, 0.0 ], [ 33.2977349, 51.9332778, 0.0 ], [ 33.1810411, 51.9164759, 0.0 ], [ 33.076671, 51.7892372, 0.0 ], [ 33.1453355, 51.7297359, 0.0 ], [ 33.1728014, 51.596851, 0.0 ], [ 33.1645616, 51.4481732, 0.0 ], [ 33.0382188, 51.3487848, 0.0 ], [ 33.043712, 51.2337052, 0.0 ], [ 32.958568, 51.1614186, 0.0 ], [ 32.977794, 51.0752152, 0.0 ], [ 33.1563219, 50.9715587, 0.0 ], [ 33.161815, 50.8503331, 0.0 ], [ 33.142589, 50.6905276, 0.0 ], [ 33.0382188, 50.5266839, 0.0 ], [ 33.4227403, 50.4952444, 0.0 ], [ 33.6836656, 50.4637841, 0.0 ], [ 33.9281114, 50.537159, 0.0 ], [ 34.232982, 50.5458866, 0.0 ], [ 34.2879137, 50.446297, 0.0 ], [ 34.3950304, 50.3412391, 0.0 ], [ 34.5378526, 50.2535128, 0.0 ], [ 34.5268663, 50.1603464, 0.0 ], [ 34.5937089, 50.1233779, 0.0 ], [ 34.7282915, 50.1533044, 0.0 ], [ 34.8491411, 50.1621028, 0.0 ], [ 34.8999528, 50.1585836, 0.0 ], [ 34.9411516, 50.1462645, 0.0 ], [ 34.9521379, 50.1717791, 0.0 ], [ 34.9933366, 50.1840915, 0.0 ], [ 35.0400285, 50.1647419, 0.0 ], [ 35.0716142, 50.208707, 0.0 ], [ 35.2048234, 50.2289173, 0.0 ], [ 35.2583818, 50.2394585, 0.0 ], [ 35.273488, 50.2649232, 0.0 ], [ 35.3311662, 50.2758952, 0.0 ], [ 35.2975206, 50.2899357, 0.0 ], [ 35.327733, 50.3162504, 0.0 ], [ 35.3854112, 50.2969544, 0.0 ], [ 35.3792314, 50.3166889, 0.0 ], [ 35.3963975, 50.3162504, 0.0 ], [ 35.4211168, 50.3320322, 0.0 ], [ 35.4506425, 50.3131811, 0.0 ], [ 35.457509, 50.3035334, 0.0 ], [ 35.5014543, 50.297393, 0.0 ], [ 35.5412797, 50.297393, 0.0 ], [ 35.5151872, 50.3171273, 0.0 ], [ 35.6010179, 50.3272106, 0.0 ], [ 35.63947, 50.3101116, 0.0 ], [ 35.6619122, 50.3273685, 0.0 ], [ 35.6930284, 50.3447416, 0.0 ], [ 35.6676225, 50.3429888, 0.0 ], [ 35.6545762, 50.3526284, 0.0 ], [ 35.6090405, 50.355415, 0.0 ], [ 35.5994274, 50.3869474, 0.0 ], [ 35.5850079, 50.3895741, 0.0 ], [ 35.5836346, 50.4565073, 0.0 ], [ 35.5417492, 50.4591302, 0.0 ], [ 35.4847576, 50.4849143, 0.0 ], [ 35.4614117, 50.5067542, 0.0 ], [ 35.439439, 50.5434226, 0.0 ], [ 35.3934338, 50.5831145, 0.0 ], [ 35.4071667, 50.5909617, 0.0 ], [ 35.4222729, 50.6127526, 0.0 ], [ 35.4023602, 50.6327912, 0.0 ], [ 35.3930905, 50.6499916, 0.0 ], [ 35.3997324, 50.655887, 0.0 ], [ 35.3981875, 50.6581724, 0.0 ], [ 35.3898619, 50.6636676, 0.0 ], [ 35.392351, 50.6695431, 0.0 ], [ 35.3946684, 50.671991, 0.0 ], [ 35.3922652, 50.6787356, 0.0 ], [ 35.3863428, 50.6858599, 0.0 ], [ 35.3869436, 50.6907539, 0.0 ], [ 35.374584, 50.6985016, 0.0 ], [ 35.3743167, 50.7084691, 0.0 ], [ 35.3839646, 50.7112881, 0.0 ], [ 35.3788755, 50.7184764, 0.0 ], [ 35.3663037, 50.7213712, 0.0 ], [ 35.3555725, 50.7306747, 0.0 ], [ 35.352117, 50.7401943, 0.0 ], [ 35.3706367, 50.7462371, 0.0 ], [ 35.3503369, 50.7620115, 0.0 ], [ 35.3610184, 50.7708077, 0.0 ], [ 35.3648163, 50.7811744, 0.0 ], [ 35.3569312, 50.7944964, 0.0 ], [ 35.3534178, 50.8146618, 0.0 ], [ 35.3526854, 50.8436605, 0.0 ], [ 35.3411546, 50.863159, 0.0 ], [ 35.3430146, 50.8896209, 0.0 ], [ 35.3106421, 50.913243, 0.0 ], [ 35.2964099, 50.9290387, 0.0 ], [ 35.2916091, 50.9445073, 0.0 ], [ 35.2666753, 50.9509076, 0.0 ], [ 35.2764439, 50.9642743, 0.0 ], [ 35.2536064, 50.9767941, 0.0 ], [ 35.2367476, 50.9828123, 0.0 ], [ 35.229502, 50.9933682, 0.0 ], [ 35.2249703, 51.0054022, 0.0 ], [ 35.2195274, 51.0030416, 0.0 ], [ 35.2167076, 51.005476, 0.0 ], [ 35.2132011, 51.0048858, 0.0 ], [ 35.2140841, 51.0093222, 0.0 ], [ 35.1997912, 51.0041035, 0.0 ], [ 35.1860405, 51.0111585, 0.0 ], [ 35.1729712, 51.0221, 0.0 ], [ 35.166809, 51.0255563, 0.0 ], [ 35.1620482, 51.0327907, 0.0 ], [ 35.1500539, 51.0337086, 0.0 ], [ 35.1435537, 51.0287962, 0.0 ], [ 35.1388363, 51.0305229, 0.0 ], [ 35.1383289, 51.0270665, 0.0 ], [ 35.1369212, 51.0199958, 0.0 ], [ 35.1220227, 51.0161762, 0.0 ], [ 35.1054085, 51.017322, 0.0 ], [ 35.0833836, 51.0284012, 0.0 ], [ 35.0797493, 51.0409579, 0.0 ], [ 35.0953571, 51.0500413, 0.0 ], [ 35.0929411, 51.056427, 0.0 ], [ 35.1100576, 51.0636869, 0.0 ], [ 35.1086765, 51.0675242, 0.0 ], [ 35.1376961, 51.0719793, 0.0 ], [ 35.1394127, 51.0804997, 0.0 ], [ 35.1105736, 51.0833035, 0.0 ], [ 35.1019905, 51.0951639, 0.0 ], [ 35.1039652, 51.1022789, 0.0 ], [ 35.086026, 51.1018476, 0.0 ], [ 35.0724219, 51.102656, 0.0 ], [ 35.0531958, 51.0921721, 0.0 ], [ 35.0371449, 51.089583, 0.0 ], [ 35.0153015, 51.0840584, 0.0 ], [ 35.0057108, 51.0857769, 0.0 ], [ 34.9928535, 51.0716535, 0.0 ], [ 34.9786502, 51.0729504, 0.0 ], [ 34.9581382, 51.0908513, 0.0 ], [ 34.9418304, 51.0921451, 0.0 ], [ 34.9315728, 51.0876453, 0.0 ], [ 34.9248268, 51.0781032, 0.0 ], [ 34.902288, 51.0744925, 0.0 ], [ 34.895321, 51.0684562, 0.0 ], [ 34.8867756, 51.0578719, 0.0 ], [ 34.86962, 51.0588001, 0.0 ], [ 34.8575282, 51.0606443, 0.0 ], [ 34.8545441, 51.0695108, 0.0 ], [ 34.8345387, 51.07628, 0.0 ], [ 34.8214848, 51.0793012, 0.0 ], [ 34.8116907, 51.0868502, 0.0 ], [ 34.8084494, 51.0957036, 0.0 ], [ 34.8079346, 51.106698, 0.0 ], [ 34.7917984, 51.110039, 0.0 ], [ 34.7693107, 51.1144576, 0.0 ], [ 34.7425316, 51.1276028, 0.0 ], [ 34.7450207, 51.1414982, 0.0 ], [ 34.728112, 51.1479598, 0.0 ], [ 34.7143791, 51.1604496, 0.0 ], [ 34.6944664, 51.1657244, 0.0 ], [ 34.7024065, 51.1700893, 0.0 ], [ 34.7123312, 51.1729584, 0.0 ], [ 34.6742224, 51.1951241, 0.0 ], [ 34.649428, 51.2492135, 0.0 ], [ 34.5972429, 51.2560897, 0.0 ], [ 34.5845845, 51.2346613, 0.0 ], [ 34.5381914, 51.2449153, 0.0 ], [ 34.4736467, 51.2440556, 0.0 ], [ 34.4115216, 51.2653323, 0.0 ], [ 34.3946825, 51.2517922, 0.0 ], [ 34.368597, 51.2570877, 0.0 ], [ 34.3288091, 51.2328341, 0.0 ], [ 34.2980119, 51.2315807, 0.0 ], [ 34.2654908, 51.2480539, 0.0 ], [ 34.2259214, 51.2645189, 0.0 ], [ 34.2333783, 51.2738922, 0.0 ], [ 34.2514997, 51.2744718, 0.0 ], [ 34.2549329, 51.2818811, 0.0 ], [ 34.2446333, 51.2842433, 0.0 ], [ 34.2377668, 51.2921877, 0.0 ], [ 34.2576795, 51.3019554, 0.0 ], [ 34.2647176, 51.2984135, 0.0 ], [ 34.2720991, 51.3145644, 0.0 ], [ 34.2769486, 51.3128476, 0.0 ], [ 34.2773347, 51.3108625, 0.0 ], [ 34.281669, 51.310916, 0.0 ], [ 34.2811971, 51.3186951, 0.0 ], [ 34.289351, 51.3217526, 0.0 ], [ 34.2813688, 51.3343563, 0.0 ], [ 34.2876344, 51.3392895, 0.0 ], [ 34.3203244, 51.3325575, 0.0 ], [ 34.3340573, 51.3608638, 0.0 ], [ 34.2942319, 51.3831534, 0.0 ], [ 34.2393003, 51.3908665, 0.0 ], [ 34.2206624, 51.4294361, 0.0 ], [ 34.2612729, 51.466215, 0.0 ], [ 34.2997251, 51.4875982, 0.0 ], [ 34.2942319, 51.5260626, 0.0 ], [ 34.2585263, 51.5457097, 0.0 ], [ 34.237927, 51.5790049, 0.0 ], [ 34.2125211, 51.5755911, 0.0 ], [ 34.2084012, 51.6003352, 0.0 ], [ 34.1823087, 51.605453, 0.0 ], [ 34.1575894, 51.6438179, 0.0 ], [ 34.1136441, 51.6425396, 0.0 ], [ 34.108151, 51.667673, 0.0 ], [ 34.084805, 51.6591548, 0.0 ], [ 34.086865, 51.6659695, 0.0 ], [ 34.1253171, 51.6838533, 0.0 ], [ 34.1548429, 51.6940694, 0.0 ], [ 34.2125211, 51.7025811, 0.0 ], [ 34.2295888, 51.6996257, 0.0 ], [ 34.2602429, 51.7010917, 0.0 ], [ 34.2763791, 51.7227899, 0.0 ], [ 34.2925885, 51.7363164, 0.0 ], [ 34.305339, 51.7433214, 0.0 ], [ 34.3316541, 51.742352, 0.0 ], [ 34.3610082, 51.7449029, 0.0 ], [ 34.3747411, 51.7555303, 0.0 ], [ 34.3737111, 51.7695547, 0.0 ], [ 34.3766235, 51.7928737, 0.0 ], [ 34.3754433, 51.8004243, 0.0 ], [ 34.3702071, 51.8113032, 0.0 ], [ 34.3592208, 51.8133196, 0.0 ], [ 34.3418829, 51.8074823, 0.0 ], [ 34.3315832, 51.8078007, 0.0 ], [ 34.322056, 51.8096581, 0.0 ], [ 34.3143313, 51.8142216, 0.0 ], [ 34.3106406, 51.8188379, 0.0 ], [ 34.2971651, 51.8296599, 0.0 ], [ 34.2886038, 51.8345012, 0.0 ], [ 34.2803912, 51.8313888, 0.0 ], [ 34.2687319, 51.8219553, 0.0 ], [ 34.252689, 51.814293, 0.0 ], [ 34.2355699, 51.8167747, 0.0 ], [ 34.2311517, 51.8291244, 0.0 ], [ 34.2422085, 51.8437253, 0.0 ], [ 34.2493169, 51.8512179, 0.0 ], [ 34.2533179, 51.857135, 0.0 ], [ 34.2614398, 51.8588108, 0.0 ], [ 34.2702143, 51.8745654, 0.0 ], [ 34.2629015, 51.8791505, 0.0 ], [ 34.2409206, 51.8830112, 0.0 ], [ 34.2258145, 51.9063165, 0.0 ], [ 34.1267205, 51.9641683, 0.0 ], [ 34.076416, 51.996671, 0.0 ], [ 34.0655774, 52.0323337, 0.0 ], [ 34.045128, 52.0771667, 0.0 ], [ 34.0796536, 52.1342356, 0.0 ], [ 34.0484022, 52.1699134, 0.0 ], [ 34.0565437, 52.1841957, 0.0 ], [ 34.0399631, 52.2005829, 0.0 ], [ 34.0144522, 52.1985531, 0.0 ], [ 33.9875608, 52.2129296, 0.0 ], [ 33.9787786, 52.2292504, 0.0 ], [ 33.9720535, 52.2291669, 0.0 ], [ 33.9565403, 52.2298395, 0.0 ], [ 33.9580478, 52.236326, 0.0 ], [ 33.9547485, 52.2440739, 0.0 ], [ 33.9275438, 52.2515794, 0.0 ], [ 33.9406713, 52.2815624, 0.0 ], [ 33.9119091, 52.2989473, 0.0 ], [ 33.8700735, 52.3041553, 0.0 ], [ 33.8282213, 52.316486, 0.0 ], [ 33.8132351, 52.360411, 0.0 ], [ 33.7047451, 52.3541206, 0.0 ], [ 33.6031216, 52.3037653, 0.0 ], [ 33.5411696, 52.2915005, 0.0 ], [ 33.4730227, 52.3140517, 0.0 ], [ 33.5234707, 52.3490877, 0.0 ], [ 33.4410733, 52.3474099, 0.0 ], [ 33.397128, 52.3088034, 0.0 ] ] ] } },
{ "type": "Feature", "properties": { "Name": "Ukrainian-controlled Zaporizhzhia region", "description": "", "tessellate": -1, "extrude": 0, "visibility": -1, "________________": "" }, "geometry": { "type": "Polygon", "coordinates": [ [ [ 35.2781714, 47.6188094, 0.0 ], [ 35.2822914, 47.6022604, 0.0 ], [ 35.2851029, 47.6006038, 0.0 ], [ 35.3237267, 47.60234, 0.0 ], [ 35.3384895, 47.6008353, 0.0 ], [ 35.3492392, 47.6006399, 0.0 ], [ 35.3737868, 47.5969357, 0.0 ], [ 35.3979911, 47.5946205, 0.0 ], [ 35.4009956, 47.5878468, 0.0 ], [ 35.4064447, 47.5829563, 0.0 ], [ 35.3990913, 47.5652703, 0.0 ], [ 35.4287185, 47.5581423, 0.0 ], [ 35.4685957, 47.5612362, 0.0 ], [ 35.4648191, 47.5730503, 0.0 ], [ 35.4776937, 47.5757138, 0.0 ], [ 35.4981214, 47.5769877, 0.0 ], [ 35.4981198, 47.5929668, 0.0 ], [ 35.5249006, 47.5943552, 0.0 ], [ 35.5252438, 47.5959766, 0.0 ], [ 35.5509931, 47.5957443, 0.0 ], [ 35.5532248, 47.5918083, 0.0 ], [ 35.5619794, 47.5928502, 0.0 ], [ 35.5721075, 47.5936606, 0.0 ], [ 35.5898744, 47.5947604, 0.0 ], [ 35.5901319, 47.5855565, 0.0 ], [ 35.5935134, 47.5847796, 0.0 ], [ 35.6011183, 47.5831828, 0.0 ], [ 35.6154692, 47.5849077, 0.0 ], [ 35.6330314, 47.5799805, 0.0 ], [ 35.6365146, 47.5711152, 0.0 ], [ 35.6416238, 47.543945, 0.0 ], [ 35.6462134, 47.5321867, 0.0 ], [ 35.6757392, 47.5367066, 0.0 ], [ 35.6966819, 47.5399515, 0.0 ], [ 35.7068099, 47.5413421, 0.0 ], [ 35.7409705, 47.5339252, 0.0 ], [ 35.7575342, 47.5341583, 0.0 ], [ 35.7773628, 47.5399515, 0.0 ], [ 35.797104, 47.5378675, 0.0 ], [ 35.809635, 47.5343888, 0.0 ], [ 35.8255991, 47.5276687, 0.0 ], [ 35.8423358, 47.5303317, 0.0 ], [ 35.8404911, 47.5380966, 0.0 ], [ 35.8424224, 47.5438915, 0.0 ], [ 35.8487324, 47.5481947, 0.0 ], [ 35.8632824, 47.5450813, 0.0 ], [ 35.8691629, 47.5337965, 0.0 ], [ 35.8695489, 47.523207, 0.0 ], [ 35.9054221, 47.51932, 0.0 ], [ 35.9141768, 47.5285936, 0.0 ], [ 35.9275586, 47.526175, 0.0 ], [ 35.9285886, 47.5308114, 0.0 ], [ 35.9269149, 47.5334771, 0.0 ], [ 35.9312494, 47.533593, 0.0 ], [ 35.9314077, 47.5367954, 0.0 ], [ 35.9446048, 47.5383314, 0.0 ], [ 35.9661044, 47.5325923, 0.0 ], [ 35.9666067, 47.5282728, 0.0 ], [ 35.9795671, 47.5269978, 0.0 ], [ 35.9895235, 47.5264761, 0.0 ], [ 35.9931283, 47.530475, 0.0 ], [ 35.9926261, 47.534157, 0.0 ], [ 35.9948574, 47.538532, 0.0 ], [ 36.0080756, 47.542501, 0.0 ], [ 36.0109081, 47.5493373, 0.0 ], [ 36.0094498, 47.5567813, 0.0 ], [ 35.9985484, 47.5689147, 0.0 ], [ 36.0023683, 47.5776294, 0.0 ], [ 36.0033549, 47.582927, 0.0 ], [ 36.0063596, 47.5936643, 0.0 ], [ 35.9740868, 47.6020288, 0.0 ], [ 35.9410219, 47.6047631, 0.0 ], [ 35.9450866, 47.6133053, 0.0 ], [ 35.9525859, 47.6169868, 0.0 ], [ 35.9780352, 47.6297427, 0.0 ], [ 35.9969177, 47.6337917, 0.0 ], [ 36.0099645, 47.6359972, 0.0 ], [ 36.0057593, 47.6533516, 0.0 ], [ 36.0083648, 47.653502, 0.0 ], [ 36.0065313, 47.6664308, 0.0 ], [ 36.0224956, 47.6670525, 0.0 ], [ 36.020607, 47.6739163, 0.0 ], [ 36.0162296, 47.6766325, 0.0 ], [ 36.0161009, 47.6830186, 0.0 ], [ 36.0400351, 47.6854279, 0.0 ], [ 36.0391355, 47.6905372, 0.0 ], [ 36.0437608, 47.6911318, 0.0 ], [ 36.039126, 47.705689, 0.0 ], [ 36.034233, 47.7081353, 0.0 ], [ 36.032838, 47.7143488, 0.0 ], [ 36.0359063, 47.7147872, 0.0 ], [ 36.047708, 47.7154327, 0.0 ], [ 36.0511423, 47.7232448, 0.0 ], [ 36.0512066, 47.7328913, 0.0 ], [ 36.0450686, 47.7407411, 0.0 ], [ 36.0481531, 47.7425766, 0.0 ], [ 36.0467633, 47.7488131, 0.0 ], [ 36.0533722, 47.7496788, 0.0 ], [ 36.0507973, 47.7617388, 0.0 ], [ 36.0457333, 47.7632388, 0.0 ], [ 36.0411842, 47.7642774, 0.0 ], [ 36.0336312, 47.7685465, 0.0 ], [ 36.0317429, 47.775065, 0.0 ], [ 36.0338322, 47.7767491, 0.0 ], [ 36.0223266, 47.792376, 0.0 ], [ 36.0342964, 47.8086081, 0.0 ], [ 36.0634594, 47.8209281, 0.0 ], [ 36.0891985, 47.8186706, 0.0 ], [ 36.0771693, 47.8001587, 0.0 ], [ 36.0921038, 47.787197, 0.0 ], [ 36.1153698, 47.7939519, 0.0 ], [ 36.133051, 47.7982187, 0.0 ], [ 36.133566, 47.8038687, 0.0 ], [ 36.1223221, 47.8213913, 0.0 ], [ 36.1324491, 47.8312171, 0.0 ], [ 36.1508179, 47.8288251, 0.0 ], [ 36.154852, 47.8344142, 0.0 ], [ 36.1730481, 47.841558, 0.0 ], [ 36.1915976, 47.8407495, 0.0 ], [ 36.1983002, 47.8324502, 0.0 ], [ 36.2013711, 47.8109868, 0.0 ], [ 36.2216035, 47.8121153, 0.0 ], [ 36.2501965, 47.8071372, 0.0 ], [ 36.2760431, 47.8122979, 0.0 ], [ 36.3031, 47.8126408, 0.0 ], [ 36.3040053, 47.8162469, 0.0 ], [ 36.2761629, 47.814959, 0.0 ], [ 36.268102, 47.8320287, 0.0 ], [ 36.2263674, 47.8325804, 0.0 ], [ 36.2056058, 47.8334271, 0.0 ], [ 36.1965925, 47.8589725, 0.0 ], [ 36.1774254, 47.8573212, 0.0 ], [ 36.1774254, 47.8515618, 0.0 ], [ 36.101551, 47.8432672, 0.0 ], [ 36.1001777, 47.8490275, 0.0 ], [ 36.0727119, 47.8487971, 0.0 ], [ 36.0723686, 47.8663046, 0.0 ], [ 36.0871315, 47.8660742, 0.0 ], [ 36.0878181, 47.8621586, 0.0 ], [ 36.1145973, 47.8630799, 0.0 ], [ 36.1262703, 47.8893317, 0.0 ], [ 36.1207771, 47.904524, 0.0 ], [ 36.1091041, 47.9256937, 0.0 ], [ 36.1173439, 47.9289144, 0.0 ], [ 36.0988045, 47.9440951, 0.0 ], [ 36.0836983, 47.9316749, 0.0 ], [ 36.0754585, 47.9647889, 0.0 ], [ 36.0500526, 47.9588115, 0.0 ], [ 36.049366, 47.9698461, 0.0 ], [ 36.0733986, 47.9726043, 0.0 ], [ 36.0617256, 48.0024762, 0.0 ], [ 36.0397529, 48.0066109, 0.0 ], [ 36.0370064, 48.0217688, 0.0 ], [ 36.0651588, 48.0226873, 0.0 ], [ 36.0500526, 48.0584966, 0.0 ], [ 35.9765816, 48.0461039, 0.0 ], [ 35.9800148, 48.0584966, 0.0 ], [ 35.971775, 48.0649213, 0.0 ], [ 35.9723954, 48.0916327, 0.0 ], [ 35.950489, 48.0915293, 0.0 ], [ 35.9024238, 48.0796032, 0.0 ], [ 35.8145332, 48.0662979, 0.0 ], [ 35.8008003, 48.0993255, 0.0 ], [ 35.7795143, 48.0961155, 0.0 ], [ 35.7499885, 48.0974912, 0.0 ], [ 35.7039833, 48.1346233, 0.0 ], [ 35.5247688, 48.0731804, 0.0 ], [ 35.5096626, 48.0979498, 0.0 ], [ 35.4025459, 48.1062036, 0.0 ], [ 35.3200822, 48.1264774, 0.0 ], [ 35.2762031, 48.1428713, 0.0 ], [ 35.2516252, 48.135208, 0.0 ], [ 35.2320558, 48.1365828, 0.0 ], [ 35.2174646, 48.1416804, 0.0 ], [ 35.2009851, 48.1389312, 0.0 ], [ 35.1879389, 48.1293077, 0.0 ], [ 35.1254541, 48.1293077, 0.0 ], [ 35.0904352, 48.1279328, 0.0 ], [ 35.054043, 48.1183073, 0.0 ], [ 35.0341303, 48.093089, 0.0 ], [ 34.9867517, 48.0921718, 0.0 ], [ 34.9188, 48.0924149, 0.0 ], [ 34.9190812, 48.1273941, 0.0 ], [ 34.8576624, 48.1338905, 0.0 ], [ 34.8597223, 48.1018022, 0.0 ], [ 34.8727686, 48.055009, 0.0 ], [ 34.8432428, 48.0499601, 0.0 ], [ 34.8471455, 48.0115465, 0.0 ], [ 34.8704914, 47.9848972, 0.0 ], [ 34.9199299, 47.9370777, 0.0 ], [ 34.8050981, 47.9161341, 0.0 ], [ 34.8237995, 47.8542085, 0.0 ], [ 34.8655229, 47.8719359, 0.0 ], [ 34.9281696, 47.8339315, 0.0 ], [ 34.8567585, 47.7933536, 0.0 ], [ 34.9419025, 47.7619762, 0.0 ], [ 34.9556354, 47.7084063, 0.0 ], [ 34.8842243, 47.6658807, 0.0 ], [ 34.9643998, 47.5577845, 0.0 ], [ 35.0833515, 47.5992493, 0.0 ], [ 35.1368129, 47.6323908, 0.0 ], [ 35.1635725, 47.6928804, 0.0 ], [ 35.1903563, 47.6793881, 0.0 ], [ 35.2356626, 47.6504948, 0.0 ], [ 35.2781714, 47.6188094, 0.0 ] ] ] } },
{ "type": "Feature", "properties": { "Name": "Ukrainian-controlled Dnipro region", "description": "", "tessellate": -1, "extrude": 0, "visibility": -1, "________________": "" }, "geometry": { "type": "Polygon", "coordinates": [ [ [ 33.0980973, 47.5364647, 0.0 ], [ 33.0980973, 47.5828011, 0.0 ], [ 33.2479721, 47.5707006, 0.0 ], [ 33.219133, 47.5345534, 0.0 ], [ 33.2919174, 47.5484591, 0.0 ], [ 33.3152633, 47.4914222, 0.0 ], [ 33.3537155, 47.4942059, 0.0 ], [ 33.3303695, 47.5229624, 0.0 ], [ 33.478685, 47.5470687, 0.0 ], [ 33.4855514, 47.5952479, 0.0 ], [ 33.5679489, 47.6026562, 0.0 ], [ 33.5954147, 47.5359441, 0.0 ], [ 33.5816818, 47.4886383, 0.0 ], [ 33.6434799, 47.50905, 0.0 ], [ 33.9469772, 47.5109052, 0.0 ], [ 34.0221681, 47.5622235, 0.0 ], [ 34.0592469, 47.5789012, 0.0 ], [ 34.121045, 47.5566632, 0.0 ], [ 34.1382112, 47.5307069, 0.0 ], [ 34.2206086, 47.515869, 0.0 ], [ 34.2645539, 47.570563, 0.0 ], [ 34.28378, 47.5696365, 0.0 ], [ 34.39227, 47.5325613, 0.0 ], [ 34.4712342, 47.5622235, 0.0 ], [ 34.5268525, 47.6099259, 0.0 ], [ 34.6016969, 47.5941843, 0.0 ], [ 34.673108, 47.5733426, 0.0 ], [ 34.7328462, 47.5668568, 0.0 ], [ 34.8227967, 47.5645402, 0.0 ], [ 34.880475, 47.5497118, 0.0 ], [ 34.9643998, 47.5577845, 0.0 ], [ 34.8842243, 47.6658807, 0.0 ], [ 34.9556354, 47.7084063, 0.0 ], [ 34.9419025, 47.7619762, 0.0 ], [ 34.8567585, 47.7933536, 0.0 ], [ 34.9281696, 47.8339315, 0.0 ], [ 34.8655229, 47.8719359, 0.0 ], [ 34.8237995, 47.8542085, 0.0 ], [ 34.8050981, 47.9161341, 0.0 ], [ 34.9199299, 47.9370777, 0.0 ], [ 34.8704914, 47.9848972, 0.0 ], [ 34.8471455, 48.0115465, 0.0 ], [ 34.8432428, 48.0499601, 0.0 ], [ 34.8727686, 48.055009, 0.0 ], [ 34.8597223, 48.1018022, 0.0 ], [ 34.8576624, 48.1338905, 0.0 ], [ 34.9190812, 48.1273941, 0.0 ], [ 34.9188, 48.0924149, 0.0 ], [ 35.0341303, 48.093089, 0.0 ], [ 35.051793, 48.1168884, 0.0 ], [ 35.0904352, 48.1279328, 0.0 ], [ 35.1879389, 48.1293077, 0.0 ], [ 35.2009851, 48.1389312, 0.0 ], [ 35.2131547, 48.1409494, 0.0 ], [ 35.2320558, 48.1365828, 0.0 ], [ 35.2516252, 48.135208, 0.0 ], [ 35.2762031, 48.1428713, 0.0 ], [ 35.4025459, 48.1062036, 0.0 ], [ 35.5096626, 48.0979498, 0.0 ], [ 35.5247688, 48.0731804, 0.0 ], [ 35.7039833, 48.1346233, 0.0 ], [ 35.7499885, 48.0974912, 0.0 ], [ 35.7795143, 48.0961155, 0.0 ], [ 35.8008003, 48.0993255, 0.0 ], [ 35.8145332, 48.0662979, 0.0 ], [ 35.9047109, 48.0799326, 0.0 ], [ 35.950489, 48.0915293, 0.0 ], [ 35.9723954, 48.0916327, 0.0 ], [ 35.971775, 48.0649213, 0.0 ], [ 35.9800148, 48.0584966, 0.0 ], [ 35.9765816, 48.0461039, 0.0 ], [ 36.0500526, 48.0584966, 0.0 ], [ 36.0651588, 48.0226873, 0.0 ], [ 36.0370064, 48.0217688, 0.0 ], [ 36.0397529, 48.0066109, 0.0 ], [ 36.0617256, 48.0024762, 0.0 ], [ 36.0733986, 47.9726043, 0.0 ], [ 36.049366, 47.9698461, 0.0 ], [ 36.0500526, 47.9588115, 0.0 ], [ 36.0754585, 47.9647889, 0.0 ], [ 36.0836983, 47.9316749, 0.0 ], [ 36.0988045, 47.9440951, 0.0 ], [ 36.1173439, 47.9289144, 0.0 ], [ 36.1091041, 47.9256937, 0.0 ], [ 36.1207771, 47.904524, 0.0 ], [ 36.1262703, 47.8893317, 0.0 ], [ 36.1145973, 47.8630799, 0.0 ], [ 36.0878181, 47.8621586, 0.0 ], [ 36.0871315, 47.8660742, 0.0 ], [ 36.0723686, 47.8663046, 0.0 ], [ 36.0727119, 47.8487971, 0.0 ], [ 36.1001777, 47.8490275, 0.0 ], [ 36.101551, 47.8432672, 0.0 ], [ 36.1774254, 47.8515618, 0.0 ], [ 36.1774254, 47.8573212, 0.0 ], [ 36.1965925, 47.8589725, 0.0 ], [ 36.2056058, 47.8334271, 0.0 ], [ 36.2263674, 47.8325804, 0.0 ], [ 36.268102, 47.8320287, 0.0 ], [ 36.2761629, 47.814959, 0.0 ], [ 36.3040053, 47.8162469, 0.0 ], [ 36.3033423, 47.8284527, 0.0 ], [ 36.3043958, 47.8336272, 0.0 ], [ 36.2721247, 47.8506517, 0.0 ], [ 36.2740556, 47.8563814, 0.0 ], [ 36.2749571, 47.871095, 0.0 ], [ 36.2893732, 47.8906069, 0.0 ], [ 36.3099726, 47.8915278, 0.0 ], [ 36.3531476, 47.8932842, 0.0 ], [ 36.3744336, 47.9113519, 0.0 ], [ 36.4152852, 47.913837, 0.0 ], [ 36.4203493, 47.8923747, 0.0 ], [ 36.4402558, 47.8930423, 0.0 ], [ 36.4361359, 47.914907, 0.0 ], [ 36.4624001, 47.9158274, 0.0 ], [ 36.4793945, 47.9129511, 0.0 ], [ 36.4907242, 47.91088, 0.0 ], [ 36.5039421, 47.8992574, 0.0 ], [ 36.5183617, 47.9002932, 0.0 ], [ 36.526112, 47.9039088, 0.0 ], [ 36.5290302, 47.9185216, 0.0 ], [ 36.5180434, 47.920707, 0.0 ], [ 36.5068425, 47.9216271, 0.0 ], [ 36.4952442, 47.9288447, 0.0 ], [ 36.5035581, 47.9376725, 0.0 ], [ 36.5260256, 47.9360053, 0.0 ], [ 36.5414757, 47.9405481, 0.0 ], [ 36.5408767, 47.9382278, 0.0 ], [ 36.5687288, 47.9321611, 0.0 ], [ 36.5674842, 47.9346051, 0.0 ], [ 36.5692262, 47.9367047, 0.0 ], [ 36.5746082, 47.9463348, 0.0 ], [ 36.5604461, 47.9497841, 0.0 ], [ 36.5653385, 47.9561074, 0.0 ], [ 36.5659393, 47.9573145, 0.0 ], [ 36.584822, 47.9557625, 0.0 ], [ 36.597423, 47.957771, 0.0 ], [ 36.5913452, 47.9739234, 0.0 ], [ 36.571395, 47.979075, 0.0 ], [ 36.5704027, 47.9877967, 0.0 ], [ 36.5543861, 47.9984002, 0.0 ], [ 36.5706325, 48.0018727, 0.0 ], [ 36.5838802, 48.0121786, 0.0 ], [ 36.5846318, 48.031527, 0.0 ], [ 36.5724005, 48.0398889, 0.0 ], [ 36.5854901, 48.0496612, 0.0 ], [ 36.5877217, 48.0550543, 0.0 ], [ 36.5860227, 48.0551936, 0.0 ], [ 36.5820745, 48.0597544, 0.0 ], [ 36.5801863, 48.0598691, 0.0 ], [ 36.5775684, 48.0625365, 0.0 ], [ 36.58083, 48.0629094, 0.0 ], [ 36.5854648, 48.0639419, 0.0 ], [ 36.5871281, 48.0648194, 0.0 ], [ 36.5860552, 48.0669417, 0.0 ], [ 36.5863127, 48.0685764, 0.0 ], [ 36.5851969, 48.0708705, 0.0 ], [ 36.5847677, 48.0734514, 0.0 ], [ 36.5869564, 48.0751718, 0.0 ], [ 36.5863127, 48.0764908, 0.0 ], [ 36.5848535, 48.0768923, 0.0 ], [ 36.5837807, 48.0760894, 0.0 ], [ 36.5809912, 48.0773224, 0.0 ], [ 36.5795749, 48.0794441, 0.0 ], [ 36.5821928, 48.0803903, 0.0 ], [ 36.5842527, 48.078756, 0.0 ], [ 36.5869993, 48.0785266, 0.0 ], [ 36.5873855, 48.0803903, 0.0 ], [ 36.5859264, 48.0825692, 0.0 ], [ 36.5871281, 48.0829993, 0.0 ], [ 36.5932649, 48.0823972, 0.0 ], [ 36.5985006, 48.0841174, 0.0 ], [ 36.6021913, 48.0847481, 0.0 ], [ 36.6045517, 48.0856655, 0.0 ], [ 36.6046375, 48.0861815, 0.0 ], [ 36.6038221, 48.0870129, 0.0 ], [ 36.6000027, 48.0887616, 0.0 ], [ 36.6004747, 48.0902522, 0.0 ], [ 36.602714, 48.090986, 0.0 ], [ 36.6051525, 48.090754, 0.0 ], [ 36.6101736, 48.0897076, 0.0 ], [ 36.6108173, 48.0872996, 0.0 ], [ 36.6151947, 48.0868982, 0.0 ], [ 36.6172117, 48.0858662, 0.0 ], [ 36.6204733, 48.0840314, 0.0 ], [ 36.6221899, 48.0823685, 0.0 ], [ 36.6240603, 48.082603, 0.0 ], [ 36.6256697, 48.0851833, 0.0 ], [ 36.6277081, 48.085556, 0.0 ], [ 36.6293604, 48.0837642, 0.0 ], [ 36.6315061, 48.0839935, 0.0 ], [ 36.6327078, 48.0862297, 0.0 ], [ 36.6310984, 48.086545, 0.0 ], [ 36.6281802, 48.0865593, 0.0 ], [ 36.6287166, 48.0888957, 0.0 ], [ 36.6309268, 48.0891394, 0.0 ], [ 36.6334159, 48.0885374, 0.0 ], [ 36.6365916, 48.0876917, 0.0 ], [ 36.637407, 48.0892254, 0.0 ], [ 36.6386515, 48.0895694, 0.0 ], [ 36.6411406, 48.0891967, 0.0 ], [ 36.6420633, 48.0879784, 0.0 ], [ 36.6438228, 48.0872044, 0.0 ], [ 36.6447455, 48.0879497, 0.0 ], [ 36.645118, 48.08887, 0.0 ], [ 36.646269, 48.0894834, 0.0 ], [ 36.647993, 48.089629, 0.0 ], [ 36.649431, 48.087995, 0.0 ], [ 36.6515261, 48.088523, 0.0 ], [ 36.65044, 48.090762, 0.0 ], [ 36.6507966, 48.0917049, 0.0 ], [ 36.6498954, 48.0927512, 0.0 ], [ 36.6469342, 48.0936398, 0.0 ], [ 36.6449816, 48.0938548, 0.0 ], [ 36.6441233, 48.0930092, 0.0 ], [ 36.6426427, 48.0926079, 0.0 ], [ 36.641441, 48.0914613, 0.0 ], [ 36.639582, 48.091722, 0.0 ], [ 36.6379027, 48.0925253, 0.0 ], [ 36.6374715, 48.0928524, 0.0 ], [ 36.6367869, 48.0935286, 0.0 ], [ 36.6362075, 48.0945318, 0.0 ], [ 36.6385464, 48.0955493, 0.0 ], [ 36.6411428, 48.0951767, 0.0 ], [ 36.6426663, 48.0953487, 0.0 ], [ 36.6429453, 48.0960796, 0.0 ], [ 36.6443615, 48.0967818, 0.0 ], [ 36.646357, 48.0964379, 0.0 ], [ 36.648653, 48.095511, 0.0 ], [ 36.6501336, 48.0955207, 0.0 ], [ 36.6503482, 48.0979713, 0.0 ], [ 36.6505198, 48.0991607, 0.0 ], [ 36.651378, 48.099968, 0.0 ], [ 36.6534381, 48.1002928, 0.0 ], [ 36.6546719, 48.0997196, 0.0 ], [ 36.6562061, 48.099218, 0.0 ], [ 36.657815, 48.098392, 0.0 ], [ 36.658223, 48.097804, 0.0 ], [ 36.6573219, 48.0971114, 0.0 ], [ 36.6560988, 48.0959076, 0.0 ], [ 36.65539, 48.094694, 0.0 ], [ 36.655626, 48.094408, 0.0 ], [ 36.658486, 48.092417, 0.0 ], [ 36.660975, 48.091471, 0.0 ], [ 36.6620211, 48.0901031, 0.0 ], [ 36.661876, 48.089379, 0.0 ], [ 36.6626005, 48.0880965, 0.0 ], [ 36.6635661, 48.0874228, 0.0 ], [ 36.6648603, 48.0878161, 0.0 ], [ 36.6674353, 48.0902241, 0.0 ], [ 36.6769361, 48.0901284, 0.0 ], [ 36.6819406, 48.0865547, 0.0 ], [ 36.6932703, 48.086268, 0.0 ], [ 36.6980768, 48.0928039, 0.0 ], [ 36.6813398, 48.0987084, 0.0 ], [ 36.6813398, 48.1000841, 0.0 ], [ 36.653014, 48.106463, 0.0 ], [ 36.6716808, 48.120032, 0.0 ], [ 36.7060131, 48.1317195, 0.0 ], [ 36.7279857, 48.1254177, 0.0 ], [ 36.75425, 48.1227822, 0.0 ], [ 36.7776647, 48.1226094, 0.0 ], [ 36.7951054, 48.1249594, 0.0 ], [ 36.8457454, 48.1346982, 0.0 ], [ 36.8656582, 48.1541704, 0.0 ], [ 36.8766445, 48.1695138, 0.0 ], [ 36.8975872, 48.1853104, 0.0 ], [ 36.9147533, 48.1953811, 0.0 ], [ 36.88849, 48.2079068, 0.0 ], [ 36.8878025, 48.2212925, 0.0 ], [ 36.8760437, 48.2304413, 0.0 ], [ 36.8749279, 48.2450188, 0.0 ], [ 36.8851398, 48.2594218, 0.0 ], [ 36.9015353, 48.2635349, 0.0 ], [ 36.911835, 48.2887836, 0.0 ], [ 36.9089799, 48.3103949, 0.0 ], [ 36.8746534, 48.3065407, 0.0 ], [ 36.8698411, 48.3145049, 0.0 ], [ 36.8169752, 48.3138477, 0.0 ], [ 36.808043, 48.3583242, 0.0 ], [ 36.840666, 48.4122733, 0.0 ], [ 36.8341356, 48.4362842, 0.0 ], [ 36.831389, 48.4909216, 0.0 ], [ 36.9028001, 48.5145795, 0.0 ], [ 36.8602281, 48.5664063, 0.0 ], [ 36.8022138, 48.6087857, 0.0 ], [ 36.7115766, 48.6233118, 0.0 ], [ 36.590727, 48.6124176, 0.0 ], [ 36.4808637, 48.6614231, 0.0 ], [ 36.3517744, 48.5542753, 0.0 ], [ 36.3380414, 48.5251791, 0.0 ], [ 36.2638837, 48.5379108, 0.0 ], [ 36.3105756, 48.5742693, 0.0 ], [ 36.2803632, 48.6087857, 0.0 ], [ 36.2721235, 48.6614231, 0.0 ], [ 36.1650068, 48.7448044, 0.0 ], [ 36.1293012, 48.7918718, 0.0 ], [ 36.0606367, 48.9039315, 0.0 ], [ 35.9095746, 48.9869106, 0.0 ], [ 35.7530195, 48.9310051, 0.0 ], [ 35.6761152, 48.9616707, 0.0 ], [ 35.4811078, 48.9851082, 0.0 ], [ 35.3272993, 49.0517545, 0.0 ], [ 35.2146894, 49.0967354, 0.0 ], [ 35.0773603, 49.1632322, 0.0 ], [ 35.0279218, 49.1560477, 0.0 ], [ 34.9455244, 49.1847796, 0.0 ], [ 34.8741132, 49.1578439, 0.0 ], [ 34.8466474, 49.2045231, 0.0 ], [ 34.6543867, 49.1308935, 0.0 ], [ 34.5060712, 49.0751496, 0.0 ], [ 34.4181806, 49.0895412, 0.0 ], [ 34.4017011, 49.0535546, 0.0 ], [ 34.3357831, 49.0139392, 0.0 ], [ 34.3412763, 48.9778978, 0.0 ], [ 34.3028242, 48.9093474, 0.0 ], [ 34.3316633, 48.8592281, 0.0 ], [ 34.3447095, 48.8452218, 0.0 ], [ 34.3261701, 48.8407028, 0.0 ], [ 34.3296033, 48.8226228, 0.0 ], [ 34.2952711, 48.8203623, 0.0 ], [ 34.2918378, 48.7932289, 0.0 ], [ 34.3028242, 48.7855384, 0.0 ], [ 34.3357831, 48.7801091, 0.0 ], [ 34.3151838, 48.7620072, 0.0 ], [ 34.3103773, 48.7393707, 0.0 ], [ 34.2650587, 48.7438988, 0.0 ], [ 34.1983753, 48.7626618, 0.0 ], [ 34.1599231, 48.7581354, 0.0 ], [ 34.1695362, 48.7717135, 0.0 ], [ 34.111858, 48.7852879, 0.0 ], [ 34.0871387, 48.7762387, 0.0 ], [ 34.0679126, 48.797954, 0.0 ], [ 34.0019947, 48.8069993, 0.0 ], [ 33.9839466, 48.8202949, 0.0 ], [ 33.9798268, 48.8564501, 0.0 ], [ 33.9509876, 48.8817432, 0.0 ], [ 33.8891895, 48.8889675, 0.0 ], [ 33.8589771, 48.8193907, 0.0 ], [ 33.8438709, 48.7768742, 0.0 ], [ 33.8012989, 48.7976847, 0.0 ], [ 33.7477406, 48.7958754, 0.0 ], [ 33.6873158, 48.8211991, 0.0 ], [ 33.6406239, 48.7940661, 0.0 ], [ 33.5829457, 48.8094433, 0.0 ], [ 33.5719593, 48.7632975, 0.0 ], [ 33.5966786, 48.7488117, 0.0 ], [ 33.6255177, 48.7334159, 0.0 ], [ 33.6667164, 48.7225455, 0.0 ], [ 33.7477406, 48.6917331, 0.0 ], [ 33.7614735, 48.6817604, 0.0 ], [ 33.8054188, 48.679947, 0.0 ], [ 33.8026722, 48.6672511, 0.0 ], [ 33.7491139, 48.6518303, 0.0 ], [ 33.7532337, 48.619159, 0.0 ], [ 33.6516102, 48.5855582, 0.0 ], [ 33.6090382, 48.5982747, 0.0 ], [ 33.6255177, 48.5719299, 0.0 ], [ 33.593932, 48.5773816, 0.0 ], [ 33.5074146, 48.5719299, 0.0 ], [ 33.4593495, 48.5319322, 0.0 ], [ 33.4881886, 48.4208642, 0.0 ], [ 33.4511097, 48.3670638, 0.0 ], [ 33.5005482, 48.3250782, 0.0 ], [ 33.5348805, 48.2775746, 0.0 ], [ 33.5170277, 48.2410033, 0.0 ], [ 33.4730824, 48.1952523, 0.0 ], [ 33.3027943, 48.1531253, 0.0 ], [ 33.3027943, 48.1072959, 0.0 ], [ 33.2698353, 48.1017936, 0.0 ], [ 33.2643421, 48.1457954, 0.0 ], [ 33.2094105, 48.1732773, 0.0 ], [ 33.1874378, 48.1347984, 0.0 ], [ 33.2176502, 48.1036277, 0.0 ], [ 33.1407459, 48.0742733, 0.0 ], [ 33.1022938, 48.0338836, 0.0 ], [ 32.9951771, 48.0173514, 0.0 ], [ 32.9938038, 47.9787557, 0.0 ], [ 33.0047901, 47.9474904, 0.0 ], [ 32.9855641, 47.9290902, 0.0 ], [ 33.0720814, 47.9152858, 0.0 ], [ 33.0803211, 47.8895076, 0.0 ], [ 33.0693348, 47.8830611, 0.0 ], [ 33.0762013, 47.8360692, 0.0 ], [ 33.0597218, 47.8333037, 0.0 ], [ 33.0720814, 47.8047176, 0.0 ], [ 33.0569752, 47.7668861, 0.0 ], [ 33.0638416, 47.7419576, 0.0 ], [ 32.975951, 47.7281033, 0.0 ], [ 32.975951, 47.6513762, 0.0 ], [ 33.0253895, 47.6162104, 0.0 ], [ 32.9498585, 47.5893574, 0.0 ], [ 33.0926808, 47.5986186, 0.0 ], [ 33.0871876, 47.5532231, 0.0 ], [ 33.0980973, 47.5364647, 0.0 ] ] ] } },
{ "type": "Feature", "properties": { "Name": "Ukrainian-controlled Donetsk region", "description": "", "tessellate": -1, "extrude": 0, "visibility": -1, "________________": "" }, "geometry": { "type": "Polygon", "coordinates": [ [ [ 36.911835, 48.2887836, 0.0 ], [ 36.9430774, 48.289012, 0.0 ], [ 36.9533771, 48.2963216, 0.0 ], [ 36.9679683, 48.2968926, 0.0 ], [ 36.9810152, 48.292839, 0.0 ], [ 36.9957775, 48.2919817, 0.0 ], [ 36.9963786, 48.3007178, 0.0 ], [ 36.9817871, 48.3118507, 0.0 ], [ 36.9662516, 48.317673, 0.0 ], [ 36.9687407, 48.3256632, 0.0 ], [ 36.9811758, 48.3373716, 0.0 ], [ 36.9910359, 48.3459402, 0.0 ], [ 37.0005632, 48.3519868, 0.0 ], [ 37.0033306, 48.3588092, 0.0 ], [ 36.9943274, 48.3647439, 0.0 ], [ 36.9998097, 48.3793727, 0.0 ], [ 37.0077876, 48.379047, 0.0 ], [ 37.0077828, 48.3845917, 0.0 ], [ 37.0189351, 48.3861359, 0.0 ], [ 37.0171273, 48.3967992, 0.0 ], [ 37.0303237, 48.3987299, 0.0 ], [ 37.0360177, 48.3804823, 0.0 ], [ 37.0592167, 48.3827534, 0.0 ], [ 37.0544739, 48.3974762, 0.0 ], [ 37.0530024, 48.4017243, 0.0 ], [ 37.0496048, 48.4086926, 0.0 ], [ 37.0488503, 48.4130879, 0.0 ], [ 37.0707899, 48.4143456, 0.0 ], [ 37.0714427, 48.4155998, 0.0 ], [ 37.074076, 48.4181667, 0.0 ], [ 37.0726106, 48.4229855, 0.0 ], [ 37.0774115, 48.4272333, 0.0 ], [ 37.0984146, 48.4269052, 0.0 ], [ 37.1074005, 48.428056, 0.0 ], [ 37.1107281, 48.4316672, 0.0 ], [ 37.1107063, 48.4360716, 0.0 ], [ 37.107014, 48.4483267, 0.0 ], [ 37.1182879, 48.4488728, 0.0 ], [ 37.1157131, 48.463786, 0.0 ], [ 37.1145112, 48.4736314, 0.0 ], [ 37.1110157, 48.4816816, 0.0 ], [ 37.1167051, 48.4895035, 0.0 ], [ 37.1345781, 48.4915822, 0.0 ], [ 37.1579415, 48.4827353, 0.0 ], [ 37.1569697, 48.4703231, 0.0 ], [ 37.179684, 48.4683802, 0.0 ], [ 37.1974796, 48.4654032, 0.0 ], [ 37.2086376, 48.4655169, 0.0 ], [ 37.234558, 48.4669986, 0.0 ], [ 37.245373, 48.4771282, 0.0 ], [ 37.272324, 48.4834978, 0.0 ], [ 37.2778807, 48.5043149, 0.0 ], [ 37.2758858, 48.5073856, 0.0 ], [ 37.2693577, 48.5126166, 0.0 ], [ 37.2792711, 48.5192607, 0.0 ], [ 37.29097, 48.5186439, 0.0 ], [ 37.2974723, 48.5235338, 0.0 ], [ 37.3068706, 48.5269456, 0.0 ], [ 37.3203891, 48.5270582, 0.0 ], [ 37.3198741, 48.5335379, 0.0 ], [ 37.3228763, 48.5396222, 0.0 ], [ 37.3239277, 48.5442678, 0.0 ], [ 37.3236281, 48.5509309, 0.0 ], [ 37.3300019, 48.5522169, 0.0 ], [ 37.3370624, 48.5516845, 0.0 ], [ 37.343351, 48.5547313, 0.0 ], [ 37.360627, 48.5564134, 0.0 ], [ 37.3770452, 48.5576391, 0.0 ], [ 37.3903724, 48.5611343, 0.0 ], [ 37.3997091, 48.5595135, 0.0 ], [ 37.4022747, 48.5626227, 0.0 ], [ 37.4074156, 48.5640276, 0.0 ], [ 37.4142204, 48.5663829, 0.0 ], [ 37.4223129, 48.5661818, 0.0 ], [ 37.428316, 48.5664692, 0.0 ], [ 37.4377521, 48.5676652, 0.0 ], [ 37.4473624, 48.5697258, 0.0 ], [ 37.4541833, 48.5704227, 0.0 ], [ 37.4581417, 48.56775, 0.0 ], [ 37.4587096, 48.5651908, 0.0 ], [ 37.4528934, 48.5607539, 0.0 ], [ 37.445724, 48.5523909, 0.0 ], [ 37.4388355, 48.5463243, 0.0 ], [ 37.4364163, 48.5364547, 0.0 ], [ 37.446182, 48.5266386, 0.0 ], [ 37.4688004, 48.5167777, 0.0 ], [ 37.4667683, 48.51272, 0.0 ], [ 37.4678841, 48.5095358, 0.0 ], [ 37.4753514, 48.5092515, 0.0 ], [ 37.4777546, 48.4946925, 0.0 ], [ 37.4810162, 48.4898007, 0.0 ], [ 37.4796429, 48.4838844, 0.0 ], [ 37.4698582, 48.4841119, 0.0 ], [ 37.4688282, 48.4769432, 0.0 ], [ 37.472519, 48.4710822, 0.0 ], [ 37.5124302, 48.4673832, 0.0 ], [ 37.5144902, 48.4778535, 0.0 ], [ 37.5110569, 48.4884355, 0.0 ], [ 37.5356045, 48.4900282, 0.0 ], [ 37.5295964, 48.4975364, 0.0 ], [ 37.5505776, 48.5040481, 0.0 ], [ 37.5491614, 48.505612, 0.0 ], [ 37.557196, 48.5060221, 0.0 ], [ 37.5695557, 48.4965814, 0.0 ], [ 37.5794786, 48.499177, 0.0 ], [ 37.5871006, 48.503944, 0.0 ], [ 37.5918051, 48.5074022, 0.0 ], [ 37.5991968, 48.5106226, 0.0 ], [ 37.60573, 48.5134446, 0.0 ], [ 37.607407, 48.5206913, 0.0 ], [ 37.6095315, 48.5267818, 0.0 ], [ 37.6114359, 48.5310844, 0.0 ], [ 37.6130695, 48.5392128, 0.0 ], [ 37.6118116, 48.5520531, 0.0 ], [ 37.621475, 48.5559728, 0.0 ], [ 37.6156236, 48.5604321, 0.0 ], [ 37.6110669, 48.5640248, 0.0 ], [ 37.6135482, 48.566595, 0.0 ], [ 37.6219294, 48.5686968, 0.0 ], [ 37.6178375, 48.5728284, 0.0 ], [ 37.6221571, 48.5756821, 0.0 ], [ 37.6266051, 48.5735525, 0.0 ], [ 37.6288719, 48.5744753, 0.0 ], [ 37.6331558, 48.5739498, 0.0 ], [ 37.6409701, 48.5770306, 0.0 ], [ 37.6459523, 48.5763631, 0.0 ], [ 37.6656228, 48.5805318, 0.0 ], [ 37.6786835, 48.582087, 0.0 ], [ 37.6917996, 48.592519, 0.0 ], [ 37.7028824, 48.5912073, 0.0 ], [ 37.7088848, 48.59323, 0.0 ], [ 37.7129997, 48.5963875, 0.0 ], [ 37.718783, 48.5969124, 0.0 ], [ 37.7331918, 48.5930096, 0.0 ], [ 37.7465712, 48.59053, 0.0 ], [ 37.7476012, 48.6050614, 0.0 ], [ 37.7701294, 48.6068907, 0.0 ], [ 37.7538884, 48.6140908, 0.0 ], [ 37.7551543, 48.6240141, 0.0 ], [ 37.7620207, 48.6353596, 0.0 ], [ 37.7540385, 48.6486306, 0.0 ], [ 37.7554969, 48.6554634, 0.0 ], [ 37.7696596, 48.6577594, 0.0 ], [ 37.7858816, 48.6647326, 0.0 ], [ 37.7948939, 48.6713079, 0.0 ], [ 37.7994429, 48.6761822, 0.0 ], [ 37.795323, 48.6861561, 0.0 ], [ 37.7862241, 48.6885918, 0.0 ], [ 37.7758833, 48.6881675, 0.0 ], [ 37.7621266, 48.6874456, 0.0 ], [ 37.7488993, 48.6879912, 0.0 ], [ 37.7399622, 48.6929554, 0.0 ], [ 37.7291543, 48.7042149, 0.0 ], [ 37.7038403, 48.7054444, 0.0 ], [ 37.703322, 48.7128088, 0.0 ], [ 37.7100992, 48.7216448, 0.0 ], [ 37.738936, 48.7209107, 0.0 ], [ 37.7412523, 48.7264609, 0.0 ], [ 37.7543748, 48.7348033, 0.0 ], [ 37.751643, 48.7410256, 0.0 ], [ 37.7762065, 48.7439361, 0.0 ], [ 37.7845084, 48.7529752, 0.0 ], [ 37.7833065, 48.7576145, 0.0 ], [ 37.7690444, 48.7679377, 0.0 ], [ 37.7791724, 48.7766491, 0.0 ], [ 37.7850195, 48.7817888, 0.0 ], [ 37.7931628, 48.7867726, 0.0 ], [ 37.7948934, 48.7898016, 0.0 ], [ 37.8024456, 48.7961338, 0.0 ], [ 37.8067296, 48.8025514, 0.0 ], [ 37.8008014, 48.8039374, 0.0 ], [ 37.8048277, 48.819811, 0.0 ], [ 37.7948093, 48.8353434, 0.0 ], [ 37.8016983, 48.848389, 0.0 ], [ 37.8045598, 48.857364, 0.0 ], [ 37.801803, 48.8645563, 0.0 ], [ 37.8095063, 48.8707954, 0.0 ], [ 37.8127572, 48.8779508, 0.0 ], [ 37.8199234, 48.8807217, 0.0 ], [ 37.816874, 48.8873875, 0.0 ], [ 37.8250381, 48.8936959, 0.0 ], [ 37.8398496, 48.8906141, 0.0 ], [ 37.8445318, 48.8876444, 0.0 ], [ 37.8547566, 48.8850922, 0.0 ], [ 37.8617329, 48.8870221, 0.0 ], [ 37.8639027, 48.8854527, 0.0 ], [ 37.8601741, 48.8824266, 0.0 ], [ 37.8666531, 48.8829396, 0.0 ], [ 37.8720557, 48.8857828, 0.0 ], [ 37.8792224, 48.8876023, 0.0 ], [ 37.8880204, 48.8890835, 0.0 ], [ 37.8854353, 48.8944863, 0.0 ], [ 37.886284, 48.9003407, 0.0 ], [ 37.8788251, 48.9037273, 0.0 ], [ 37.8752325, 48.9036708, 0.0 ], [ 37.8670785, 48.9047432, 0.0 ], [ 37.8610694, 48.9074507, 0.0 ], [ 37.8387386, 48.9053482, 0.0 ], [ 37.8258454, 48.9070792, 0.0 ], [ 37.815209, 48.9073502, 0.0 ], [ 37.8086859, 48.9089298, 0.0 ], [ 37.7861983, 48.9048678, 0.0 ], [ 37.7814776, 48.9100016, 0.0 ], [ 37.790919, 48.914063, 0.0 ], [ 37.796498, 48.9200419, 0.0 ], [ 37.8059393, 48.9199855, 0.0 ], [ 37.8035361, 48.9252869, 0.0 ], [ 37.8023611, 48.929955, 0.0 ], [ 37.7921456, 48.9393145, 0.0 ], [ 37.7912031, 48.9649041, 0.0 ], [ 37.8041148, 48.9648622, 0.0 ], [ 37.8095222, 48.965144, 0.0 ], [ 37.8135562, 48.9662146, 0.0 ], [ 37.8154658, 48.9664118, 0.0 ], [ 37.8194541, 48.9646545, 0.0 ], [ 37.8207388, 48.9661936, 0.0 ], [ 37.8244697, 48.9682537, 0.0 ], [ 37.8291021, 48.9692995, 0.0 ], [ 37.8325883, 48.9713481, 0.0 ], [ 37.8331512, 48.9709216, 0.0 ], [ 37.8352352, 48.9722014, 0.0 ], [ 37.8336713, 48.9730023, 0.0 ], [ 37.8285417, 48.9698313, 0.0 ], [ 37.8257925, 48.9717998, 0.0 ], [ 37.8202081, 48.9713138, 0.0 ], [ 37.8124404, 48.9720745, 0.0 ], [ 37.8108096, 48.9764689, 0.0 ], [ 37.8061748, 48.9797927, 0.0 ], [ 37.8100371, 48.9849187, 0.0 ], [ 37.8122687, 48.9899879, 0.0 ], [ 37.8125262, 48.9959013, 0.0 ], [ 37.8100372, 48.9964361, 0.0 ], [ 37.8072047, 48.9964644, 0.0 ], [ 37.7918268, 49.0015848, 0.0 ], [ 37.782371, 49.0042148, 0.0 ], [ 37.778852, 49.0093383, 0.0 ], [ 37.7816844, 49.0141235, 0.0 ], [ 37.7911347, 49.0181005, 0.0 ], [ 37.815277, 49.0201504, 0.0 ], [ 37.8322394, 49.0322253, 0.0 ], [ 37.8531565, 49.0373209, 0.0 ], [ 37.8675729, 49.0370577, 0.0 ], [ 37.8666281, 49.044972, 0.0 ], [ 37.8471417, 49.0477095, 0.0 ], [ 37.8351172, 49.0424576, 0.0 ], [ 37.8273767, 49.0433178, 0.0 ], [ 37.8093242, 49.0342328, 0.0 ], [ 37.7875774, 49.0244517, 0.0 ], [ 37.7718315, 49.0206706, 0.0 ], [ 37.7598322, 49.0151151, 0.0 ], [ 37.7605616, 49.0219536, 0.0 ], [ 37.7458802, 49.0239834, 0.0 ], [ 37.7446137, 49.0347478, 0.0 ], [ 37.7358589, 49.0411623, 0.0 ], [ 37.7353439, 49.0474634, 0.0 ], [ 37.722641, 49.0502761, 0.0 ], [ 37.7224693, 49.0589383, 0.0 ], [ 37.713028, 49.0564636, 0.0 ], [ 37.7077065, 49.0502761, 0.0 ], [ 37.7049599, 49.0444254, 0.0 ], [ 37.6821289, 49.0453256, 0.0 ], [ 37.6690826, 49.0466758, 0.0 ], [ 37.6611862, 49.0512886, 0.0 ], [ 37.6596413, 49.0588258, 0.0 ], [ 37.6482258, 49.0603444, 0.0 ], [ 37.6367245, 49.0607943, 0.0 ], [ 37.628828, 49.0620316, 0.0 ], [ 37.6201592, 49.0668118, 0.0 ], [ 37.6086578, 49.0664744, 0.0 ], [ 37.595999, 49.0689739, 0.0 ], [ 37.5876417, 49.0723396, 0.0 ], [ 37.5847234, 49.0795363, 0.0 ], [ 37.5867293, 49.08674, 0.0 ], [ 37.5797453, 49.0923528, 0.0 ], [ 37.5931059, 49.1095687, 0.0 ], [ 37.5936209, 49.1221527, 0.0 ], [ 37.6204001, 49.1439425, 0.0 ], [ 37.6176467, 49.1638135, 0.0 ], [ 37.6490568, 49.162357, 0.0 ], [ 37.6615077, 49.1726844, 0.0 ], [ 37.6811243, 49.1749283, 0.0 ], [ 37.6974761, 49.171447, 0.0 ], [ 37.7197928, 49.1635104, 0.0 ], [ 37.7393622, 49.1663166, 0.0 ], [ 37.7679418, 49.1655344, 0.0 ], [ 37.7737587, 49.1650156, 0.0 ], [ 37.7864617, 49.1719744, 0.0 ], [ 37.7940148, 49.1816253, 0.0 ], [ 37.7849167, 49.1856647, 0.0 ], [ 37.7904099, 49.187572, 0.0 ], [ 37.8024262, 49.187572, 0.0 ], [ 37.809121, 49.1819619, 0.0 ], [ 37.8020829, 49.1737701, 0.0 ], [ 37.7889723, 49.1617144, 0.0 ], [ 37.797239, 49.1521559, 0.0 ], [ 37.8034187, 49.1520999, 0.0 ], [ 37.8181816, 49.1527174, 0.0 ], [ 37.8273655, 49.1563661, 0.0 ], [ 37.8265438, 49.1605249, 0.0 ], [ 37.8352986, 49.1611984, 0.0 ], [ 37.8319512, 49.1672598, 0.0 ], [ 37.8336678, 49.1698413, 0.0 ], [ 37.8292046, 49.1754527, 0.0 ], [ 37.8394184, 49.1809514, 0.0 ], [ 37.8414784, 49.187964, 0.0 ], [ 37.8110276, 49.192328, 0.0 ], [ 37.8130876, 49.2005728, 0.0 ], [ 37.8060495, 49.2024235, 0.0 ], [ 37.7939497, 49.2121704, 0.0 ], [ 37.7120007, 49.2209599, 0.0 ], [ 37.6131238, 49.2344125, 0.0 ], [ 37.5657452, 49.2294803, 0.0 ], [ 37.5286664, 49.2016716, 0.0 ], [ 37.4881543, 49.1810293, 0.0 ], [ 37.5472058, 49.1720517, 0.0 ], [ 37.5501471, 49.1554169, 0.0 ], [ 37.5732983, 49.1352264, 0.0 ], [ 37.5046338, 49.1010712, 0.0 ], [ 37.5032605, 49.0641932, 0.0 ], [ 37.4236096, 49.0551944, 0.0 ], [ 37.3714246, 49.0344909, 0.0 ], [ 37.3700513, 48.9876514, 0.0 ], [ 37.3206128, 48.9867502, 0.0 ], [ 37.2904004, 48.9606086, 0.0 ], [ 37.335719, 48.9326489, 0.0 ], [ 37.2711743, 48.9146021, 0.0 ], [ 37.2162427, 48.8965488, 0.0 ], [ 37.2008043, 48.8138943, 0.0 ], [ 37.1379651, 48.8441572, 0.0 ], [ 37.052821, 48.8161323, 0.0 ], [ 36.9978894, 48.7944249, 0.0 ], [ 37.0500745, 48.7609408, 0.0 ], [ 37.0143689, 48.7464543, 0.0 ], [ 36.9594372, 48.7880918, 0.0 ], [ 36.8482007, 48.7962342, 0.0 ], [ 36.8276013, 48.7690877, 0.0 ], [ 36.783656, 48.7790431, 0.0 ], [ 36.783656, 48.8043753, 0.0 ], [ 36.7218579, 48.7953296, 0.0 ], [ 36.684779, 48.7708979, 0.0 ], [ 36.7115766, 48.6233118, 0.0 ], [ 36.8022138, 48.6087857, 0.0 ], [ 36.8602281, 48.5664063, 0.0 ], [ 36.9028001, 48.5145795, 0.0 ], [ 36.831389, 48.4909216, 0.0 ], [ 36.8337811, 48.4421832, 0.0 ], [ 36.840666, 48.4122733, 0.0 ], [ 36.808043, 48.3583242, 0.0 ], [ 36.8169752, 48.3138477, 0.0 ], [ 36.8698411, 48.3145049, 0.0 ], [ 36.8746534, 48.3065407, 0.0 ], [ 36.9089799, 48.3103949, 0.0 ], [ 36.911835, 48.2887836, 0.0 ] ] ] } },
{ "type": "Feature", "properties": { "Name": "Ukrainian-controlled Donetsk region", "description": "", "tessellate": -1, "extrude": 0, "visibility": -1, "________________": "" }, "geometry": { "type": "Polygon", "coordinates": [ [ [ 37.7581616, 48.5695357, 0.0 ], [ 37.7678605, 48.5656451, 0.0 ], [ 37.7747269, 48.5682578, 0.0 ], [ 37.7808209, 48.569053, 0.0 ], [ 37.7885457, 48.5721199, 0.0 ], [ 37.7955838, 48.5766062, 0.0 ], [ 37.7888032, 48.5793887, 0.0 ], [ 37.7837392, 48.5821143, 0.0 ], [ 37.7799626, 48.5835906, 0.0 ], [ 37.7709399, 48.5873025, 0.0 ], [ 37.7602053, 48.5883918, 0.0 ], [ 37.7589124, 48.586245, 0.0 ], [ 37.7584621, 48.575442, 0.0 ], [ 37.7581616, 48.5695357, 0.0 ] ] ] } },
{ "type": "Feature", "properties": { "Name": "Ukrainian-controlled Donetsk region", "description": "", "tessellate": -1, "extrude": 0, "visibility": -1, "________________": "" }, "geometry": { "type": "Polygon", "coordinates": [ [ [ 36.6405309, 47.9979867, 0.0 ], [ 36.6756972, 48.0026645, 0.0 ], [ 36.6798607, 47.9861783, 0.0 ], [ 36.6924331, 47.9873838, 0.0 ], [ 36.6936348, 47.990457, 0.0 ], [ 36.696553, 47.9911176, 0.0 ], [ 36.6957805, 47.9930706, 0.0 ], [ 36.7002437, 47.9934727, 0.0 ], [ 36.6982696, 47.9963446, 0.0 ], [ 36.702647, 48.0008818, 0.0 ], [ 36.7010162, 48.0061078, 0.0 ], [ 36.6946648, 48.0080028, 0.0 ], [ 36.6787667, 48.0164869, 0.0 ], [ 36.6664609, 48.0222183, 0.0 ], [ 36.6597668, 48.0283898, 0.0 ], [ 36.6678341, 48.0391506, 0.0 ], [ 36.668435, 48.0484467, 0.0 ], [ 36.692868, 48.0513758, 0.0 ], [ 36.7017944, 48.0728295, 0.0 ], [ 36.6794784, 48.0781055, 0.0 ], [ 36.6800792, 48.0751235, 0.0 ], [ 36.676131, 48.0752955, 0.0 ], [ 36.6713245, 48.0717398, 0.0 ], [ 36.665264, 48.0722888, 0.0 ], [ 36.659968, 48.0758319, 0.0 ], [ 36.6634012, 48.0824264, 0.0 ], [ 36.6669203, 48.0852933, 0.0 ], [ 36.6648603, 48.0878161, 0.0 ], [ 36.6635661, 48.0874228, 0.0 ], [ 36.6626005, 48.0880965, 0.0 ], [ 36.661828, 48.0891285, 0.0 ], [ 36.6620211, 48.0901031, 0.0 ], [ 36.660975, 48.091471, 0.0 ], [ 36.658486, 48.092417, 0.0 ], [ 36.6558413, 48.0943168, 0.0 ], [ 36.65539, 48.094694, 0.0 ], [ 36.6560988, 48.0959076, 0.0 ], [ 36.6573219, 48.0971114, 0.0 ], [ 36.658223, 48.097804, 0.0 ], [ 36.657815, 48.098392, 0.0 ], [ 36.6562061, 48.099218, 0.0 ], [ 36.6545968, 48.0997339, 0.0 ], [ 36.6534381, 48.1002928, 0.0 ], [ 36.651378, 48.099968, 0.0 ], [ 36.6505198, 48.0991607, 0.0 ], [ 36.6503482, 48.0979713, 0.0 ], [ 36.6503052, 48.0964665, 0.0 ], [ 36.6501336, 48.0955207, 0.0 ], [ 36.648653, 48.095511, 0.0 ], [ 36.646357, 48.0964379, 0.0 ], [ 36.6443615, 48.0967818, 0.0 ], [ 36.6429453, 48.0960796, 0.0 ], [ 36.6426663, 48.0953487, 0.0 ], [ 36.6411428, 48.0951767, 0.0 ], [ 36.6385464, 48.0955493, 0.0 ], [ 36.6362075, 48.0945318, 0.0 ], [ 36.6367869, 48.0935286, 0.0 ], [ 36.6379027, 48.0925253, 0.0 ], [ 36.639582, 48.091722, 0.0 ], [ 36.641441, 48.0914613, 0.0 ], [ 36.6426427, 48.0926079, 0.0 ], [ 36.6441233, 48.0930092, 0.0 ], [ 36.6449816, 48.0938548, 0.0 ], [ 36.6469342, 48.0936398, 0.0 ], [ 36.6498954, 48.0927512, 0.0 ], [ 36.6507966, 48.0917049, 0.0 ], [ 36.65044, 48.090762, 0.0 ], [ 36.6513974, 48.0893544, 0.0 ], [ 36.6515261, 48.088523, 0.0 ], [ 36.649431, 48.087995, 0.0 ], [ 36.6488869, 48.0885947, 0.0 ], [ 36.647993, 48.089629, 0.0 ], [ 36.646269, 48.0894834, 0.0 ], [ 36.645118, 48.08887, 0.0 ], [ 36.6447455, 48.0879497, 0.0 ], [ 36.6438228, 48.0872044, 0.0 ], [ 36.6420633, 48.0879784, 0.0 ], [ 36.6411406, 48.0891967, 0.0 ], [ 36.6386515, 48.0895694, 0.0 ], [ 36.637407, 48.0892254, 0.0 ], [ 36.6365916, 48.0876917, 0.0 ], [ 36.6334159, 48.0885374, 0.0 ], [ 36.6309268, 48.0891394, 0.0 ], [ 36.6287166, 48.0888957, 0.0 ], [ 36.6281802, 48.0865593, 0.0 ], [ 36.6310984, 48.086545, 0.0 ], [ 36.6327078, 48.0862297, 0.0 ], [ 36.6315061, 48.0839935, 0.0 ], [ 36.6293604, 48.0837642, 0.0 ], [ 36.6277081, 48.085556, 0.0 ], [ 36.6256697, 48.0851833, 0.0 ], [ 36.6240603, 48.082603, 0.0 ], [ 36.6221899, 48.0823685, 0.0 ], [ 36.6204733, 48.0840314, 0.0 ], [ 36.6172117, 48.0858662, 0.0 ], [ 36.6151947, 48.0868982, 0.0 ], [ 36.6108173, 48.0872996, 0.0 ], [ 36.6101736, 48.0897076, 0.0 ], [ 36.6048092, 48.0907109, 0.0 ], [ 36.602714, 48.090986, 0.0 ], [ 36.6004747, 48.0902522, 0.0 ], [ 36.6000027, 48.0887616, 0.0 ], [ 36.6015476, 48.0878729, 0.0 ], [ 36.6038221, 48.0870129, 0.0 ], [ 36.6046375, 48.0861815, 0.0 ], [ 36.6045517, 48.0856655, 0.0 ], [ 36.6021913, 48.0847481, 0.0 ], [ 36.5985006, 48.0841174, 0.0 ], [ 36.5932649, 48.0823972, 0.0 ], [ 36.5871281, 48.0829993, 0.0 ], [ 36.5859264, 48.0825692, 0.0 ], [ 36.5873855, 48.0803903, 0.0 ], [ 36.5869993, 48.0785266, 0.0 ], [ 36.5842527, 48.078756, 0.0 ], [ 36.5821928, 48.0803903, 0.0 ], [ 36.5795749, 48.0794441, 0.0 ], [ 36.5809912, 48.0773224, 0.0 ], [ 36.5837807, 48.0760894, 0.0 ], [ 36.5848535, 48.0768923, 0.0 ], [ 36.5863127, 48.0764908, 0.0 ], [ 36.5869564, 48.0751718, 0.0 ], [ 36.5847677, 48.0734514, 0.0 ], [ 36.5851969, 48.0708705, 0.0 ], [ 36.5863127, 48.0685764, 0.0 ], [ 36.5860552, 48.0669417, 0.0 ], [ 36.5871281, 48.0648194, 0.0 ], [ 36.5854648, 48.0639419, 0.0 ], [ 36.58083, 48.0629094, 0.0 ], [ 36.5775684, 48.0625365, 0.0 ], [ 36.5801863, 48.0598691, 0.0 ], [ 36.5820745, 48.0597544, 0.0 ], [ 36.5860227, 48.0551936, 0.0 ], [ 36.5877217, 48.0550543, 0.0 ], [ 36.5939015, 48.0566607, 0.0 ], [ 36.6087073, 48.0579519, 0.0 ], [ 36.6200583, 48.0546676, 0.0 ], [ 36.6310662, 48.0383566, 0.0 ], [ 36.6304654, 48.0354298, 0.0 ], [ 36.6371546, 48.0351479, 0.0 ], [ 36.6317043, 48.028863, 0.0 ], [ 36.6405309, 47.9979867, 0.0 ] ] ] } },
{ "type": "Feature", "properties": { "Name": "Ukrainian-controlled Luhansk region", "description": "", "tessellate": -1, "extrude": 0, "visibility": -1, "________________": "" }, "geometry": { "type": "Polygon", "coordinates": [ [ [ 37.8736006, 49.3311191, 0.0 ], [ 37.8831554, 49.3216208, 0.0 ], [ 37.8824688, 49.3126687, 0.0 ], [ 37.9447819, 49.303715, 0.0 ], [ 37.9420955, 49.3187283, 0.0 ], [ 37.940422, 49.3264291, 0.0 ], [ 37.9296397, 49.3259893, 0.0 ], [ 37.9188354, 49.3287582, 0.0 ], [ 37.9071616, 49.3303376, 0.0 ], [ 37.8884493, 49.3233436, 0.0 ], [ 37.8839862, 49.3296088, 0.0 ], [ 37.8736006, 49.3311191, 0.0 ] ] ] } },
{ "type": "Feature", "properties": { "Name": "Ukrainian-controlled Kharkiv region", "description": "", "tessellate": -1, "extrude": 0, "visibility": -1, "________________": "" }, "geometry": { "type": "Polygon", "coordinates": [ [ [ 37.7939497, 49.2121704, 0.0 ], [ 37.8354918, 49.2141889, 0.0 ], [ 37.8475081, 49.2296611, 0.0 ], [ 37.8461348, 49.2466413, 0.0 ], [ 37.8349335, 49.2531972, 0.0 ], [ 37.8330027, 49.2601989, 0.0 ], [ 37.8338146, 49.2684866, 0.0 ], [ 37.8550567, 49.2718447, 0.0 ], [ 37.885699, 49.2699311, 0.0 ], [ 37.8946498, 49.2667334, 0.0 ], [ 37.8989259, 49.2577567, 0.0 ], [ 37.9087864, 49.2598413, 0.0 ], [ 37.9050113, 49.2685723, 0.0 ], [ 37.9051863, 49.2767206, 0.0 ], [ 37.9285323, 49.2854552, 0.0 ], [ 37.9470716, 49.2954758, 0.0 ], [ 37.9447819, 49.303715, 0.0 ], [ 37.8824688, 49.3126687, 0.0 ], [ 37.8527713, 49.3078563, 0.0 ], [ 37.8340154, 49.3127741, 0.0 ], [ 37.8148565, 49.3158048, 0.0 ], [ 37.8003012, 49.3275392, 0.0 ], [ 37.8066598, 49.3431997, 0.0 ], [ 37.8035628, 49.3669043, 0.0 ], [ 37.7802168, 49.3863516, 0.0 ], [ 37.7643351, 49.3925479, 0.0 ], [ 37.7509456, 49.3945589, 0.0 ], [ 37.7219348, 49.3970169, 0.0 ], [ 37.7023653, 49.4042781, 0.0 ], [ 37.6905662, 49.4047639, 0.0 ], [ 37.6732718, 49.4053444, 0.0 ], [ 37.6549036, 49.4226499, 0.0 ], [ 37.6498721, 49.4349702, 0.0 ], [ 37.6359025, 49.438124, 0.0 ], [ 37.6239899, 49.4447379, 0.0 ], [ 37.6339614, 49.4591546, 0.0 ], [ 37.6556699, 49.4554952, 0.0 ], [ 37.6832058, 49.4411176, 0.0 ], [ 37.7050068, 49.4462518, 0.0 ], [ 37.7269795, 49.4468098, 0.0 ], [ 37.7668049, 49.4541753, 0.0 ], [ 37.7583935, 49.4624322, 0.0 ], [ 37.7431709, 49.4669838, 0.0 ], [ 37.731987, 49.4806404, 0.0 ], [ 37.7012914, 49.482188, 0.0 ], [ 37.6863131, 49.4889343, 0.0 ], [ 37.6815115, 49.4937873, 0.0 ], [ 37.6912104, 49.5030409, 0.0 ], [ 37.6893222, 49.5086702, 0.0 ], [ 37.6926695, 49.5136302, 0.0 ], [ 37.6858889, 49.5186453, 0.0 ], [ 37.6905061, 49.5273017, 0.0 ], [ 37.6908494, 49.5298644, 0.0 ], [ 37.6902486, 49.5331511, 0.0 ], [ 37.6893045, 49.5354349, 0.0 ], [ 37.6881028, 49.5379971, 0.0 ], [ 37.6865579, 49.5414504, 0.0 ], [ 37.682953, 49.5475765, 0.0 ], [ 37.6829087, 49.5519368, 0.0 ], [ 37.6783181, 49.5565972, 0.0 ], [ 37.6765334, 49.5668206, 0.0 ], [ 37.6919829, 49.5743906, 0.0 ], [ 37.7036559, 49.5815143, 0.0 ], [ 37.7045119, 49.6103356, 0.0 ], [ 37.6936971, 49.6156768, 0.0 ], [ 37.6822386, 49.6182543, 0.0 ], [ 37.6785039, 49.6226663, 0.0 ], [ 37.6766157, 49.6296161, 0.0 ], [ 37.6781606, 49.6366761, 0.0 ], [ 37.6825379, 49.6399556, 0.0 ], [ 37.681508, 49.6440686, 0.0 ], [ 37.6694917, 49.6459582, 0.0 ], [ 37.6694059, 49.6502929, 0.0 ], [ 37.6519822, 49.6513489, 0.0 ], [ 37.6460598, 49.6524185, 0.0 ], [ 37.6430342, 49.6548426, 0.0 ], [ 37.6425677, 49.6564479, 0.0 ], [ 37.635676, 49.6574596, 0.0 ], [ 37.6310802, 49.6582053, 0.0 ], [ 37.6300668, 49.66898, 0.0 ], [ 37.6319873, 49.6785264, 0.0 ], [ 37.6290417, 49.6856826, 0.0 ], [ 37.6303226, 49.6906724, 0.0 ], [ 37.6254261, 49.6951662, 0.0 ], [ 37.6219882, 49.7021022, 0.0 ], [ 37.6142714, 49.7008214, 0.0 ], [ 37.6132356, 49.6982949, 0.0 ], [ 37.6069745, 49.697908, 0.0 ], [ 37.6044902, 49.6975766, 0.0 ], [ 37.6031529, 49.6973879, 0.0 ], [ 37.6018585, 49.6980874, 0.0 ], [ 37.5985618, 49.6958918, 0.0 ], [ 37.5960014, 49.6976669, 0.0 ], [ 37.5982475, 49.6995531, 0.0 ], [ 37.601624, 49.7031034, 0.0 ], [ 37.6012683, 49.7062707, 0.0 ], [ 37.6034876, 49.7076618, 0.0 ], [ 37.6064789, 49.7085486, 0.0 ], [ 37.6032913, 49.7120397, 0.0 ], [ 37.6023351, 49.7133798, 0.0 ], [ 37.5985037, 49.7142895, 0.0 ], [ 37.5962171, 49.7145887, 0.0 ], [ 37.5928483, 49.7156486, 0.0 ], [ 37.589029, 49.7167611, 0.0 ], [ 37.5840079, 49.7186783, 0.0 ], [ 37.5887707, 49.7315924, 0.0 ], [ 37.5775705, 49.7379722, 0.0 ], [ 37.5655565, 49.7451281, 0.0 ], [ 37.5706183, 49.7531688, 0.0 ], [ 37.5665415, 49.7602377, 0.0 ], [ 37.5624534, 49.7716223, 0.0 ], [ 37.5712408, 49.7766873, 0.0 ], [ 37.5743948, 49.7838804, 0.0 ], [ 37.5754248, 49.7910844, 0.0 ], [ 37.5789428, 49.8021088, 0.0 ], [ 37.5965392, 49.805932, 0.0 ], [ 37.5908744, 49.8167879, 0.0 ], [ 37.5752531, 49.8250943, 0.0 ], [ 37.5838362, 49.8425885, 0.0 ], [ 37.5989474, 49.8530749, 0.0 ], [ 37.6059838, 49.863006, 0.0 ], [ 37.6162738, 49.8680037, 0.0 ], [ 37.6181685, 49.8813189, 0.0 ], [ 37.6332747, 49.8919366, 0.0 ], [ 37.6497542, 49.8895036, 0.0 ], [ 37.6696669, 49.899235, 0.0 ], [ 37.6713835, 49.9096277, 0.0 ], [ 37.6912962, 49.9220076, 0.0 ], [ 37.6986778, 49.9434991, 0.0 ], [ 37.6959318, 49.9533298, 0.0 ], [ 37.6858457, 49.9597211, 0.0 ], [ 37.6847503, 49.9677756, 0.0 ], [ 37.6967025, 49.9714131, 0.0 ], [ 37.729233, 49.9692872, 0.0 ], [ 37.7511203, 49.966803, 0.0 ], [ 37.7605616, 49.979113, 0.0 ], [ 37.773007, 49.9975445, 0.0 ], [ 37.7554976, 50.0050476, 0.0 ], [ 37.7266585, 50.0156381, 0.0 ], [ 37.7040002, 50.0177885, 0.0 ], [ 37.6890643, 50.0308848, 0.0 ], [ 37.7036559, 50.0363712, 0.0 ], [ 37.6971327, 50.0443092, 0.0 ], [ 37.692674, 50.0535138, 0.0 ], [ 37.6746077, 50.0587789, 0.0 ], [ 37.6540458, 50.0689965, 0.0 ], [ 37.6339614, 50.07759, 0.0 ], [ 37.6329314, 50.1042422, 0.0 ], [ 37.6438903, 50.1108664, 0.0 ], [ 37.6490402, 50.1214336, 0.0 ], [ 37.6583099, 50.1286972, 0.0 ], [ 37.6521301, 50.1319985, 0.0 ], [ 37.6466369, 50.1338691, 0.0 ], [ 37.633934, 50.128147, 0.0 ], [ 37.6265525, 50.1304579, 0.0 ], [ 37.6164519, 50.1328603, 0.0 ], [ 37.5704466, 50.1495829, 0.0 ], [ 37.5615202, 50.1568423, 0.0 ], [ 37.5563704, 50.1684989, 0.0 ], [ 37.5556837, 50.1871875, 0.0 ], [ 37.5640951, 50.1912541, 0.0 ], [ 37.568464, 50.1972027, 0.0 ], [ 37.556659, 50.2043519, 0.0 ], [ 37.5422027, 50.2065569, 0.0 ], [ 37.5280925, 50.1982105, 0.0 ], [ 37.5166576, 50.1868912, 0.0 ], [ 37.4975646, 50.188659, 0.0 ], [ 37.5061107, 50.2061373, 0.0 ], [ 37.4839368, 50.2073347, 0.0 ], [ 37.4844207, 50.2129257, 0.0 ], [ 37.4695961, 50.2175126, 0.0 ], [ 37.4533989, 50.2174876, 0.0 ], [ 37.4505904, 50.2220752, 0.0 ], [ 37.4545207, 50.2251376, 0.0 ], [ 37.4584515, 50.2273213, 0.0 ], [ 37.4575773, 50.2342802, 0.0 ], [ 37.475933, 50.2482656, 0.0 ], [ 37.4952682, 50.2517271, 0.0 ], [ 37.5084229, 50.2575493, 0.0 ], [ 37.5265583, 50.260735, 0.0 ], [ 37.5424633, 50.2595865, 0.0 ], [ 37.5516719, 50.2525104, 0.0 ], [ 37.5694022, 50.2471358, 0.0 ], [ 37.5826378, 50.2482422, 0.0 ], [ 37.5958736, 50.2482495, 0.0 ], [ 37.6067231, 50.2545773, 0.0 ], [ 37.6094193, 50.259011, 0.0 ], [ 37.6153773, 50.2567497, 0.0 ], [ 37.6209924, 50.2656565, 0.0 ], [ 37.62163, 50.278569, 0.0 ], [ 37.6175862, 50.2974854, 0.0 ], [ 37.6205045, 50.3079018, 0.0 ], [ 37.5853139, 50.3050512, 0.0 ], [ 37.5580198, 50.3034066, 0.0 ], [ 37.5473767, 50.322152, 0.0 ], [ 37.5103568, 50.3323433, 0.0 ], [ 37.4763089, 50.3600587, 0.0 ], [ 37.4654926, 50.3791226, 0.0 ], [ 37.4292737, 50.3793291, 0.0 ], [ 37.4149384, 50.3766466, 0.0 ], [ 37.3940809, 50.3940618, 0.0 ], [ 37.3897905, 50.4098173, 0.0 ], [ 37.3958434, 50.4124021, 0.0 ], [ 37.3951367, 50.419519, 0.0 ], [ 37.3825835, 50.4255418, 0.0 ], [ 37.35048, 50.4234353, 0.0 ], [ 37.3205299, 50.4331155, 0.0 ], [ 37.3101396, 50.4263883, 0.0 ], [ 37.3057622, 50.4150681, 0.0 ], [ 37.2901422, 50.4017649, 0.0 ], [ 37.2574329, 50.3902236, 0.0 ], [ 37.2544738, 50.3920559, 0.0 ], [ 37.262822, 50.3791517, 0.0 ], [ 37.2395879, 50.3710635, 0.0 ], [ 37.2270116, 50.3711284, 0.0 ], [ 37.2186433, 50.3646777, 0.0 ], [ 37.2186437, 50.3589235, 0.0 ], [ 37.2364111, 50.3530349, 0.0 ], [ 37.2232787, 50.3442985, 0.0 ], [ 37.2293318, 50.33216, 0.0 ], [ 37.2178761, 50.3240148, 0.0 ], [ 37.2089559, 50.3192339, 0.0 ], [ 37.2015406, 50.3173466, 0.0 ], [ 37.1935932, 50.3172036, 0.0 ], [ 37.1974949, 50.3117336, 0.0 ], [ 37.1827716, 50.3059889, 0.0 ], [ 37.194388, 50.2928742, 0.0 ], [ 37.1954324, 50.2821035, 0.0 ], [ 37.2163888, 50.2851582, 0.0 ], [ 37.2222372, 50.2757062, 0.0 ], [ 37.2268948, 50.2722685, 0.0 ], [ 37.2406043, 50.272166, 0.0 ], [ 37.2570347, 50.2532105, 0.0 ], [ 37.2604619, 50.2480137, 0.0 ], [ 37.2692152, 50.2496784, 0.0 ], [ 37.2862945, 50.2479859, 0.0 ], [ 37.2805858, 50.2394552, 0.0 ], [ 37.2690416, 50.242122, 0.0 ], [ 37.2656045, 50.2397432, 0.0 ], [ 37.2449927, 50.2466945, 0.0 ], [ 37.2391335, 50.2382018, 0.0 ], [ 37.2136326, 50.2472624, 0.0 ], [ 37.2068132, 50.2431046, 0.0 ], [ 37.18541, 50.2292853, 0.0 ], [ 37.1650328, 50.2128835, 0.0 ], [ 37.1512425, 50.2216496, 0.0 ], [ 37.1381343, 50.2290962, 0.0 ], [ 37.1274598, 50.2288908, 0.0 ], [ 37.0986169, 50.2175315, 0.0 ], [ 37.083579, 50.215796, 0.0 ], [ 37.0561765, 50.2287749, 0.0 ], [ 37.0381971, 50.2353909, 0.0 ], [ 37.0343135, 50.2332537, 0.0 ], [ 37.0309022, 50.2336419, 0.0 ], [ 37.0245947, 50.2329907, 0.0 ], [ 37.0236915, 50.2318485, 0.0 ], [ 37.0159229, 50.2083712, 0.0 ], [ 36.9979529, 50.2099825, 0.0 ], [ 36.9813571, 50.2101654, 0.0 ], [ 36.9762732, 50.207478, 0.0 ], [ 36.9696469, 50.2045691, 0.0 ], [ 36.9623094, 50.2034425, 0.0 ], [ 36.9304355, 50.2077669, 0.0 ], [ 36.9293834, 50.2033186, 0.0 ], [ 36.9230095, 50.2001887, 0.0 ], [ 36.9142135, 50.2156765, 0.0 ], [ 36.9117228, 50.2133177, 0.0 ], [ 36.8992773, 50.2139219, 0.0 ], [ 36.8836931, 50.2116369, 0.0 ], [ 36.8768667, 50.2006719, 0.0 ], [ 36.8561763, 50.205876, 0.0 ], [ 36.853884, 50.2109883, 0.0 ], [ 36.8492491, 50.2168103, 0.0 ], [ 36.8432038, 50.222823, 0.0 ], [ 36.8341429, 50.2308682, 0.0 ], [ 36.8295081, 50.2377858, 0.0 ], [ 36.810282, 50.2386642, 0.0 ], [ 36.7943175, 50.2359193, 0.0 ], [ 36.7804174, 50.2293988, 0.0 ], [ 36.7735553, 50.2291088, 0.0 ], [ 36.7642611, 50.2308643, 0.0 ], [ 36.7494983, 50.2326213, 0.0 ], [ 36.7383403, 50.2341036, 0.0 ], [ 36.7205733, 50.2370683, 0.0 ], [ 36.7133635, 50.2406913, 0.0 ], [ 36.7032355, 50.2413501, 0.0 ], [ 36.6863269, 50.2401424, 0.0 ], [ 36.6774863, 50.2355859, 0.0 ], [ 36.6639667, 50.2222011, 0.0 ], [ 36.6477447, 50.2178077, 0.0 ], [ 36.6397625, 50.2224757, 0.0 ], [ 36.6206726, 50.2138092, 0.0 ], [ 36.5997299, 50.2031525, 0.0 ], [ 36.5959533, 50.1939221, 0.0 ], [ 36.5276321, 50.1908449, 0.0 ], [ 36.4922699, 50.187108, 0.0 ], [ 36.4860901, 50.207767, 0.0 ], [ 36.4447197, 50.2258363, 0.0 ], [ 36.4342483, 50.2361035, 0.0 ], [ 36.4146789, 50.241154, 0.0 ], [ 36.3793167, 50.2446671, 0.0 ], [ 36.3652404, 50.2628869, 0.0 ], [ 36.3506493, 50.2699096, 0.0 ], [ 36.3231974, 50.2722198, 0.0 ], [ 36.3058595, 50.2756758, 0.0 ], [ 36.2856035, 50.2800639, 0.0 ], [ 36.2722139, 50.2873034, 0.0 ], [ 36.2609275, 50.2883317, 0.0 ], [ 36.2562493, 50.2939935, 0.0 ], [ 36.2554601, 50.3046136, 0.0 ], [ 36.2490891, 50.3152881, 0.0 ], [ 36.2295197, 50.3160554, 0.0 ], [ 36.206517, 50.3294265, 0.0 ], [ 36.1852325, 50.3137672, 0.0 ], [ 36.1603419, 50.3283504, 0.0 ], [ 36.1658349, 50.3386572, 0.0 ], [ 36.1797393, 50.3450383, 0.0 ], [ 36.1992215, 50.3548432, 0.0 ], [ 36.1839462, 50.3670539, 0.0 ], [ 36.186261, 50.3787137, 0.0 ], [ 36.1735581, 50.3844058, 0.0 ], [ 36.1653183, 50.402791, 0.0 ], [ 36.1761653, 50.4014973, 0.0 ], [ 36.1630372, 50.4235511, 0.0 ], [ 36.1565141, 50.4333931, 0.0 ], [ 36.1077623, 50.4397346, 0.0 ], [ 36.0820131, 50.4489174, 0.0 ], [ 36.0658769, 50.4495732, 0.0 ], [ 36.0184984, 50.4452007, 0.0 ], [ 35.9714631, 50.4392973, 0.0 ], [ 35.96597, 50.4349238, 0.0 ], [ 35.9378175, 50.4318622, 0.0 ], [ 35.933011, 50.4253009, 0.0 ], [ 35.8959321, 50.4261758, 0.0 ], [ 35.8815126, 50.4312061, 0.0 ], [ 35.8746461, 50.4233323, 0.0 ], [ 35.8193712, 50.4296752, 0.0 ], [ 35.7898454, 50.4183012, 0.0 ], [ 35.8089231, 50.4107262, 0.0 ], [ 35.7417802, 50.3539428, 0.0 ], [ 35.6545762, 50.3526284, 0.0 ], [ 35.6676225, 50.3429888, 0.0 ], [ 35.6930284, 50.3447416, 0.0 ], [ 35.6573228, 50.324142, 0.0 ], [ 35.63947, 50.3101116, 0.0 ], [ 35.6010179, 50.3272106, 0.0 ], [ 35.5151872, 50.3171273, 0.0 ], [ 35.5412797, 50.297393, 0.0 ], [ 35.5014543, 50.297393, 0.0 ], [ 35.457509, 50.3035334, 0.0 ], [ 35.4506425, 50.3131811, 0.0 ], [ 35.4211168, 50.3320322, 0.0 ], [ 35.3963975, 50.3162504, 0.0 ], [ 35.3792314, 50.3166889, 0.0 ], [ 35.3854112, 50.2969544, 0.0 ], [ 35.327733, 50.3162504, 0.0 ], [ 35.2975206, 50.2899357, 0.0 ], [ 35.3311662, 50.2758952, 0.0 ], [ 35.273488, 50.2649232, 0.0 ], [ 35.2583818, 50.2394585, 0.0 ], [ 35.2048234, 50.2289173, 0.0 ], [ 35.0716142, 50.208707, 0.0 ], [ 35.0400285, 50.1647419, 0.0 ], [ 34.9933366, 50.1840915, 0.0 ], [ 34.9521379, 50.1717791, 0.0 ], [ 34.9411516, 50.1462645, 0.0 ], [ 34.9466447, 50.0899084, 0.0 ], [ 34.8587541, 49.9858279, 0.0 ], [ 34.8752336, 49.9345869, 0.0 ], [ 34.9191789, 49.9248627, 0.0 ], [ 35.0510148, 49.8523108, 0.0 ], [ 35.2267961, 49.8505399, 0.0 ], [ 35.2048234, 49.7406162, 0.0 ], [ 35.2954606, 49.6908914, 0.0 ], [ 35.4163102, 49.6784523, 0.0 ], [ 35.4520158, 49.5414115, 0.0 ], [ 35.4630021, 49.4825618, 0.0 ], [ 35.358632, 49.4825618, 0.0 ], [ 35.3394059, 49.4075597, 0.0 ], [ 35.2487687, 49.3037967, 0.0 ], [ 35.1306657, 49.2948414, 0.0 ], [ 35.0345353, 49.3234927, 0.0 ], [ 34.9919633, 49.224934, 0.0 ], [ 35.0279218, 49.1560477, 0.0 ], [ 35.0773603, 49.1632322, 0.0 ], [ 35.2146894, 49.0967354, 0.0 ], [ 35.4811078, 48.9851082, 0.0 ], [ 35.6761152, 48.9616707, 0.0 ], [ 35.7530195, 48.9310051, 0.0 ], [ 35.9095746, 48.9869106, 0.0 ], [ 36.0606367, 48.9039315, 0.0 ], [ 36.1293012, 48.7918718, 0.0 ], [ 36.1650068, 48.7448044, 0.0 ], [ 36.2721235, 48.6614231, 0.0 ], [ 36.2803632, 48.6087857, 0.0 ], [ 36.3105756, 48.5742693, 0.0 ], [ 36.2638837, 48.5379108, 0.0 ], [ 36.3380414, 48.5251791, 0.0 ], [ 36.3517744, 48.5542753, 0.0 ], [ 36.4808637, 48.6614231, 0.0 ], [ 36.590727, 48.6124176, 0.0 ], [ 36.7115766, 48.6233118, 0.0 ], [ 36.684779, 48.7708979, 0.0 ], [ 36.7218579, 48.7953296, 0.0 ], [ 36.783656, 48.8043753, 0.0 ], [ 36.783656, 48.7790431, 0.0 ], [ 36.8276013, 48.7690877, 0.0 ], [ 36.8482007, 48.7962342, 0.0 ], [ 36.9594372, 48.7880918, 0.0 ], [ 37.0143689, 48.7464543, 0.0 ], [ 37.0500745, 48.7609408, 0.0 ], [ 36.9978894, 48.7944249, 0.0 ], [ 37.052443, 48.8165995, 0.0 ], [ 37.1379651, 48.8441572, 0.0 ], [ 37.2008043, 48.8138943, 0.0 ], [ 37.2162427, 48.8965488, 0.0 ], [ 37.2711743, 48.9146021, 0.0 ], [ 37.335719, 48.9326489, 0.0 ], [ 37.2904004, 48.9606086, 0.0 ], [ 37.3206128, 48.9867502, 0.0 ], [ 37.3700513, 48.9876514, 0.0 ], [ 37.3714246, 49.0344909, 0.0 ], [ 37.4236096, 49.0551944, 0.0 ], [ 37.5032605, 49.0641932, 0.0 ], [ 37.5046338, 49.1010712, 0.0 ], [ 37.5732983, 49.1352264, 0.0 ], [ 37.5501471, 49.1554169, 0.0 ], [ 37.5472058, 49.1720517, 0.0 ], [ 37.4881543, 49.1810293, 0.0 ], [ 37.5286664, 49.2016716, 0.0 ], [ 37.5657452, 49.2294803, 0.0 ], [ 37.6131238, 49.2344125, 0.0 ], [ 37.7120007, 49.2209599, 0.0 ], [ 37.7939497, 49.2121704, 0.0 ] ] ] } },
{ "type": "Feature", "properties": { "Name": "Ukrainian-controlled Chernihiv region", "description": "", "tessellate": -1, "extrude": 0, "visibility": -1, "________________": "" }, "geometry": { "type": "Polygon", "coordinates": [ [ [ 30.5154473, 51.2559185, 0.0 ], [ 30.5181939, 51.1664472, 0.0 ], [ 30.4852349, 51.0232771, 0.0 ], [ 30.6060845, 51.0094541, 0.0 ], [ 30.7077081, 50.8865947, 0.0 ], [ 30.7269341, 50.7929348, 0.0 ], [ 31.0208184, 50.7686219, 0.0 ], [ 31.1636407, 50.772096, 0.0 ], [ 31.2268121, 50.5492369, 0.0 ], [ 31.5042168, 50.5143196, 0.0 ], [ 31.8255669, 50.61028, 0.0 ], [ 32.0260674, 50.5300356, 0.0 ], [ 31.9986016, 50.4181637, 0.0 ], [ 32.2375542, 50.3516145, 0.0 ], [ 32.3446709, 50.4339117, 0.0 ], [ 32.5506646, 50.3428511, 0.0 ], [ 32.8060967, 50.3568718, 0.0 ], [ 33.0382188, 50.5266839, 0.0 ], [ 33.142589, 50.6905276, 0.0 ], [ 33.161815, 50.8503331, 0.0 ], [ 33.1563219, 50.9715587, 0.0 ], [ 32.977794, 51.0752152, 0.0 ], [ 32.958568, 51.1614186, 0.0 ], [ 33.043712, 51.2337052, 0.0 ], [ 33.0382188, 51.3487848, 0.0 ], [ 33.1645616, 51.4481732, 0.0 ], [ 33.1728014, 51.596851, 0.0 ], [ 33.1453355, 51.7297359, 0.0 ], [ 33.076671, 51.7892372, 0.0 ], [ 33.1810411, 51.9164759, 0.0 ], [ 33.2977349, 51.9332778, 0.0 ], [ 33.3938653, 51.973903, 0.0 ], [ 33.3623155, 52.0264585, 0.0 ], [ 33.4831651, 52.0501118, 0.0 ], [ 33.3375963, 52.1732439, 0.0 ], [ 33.397128, 52.3088034, 0.0 ], [ 33.4410733, 52.3474099, 0.0 ], [ 33.3857398, 52.3339188, 0.0 ], [ 33.3529525, 52.3333943, 0.0 ], [ 33.3296066, 52.3238478, 0.0 ], [ 33.3023124, 52.3128299, 0.0 ], [ 33.2750182, 52.3075823, 0.0 ], [ 33.2305579, 52.3512231, 0.0 ], [ 33.1871979, 52.362478, 0.0 ], [ 33.1768983, 52.335634, 0.0 ], [ 33.0821412, 52.2907178, 0.0 ], [ 32.9695313, 52.2423926, 0.0 ], [ 32.8988069, 52.2386084, 0.0 ], [ 32.8692811, 52.26341, 0.0 ], [ 32.830829, 52.2562653, 0.0 ], [ 32.7587312, 52.2529026, 0.0 ], [ 32.6945343, 52.2434505, 0.0 ], [ 32.6770204, 52.2625696, 0.0 ], [ 32.5746766, 52.2903992, 0.0 ], [ 32.4847596, 52.3129717, 0.0 ], [ 32.4463817, 52.3168656, 0.0 ], [ 32.3941967, 52.3240008, 0.0 ], [ 32.3876735, 52.3116185, 0.0 ], [ 32.3643276, 52.3042716, 0.0 ], [ 32.370164, 52.2757118, 0.0 ], [ 32.3962565, 52.2788627, 0.0 ], [ 32.3865846, 52.2681349, 0.0 ], [ 32.4037508, 52.2496421, 0.0 ], [ 32.3652986, 52.2357674, 0.0 ], [ 32.3543123, 52.2269358, 0.0 ], [ 32.3419527, 52.2155782, 0.0 ], [ 32.3563723, 52.194959, 0.0 ], [ 32.3639253, 52.1760147, 0.0 ], [ 32.3913911, 52.1557984, 0.0 ], [ 32.3769716, 52.1355729, 0.0 ], [ 32.3522524, 52.1216625, 0.0 ], [ 32.3220399, 52.0955163, 0.0 ], [ 32.2320117, 52.0634618, 0.0 ], [ 32.1256593, 52.0224784, 0.0 ], [ 32.017884, 52.0330665, 0.0 ], [ 31.9045595, 52.0490898, 0.0 ], [ 31.9217299, 52.0744108, 0.0 ], [ 31.8489412, 52.0946725, 0.0 ], [ 31.7637972, 52.0921414, 0.0 ], [ 31.6134081, 52.1125254, 0.0 ], [ 31.4554786, 52.1188153, 0.0 ], [ 31.4211611, 52.1435799, 0.0 ], [ 31.3511198, 52.1157946, 0.0 ], [ 31.2618593, 52.0448669, 0.0 ], [ 31.1423586, 52.1057089, 0.0 ], [ 30.9926943, 52.0845471, 0.0 ], [ 30.849872, 51.9696311, 0.0 ], [ 30.7015566, 51.8510267, 0.0 ], [ 30.580707, 51.776315, 0.0 ], [ 30.514789, 51.6231096, 0.0 ], [ 30.5916933, 51.4796495, 0.0 ], [ 30.6246523, 51.3288726, 0.0 ], [ 30.5154473, 51.2559185, 0.0 ] ] ] } },
{ "type": "Feature", "properties": { "Name": "Ukrainian-controlled central Ukraine", "description": "", "tessellate": -1, "extrude": 0, "visibility": -1, "________________": "" }, "geometry": { "type": "Polygon", "coordinates": [ [ [ 31.9795833, 46.6531529, 0.0 ], [ 31.9877916, 46.6680742, 0.0 ], [ 32.0340313, 46.6675923, 0.0 ], [ 32.0178951, 46.677251, 0.0 ], [ 32.084843, 46.6826685, 0.0 ], [ 32.0748867, 46.7302251, 0.0 ], [ 32.0587505, 46.7285778, 0.0 ], [ 32.0550828, 46.7443535, 0.0 ], [ 32.1099056, 46.7537525, 0.0 ], [ 32.1140255, 46.7474011, 0.0 ], [ 32.1682705, 46.7530468, 0.0 ], [ 32.1686138, 46.7612791, 0.0 ], [ 32.2173656, 46.7702156, 0.0 ], [ 32.2091259, 46.8007765, 0.0 ], [ 32.2535234, 46.8228743, 0.0 ], [ 32.2214855, 46.8458809, 0.0 ], [ 32.3395885, 46.7946657, 0.0 ], [ 32.3750596, 46.7960866, 0.0 ], [ 32.3636211, 46.8285014, 0.0 ], [ 32.4604381, 46.8393055, 0.0 ], [ 32.474171, 46.8153456, 0.0 ], [ 32.5256694, 46.821454, 0.0 ], [ 32.5194896, 46.8501075, 0.0 ], [ 32.5318492, 46.8496379, 0.0 ], [ 32.5277294, 46.8815617, 0.0 ], [ 32.5428356, 46.8768682, 0.0 ], [ 32.5469555, 46.86748, 0.0 ], [ 32.5723613, 46.8679494, 0.0 ], [ 32.5995927, 46.8510573, 0.0 ], [ 32.6867967, 46.8623264, 0.0 ], [ 32.7014507, 46.8200444, 0.0 ], [ 32.8140606, 46.836957, 0.0 ], [ 32.817946, 46.8421343, 0.0 ], [ 32.9452098, 46.8566815, 0.0 ], [ 32.9486431, 46.8660716, 0.0 ], [ 32.9232372, 46.8656021, 0.0 ], [ 32.9149974, 46.880623, 0.0 ], [ 32.8648723, 46.8749907, 0.0 ], [ 32.8367199, 46.8848469, 0.0 ], [ 32.8387798, 46.8970473, 0.0 ], [ 32.9252971, 46.9078376, 0.0 ], [ 32.924376, 46.9275468, 0.0 ], [ 32.9809154, 46.9336318, 0.0 ], [ 32.978621, 46.945363, 0.0 ], [ 32.9497819, 46.9458318, 0.0 ], [ 32.9381089, 46.9842568, 0.0 ], [ 32.9484086, 47.0011175, 0.0 ], [ 33.0198198, 46.9720762, 0.0 ], [ 33.0665117, 47.0203136, 0.0 ], [ 32.9122509, 47.0834608, 0.0 ], [ 32.9095043, 47.1273933, 0.0 ], [ 32.9648881, 47.1904349, 0.0 ], [ 33.0125011, 47.1927573, 0.0 ], [ 33.0220657, 47.1766104, 0.0 ], [ 33.0307277, 47.1780371, 0.0 ], [ 33.0371719, 47.1889776, 0.0 ], [ 33.0567413, 47.1936437, 0.0 ], [ 33.0701309, 47.2220982, 0.0 ], [ 33.1099563, 47.2281603, 0.0 ], [ 33.1243759, 47.2006422, 0.0 ], [ 33.1463485, 47.2071732, 0.0 ], [ 33.1214433, 47.232414, 0.0 ], [ 33.1614547, 47.2365528, 0.0 ], [ 33.1793075, 47.2435455, 0.0 ], [ 33.1024032, 47.2873457, 0.0 ], [ 33.1024032, 47.3199393, 0.0 ], [ 33.1477218, 47.3366939, 0.0 ], [ 33.1188827, 47.3897152, 0.0 ], [ 33.0335527, 47.3776845, 0.0 ], [ 33.0211931, 47.4353093, 0.0 ], [ 33.0529648, 47.4473268, 0.0 ], [ 33.0486589, 47.4696683, 0.0 ], [ 33.0721908, 47.476109, 0.0 ], [ 33.0761247, 47.4157983, 0.0 ], [ 33.143602, 47.425033, 0.0 ], [ 33.1310563, 47.511426, 0.0 ], [ 33.1449753, 47.539189, 0.0 ], [ 33.0980973, 47.5364647, 0.0 ], [ 33.0871876, 47.5532231, 0.0 ], [ 33.0926808, 47.5986186, 0.0 ], [ 32.9498585, 47.5893574, 0.0 ], [ 33.0253895, 47.6162104, 0.0 ], [ 32.975951, 47.6513762, 0.0 ], [ 32.975951, 47.7281033, 0.0 ], [ 33.0638416, 47.7419576, 0.0 ], [ 33.0569752, 47.7668861, 0.0 ], [ 33.0720814, 47.8047176, 0.0 ], [ 33.0597218, 47.8333037, 0.0 ], [ 33.0762013, 47.8360692, 0.0 ], [ 33.0693348, 47.8830611, 0.0 ], [ 33.0803211, 47.8895076, 0.0 ], [ 33.0720814, 47.9152858, 0.0 ], [ 32.9855641, 47.9290902, 0.0 ], [ 33.0047901, 47.9474904, 0.0 ], [ 32.9938038, 47.9787557, 0.0 ], [ 32.9951771, 48.0173514, 0.0 ], [ 33.1022938, 48.0338836, 0.0 ], [ 33.1407459, 48.0742733, 0.0 ], [ 33.2176502, 48.1036277, 0.0 ], [ 33.1874378, 48.1347984, 0.0 ], [ 33.2094105, 48.1732773, 0.0 ], [ 33.2643421, 48.1457954, 0.0 ], [ 33.2698353, 48.1017936, 0.0 ], [ 33.3027943, 48.1072959, 0.0 ], [ 33.3027943, 48.1531253, 0.0 ], [ 33.4730824, 48.1952523, 0.0 ], [ 33.5170277, 48.2410033, 0.0 ], [ 33.5348805, 48.2775746, 0.0 ], [ 33.4511097, 48.3670638, 0.0 ], [ 33.4881886, 48.4208642, 0.0 ], [ 33.4593495, 48.5319322, 0.0 ], [ 33.5174793, 48.5760946, 0.0 ], [ 33.593932, 48.5773816, 0.0 ], [ 33.6255177, 48.5719299, 0.0 ], [ 33.6090382, 48.5982747, 0.0 ], [ 33.6516102, 48.5855582, 0.0 ], [ 33.7532337, 48.619159, 0.0 ], [ 33.7491139, 48.6518303, 0.0 ], [ 33.8026722, 48.6672511, 0.0 ], [ 33.7948841, 48.6786625, 0.0 ], [ 33.7614735, 48.6817604, 0.0 ], [ 33.7477406, 48.6917331, 0.0 ], [ 33.6255177, 48.7334159, 0.0 ], [ 33.5719593, 48.7632975, 0.0 ], [ 33.5829457, 48.8094433, 0.0 ], [ 33.6406239, 48.7940661, 0.0 ], [ 33.700127, 48.8217267, 0.0 ], [ 33.7477406, 48.7958754, 0.0 ], [ 33.8012989, 48.7976847, 0.0 ], [ 33.8438709, 48.7768742, 0.0 ], [ 33.8891895, 48.8889675, 0.0 ], [ 33.9509876, 48.8817432, 0.0 ], [ 34.0049976, 48.8551702, 0.0 ], [ 34.1121143, 48.8054488, 0.0 ], [ 34.2604297, 48.7620153, 0.0 ], [ 34.3103773, 48.7393707, 0.0 ], [ 34.3151838, 48.7620072, 0.0 ], [ 34.3357831, 48.7801091, 0.0 ], [ 34.3028242, 48.7855384, 0.0 ], [ 34.2918378, 48.7932289, 0.0 ], [ 34.2952711, 48.8203623, 0.0 ], [ 34.3296033, 48.8226228, 0.0 ], [ 34.3261701, 48.8407028, 0.0 ], [ 34.3447095, 48.8452218, 0.0 ], [ 34.3028242, 48.9093474, 0.0 ], [ 34.3412763, 48.9778978, 0.0 ], [ 34.3357831, 49.0139392, 0.0 ], [ 34.4017011, 49.0535546, 0.0 ], [ 34.4181806, 49.0895412, 0.0 ], [ 34.5060712, 49.0751496, 0.0 ], [ 34.8466474, 49.2045231, 0.0 ], [ 34.8741132, 49.1578439, 0.0 ], [ 34.9455244, 49.1847796, 0.0 ], [ 35.0279218, 49.1560477, 0.0 ], [ 34.9919633, 49.224934, 0.0 ], [ 35.0345353, 49.3234927, 0.0 ], [ 35.1306657, 49.2948414, 0.0 ], [ 35.2487687, 49.3037967, 0.0 ], [ 35.3394059, 49.4075597, 0.0 ], [ 35.358632, 49.4825618, 0.0 ], [ 35.4630021, 49.4825618, 0.0 ], [ 35.4163102, 49.6784523, 0.0 ], [ 35.2954606, 49.6908914, 0.0 ], [ 35.2048234, 49.7406162, 0.0 ], [ 35.2267961, 49.8505399, 0.0 ], [ 35.0501962, 49.8524215, 0.0 ], [ 34.9296899, 49.9237574, 0.0 ], [ 34.8752336, 49.9345869, 0.0 ], [ 34.8587541, 49.9858279, 0.0 ], [ 34.9466447, 50.0899084, 0.0 ], [ 34.9411516, 50.1462645, 0.0 ], [ 34.8999528, 50.1585836, 0.0 ], [ 34.8491411, 50.1621028, 0.0 ], [ 34.7282915, 50.1533044, 0.0 ], [ 34.5937089, 50.1233779, 0.0 ], [ 34.5268663, 50.1603464, 0.0 ], [ 34.5378526, 50.2535128, 0.0 ], [ 34.3950304, 50.3412391, 0.0 ], [ 34.2879137, 50.446297, 0.0 ], [ 34.232982, 50.5458866, 0.0 ], [ 33.9281114, 50.537159, 0.0 ], [ 33.6836656, 50.4637841, 0.0 ], [ 33.4227403, 50.4952444, 0.0 ], [ 33.0382188, 50.5266839, 0.0 ], [ 32.8060967, 50.3568718, 0.0 ], [ 32.5506646, 50.3428511, 0.0 ], [ 32.3446709, 50.4339117, 0.0 ], [ 32.2375542, 50.3516145, 0.0 ], [ 31.9986016, 50.4181637, 0.0 ], [ 32.0260674, 50.5300356, 0.0 ], [ 31.8255669, 50.61028, 0.0 ], [ 31.5042168, 50.5143196, 0.0 ], [ 31.2268121, 50.5492369, 0.0 ], [ 31.1636407, 50.772096, 0.0 ], [ 31.0208184, 50.7686219, 0.0 ], [ 30.7269341, 50.7929348, 0.0 ], [ 30.7077081, 50.8865947, 0.0 ], [ 30.6060845, 51.0094541, 0.0 ], [ 30.4852349, 51.0232771, 0.0 ], [ 30.5181939, 51.1664472, 0.0 ], [ 30.5154473, 51.2559185, 0.0 ], [ 30.4675037, 51.2801548, 0.0 ], [ 30.4290516, 51.3007664, 0.0 ], [ 30.3576405, 51.3608309, 0.0 ], [ 30.3439075, 51.4293796, 0.0 ], [ 30.176366, 51.4892756, 0.0 ], [ 29.9099476, 51.4790133, 0.0 ], [ 29.7451527, 51.4482126, 0.0 ], [ 29.7094471, 51.5234666, 0.0 ], [ 29.4183094, 51.379692, 0.0 ], [ 29.3304188, 51.3934043, 0.0 ], [ 29.1216785, 51.612243, 0.0 ], [ 28.7591297, 51.5166304, 0.0 ], [ 28.3306629, 51.5508009, 0.0 ], [ 27.7703602, 51.5781187, 0.0 ], [ 31.1541492, 46.6430531, 0.0 ], [ 31.2366712, 46.6131776, 0.0 ], [ 31.3534009, 46.6009128, 0.0 ], [ 31.4014661, 46.6263828, 0.0 ], [ 31.5127027, 46.6254397, 0.0 ], [ 31.5621411, 46.6018563, 0.0 ], [ 31.6225659, 46.6508981, 0.0 ], [ 31.7200696, 46.629212, 0.0 ], [ 31.7846143, 46.6131776, 0.0 ], [ 31.849159, 46.6263828, 0.0 ], [ 31.901344, 46.6490127, 0.0 ], [ 31.9095838, 46.6810556, 0.0 ], [ 31.9795833, 46.6531529, 0.0 ] ] ] } },
{ "type": "Feature", "properties": { "Name": "Ukrainian-controlled western Ukraine", "description": "", "tessellate": -1, "extrude": 0, "visibility": -1, "________________": "" }, "geometry": { "type": "Polygon", "coordinates": [ [ [ 27.7703602, 51.5781187, 0.0 ], [ 27.4293715, 51.59815, 0.0 ], [ 26.9899184, 51.7616407, 0.0 ], [ 26.1219984, 51.9177657, 0.0 ], [ 25.3529555, 51.9042111, 0.0 ], [ 24.5948988, 51.8974323, 0.0 ], [ 24.298268, 51.7752383, 0.0 ], [ 23.9357192, 51.5776722, 0.0 ], [ 23.6390883, 51.6663429, 0.0 ], [ 23.6500746, 51.392956, 0.0 ], [ 23.7709242, 51.1110287, 0.0 ], [ 24.0455824, 50.8828549, 0.0 ], [ 24.0970975, 50.8671729, 0.0 ], [ 24.1046474, 50.8514835, 0.0 ], [ 23.9824734, 50.8305071, 0.0 ], [ 23.9702374, 50.7905236, 0.0 ], [ 24.1069382, 50.6348987, 0.0 ], [ 24.0785414, 50.5280133, 0.0 ], [ 24.0097148, 50.4178764, 0.0 ], [ 23.8698012, 50.3811209, 0.0 ], [ 23.7288074, 50.3847723, 0.0 ], [ 23.2765395, 50.0859666, 0.0 ], [ 22.6942641, 49.5757313, 0.0 ], [ 22.7272231, 49.3150122, 0.0 ], [ 22.7382094, 49.1787465, 0.0 ], [ 22.892018, 49.0421046, 0.0 ], [ 22.5184828, 49.0060836, 0.0 ], [ 22.3866469, 48.8472815, 0.0 ], [ 22.4196059, 48.6988522, 0.0 ], [ 22.1998793, 48.6190262, 0.0 ], [ 22.1449477, 48.429844, 0.0 ], [ 22.2987563, 48.4225536, 0.0 ], [ 22.3866469, 48.2765269, 0.0 ], [ 22.5734145, 48.2619012, 0.0 ], [ 22.6173598, 48.144745, 0.0 ], [ 22.7821547, 48.1300816, 0.0 ], [ 22.9030043, 47.9758633, 0.0 ], [ 23.2106215, 48.0567019, 0.0 ], [ 23.562184, 48.0126238, 0.0 ], [ 23.9357192, 47.9611517, 0.0 ], [ 24.5839125, 47.9243545, 0.0 ], [ 24.9135024, 47.7251969, 0.0 ], [ 25.1112563, 47.7695202, 0.0 ], [ 25.3419692, 47.9169919, 0.0 ], [ 26.1769301, 47.9758633, 0.0 ], [ 26.2977797, 48.144745, 0.0 ], [ 26.5999037, 48.2692146, 0.0 ], [ 26.7207533, 48.3897341, 0.0 ], [ 26.8361098, 48.4407776, 0.0 ], [ 27.2535902, 48.4006763, 0.0 ], [ 27.4678236, 48.429844, 0.0 ], [ 27.7314955, 48.4444216, 0.0 ], [ 27.9457289, 48.3386394, 0.0 ], [ 28.3577162, 48.2436132, 0.0 ], [ 28.4675795, 48.1190813, 0.0 ], [ 28.5444838, 48.1667322, 0.0 ], [ 28.8246352, 48.1264151, 0.0 ], [ 29.0059096, 48.0015984, 0.0 ], [ 29.187184, 47.96483, 0.0 ], [ 29.3025404, 47.8064274, 0.0 ], [ 29.187184, 47.621629, 0.0 ], [ 29.220143, 47.4881683, 0.0 ], [ 29.3629652, 47.4064416, 0.0 ], [ 29.4673354, 47.3283113, 0.0 ], [ 29.5607192, 47.3618099, 0.0 ], [ 29.5991713, 47.3134162, 0.0 ], [ 29.5662123, 47.1717034, 0.0 ], [ 29.6046645, 47.0857456, 0.0 ], [ 29.5826918, 46.9846615, 0.0 ], [ 29.7419936, 46.8796312, 0.0 ], [ 29.9507338, 46.8082433, 0.0 ], [ 29.8958022, 46.5557498, 0.0 ], [ 30.1375014, 46.4271674, 0.0 ], [ 30.0935561, 46.3987627, 0.0 ], [ 29.9067885, 46.3873967, 0.0 ], [ 29.6815688, 46.4442031, 0.0 ], [ 29.621144, 46.3722383, 0.0 ], [ 29.4178969, 46.4820412, 0.0 ], [ 29.253102, 46.3873967, 0.0 ], [ 29.2091567, 46.5085122, 0.0 ], [ 28.9290053, 46.4328466, 0.0 ], [ 29.0498549, 46.1824035, 0.0 ], [ 28.9784438, 46.1100938, 0.0 ], [ 28.9894301, 46.0148048, 0.0 ], [ 28.7587172, 45.9842775, 0.0 ], [ 28.753224, 45.8505229, 0.0 ], [ 28.6488539, 45.812248, 0.0 ], [ 28.4895522, 45.7164457, 0.0 ], [ 28.5005385, 45.6166369, 0.0 ], [ 28.5060317, 45.5243476, 0.0 ], [ 28.4456068, 45.4935508, 0.0 ], [ 28.3055312, 45.5455106, 0.0 ], [ 28.2423598, 45.4646635, 0.0 ], [ 28.3165175, 45.3489663, 0.0 ], [ 28.5060317, 45.2562379, 0.0 ], [ 28.7642104, 45.219491, 0.0 ], [ 28.7504775, 45.2659042, 0.0 ], [ 28.7889296, 45.3257984, 0.0 ], [ 28.918019, 45.2775016, 0.0 ], [ 29.003163, 45.3122794, 0.0 ], [ 29.1624648, 45.4010594, 0.0 ], [ 29.3986708, 45.4511777, 0.0 ], [ 29.5717055, 45.410701, 0.0 ], [ 29.6788222, 45.3026211, 0.0 ], [ 29.6650893, 45.1982056, 0.0 ], [ 29.7502333, 45.2098168, 0.0 ], [ 29.7639662, 45.2717032, 0.0 ], [ 29.7804457, 45.4492509, 0.0 ], [ 29.64037, 45.468516, 0.0 ], [ 29.7090346, 45.5705112, 0.0 ], [ 29.8298842, 45.6147157, 0.0 ], [ 29.8985487, 45.714528, 0.0 ], [ 30.1677138, 45.8294749, 0.0 ], [ 30.3599745, 46.0014512, 0.0 ], [ 30.3819472, 46.1043811, 0.0 ], [ 30.2501112, 46.2109206, 0.0 ], [ 30.1182753, 46.3703432, 0.0 ], [ 30.2556044, 46.3665528, 0.0 ], [ 30.4039198, 46.1995156, 0.0 ], [ 30.5302626, 46.134842, 0.0 ], [ 30.6675917, 46.2603153, 0.0 ], [ 30.7719618, 46.4195943, 0.0 ], [ 30.9807021, 46.5746334, 0.0 ], [ 31.1541492, 46.6430531, 0.0 ], [ 27.7703602, 51.5781187, 0.0 ] ] ] } },
{ "type": "Feature", "properties": { "Name": "Ukrainian-controlled Kherson region", "description": "", "tessellate": -1, "extrude": 0, "visibility": -1, "________________": "" }, "geometry": { "type": "Polygon", "coordinates": [ [ [ 31.9795833, 46.6531529, 0.0 ], [ 32.0031079, 46.6373119, 0.0 ], [ 32.0267972, 46.6127904, 0.0 ], [ 32.0954618, 46.6125546, 0.0 ], [ 32.1167478, 46.5604093, 0.0 ], [ 32.1483335, 46.556396, 0.0 ], [ 32.2087583, 46.5762234, 0.0 ], [ 32.248927, 46.5892016, 0.0 ], [ 32.3004254, 46.5648944, 0.0 ], [ 32.2952756, 46.5483686, 0.0 ], [ 32.2866925, 46.545299, 0.0 ], [ 32.2798496, 46.5412365, 0.0 ], [ 32.2848075, 46.5323611, 0.0 ], [ 32.2965372, 46.5349708, 0.0 ], [ 32.315875, 46.5357349, 0.0 ], [ 32.3215398, 46.5344064, 0.0 ], [ 32.3287469, 46.5342698, 0.0 ], [ 32.3342689, 46.5346166, 0.0 ], [ 32.3397906, 46.5350164, 0.0 ], [ 32.3427379, 46.5342935, 0.0 ], [ 32.3524101, 46.5378063, 0.0 ], [ 32.3626758, 46.5453901, 0.0 ], [ 32.384036, 46.5464629, 0.0 ], [ 32.4086544, 46.5571408, 0.0 ], [ 32.4336835, 46.5591653, 0.0 ], [ 32.4581942, 46.564011, 0.0 ], [ 32.4774974, 46.5723072, 0.0 ], [ 32.4865723, 46.5734597, 0.0 ], [ 32.4947147, 46.5746255, 0.0 ], [ 32.4957819, 46.573025, 0.0 ], [ 32.5047453, 46.5727224, 0.0 ], [ 32.5049816, 46.575347, 0.0 ], [ 32.5058262, 46.578271, 0.0 ], [ 32.5075292, 46.5800151, 0.0 ], [ 32.5105695, 46.5810053, 0.0 ], [ 32.5109862, 46.5825506, 0.0 ], [ 32.5117954, 46.5833823, 0.0 ], [ 32.510324, 46.5845046, 0.0 ], [ 32.511219, 46.5852427, 0.0 ], [ 32.5133158, 46.5857448, 0.0 ], [ 32.5174112, 46.5843319, 0.0 ], [ 32.5180732, 46.5823491, 0.0 ], [ 32.5217511, 46.5833848, 0.0 ], [ 32.5271934, 46.5868201, 0.0 ], [ 32.5276996, 46.5913643, 0.0 ], [ 32.5562817, 46.5985609, 0.0 ], [ 32.5619482, 46.6009785, 0.0 ], [ 32.5705334, 46.6019803, 0.0 ], [ 32.5827258, 46.6011522, 0.0 ], [ 32.5986623, 46.6057038, 0.0 ], [ 32.6420187, 46.6380019, 0.0 ], [ 32.7087252, 46.6668071, 0.0 ], [ 32.7547305, 46.6701054, 0.0 ], [ 32.8096621, 46.6809413, 0.0 ], [ 32.846741, 46.69413, 0.0 ], [ 32.8817599, 46.7091988, 0.0 ], [ 32.9210275, 46.7336472, 0.0 ], [ 32.9402069, 46.7318123, 0.0 ], [ 33.0404583, 46.7419353, 0.0 ], [ 33.1264579, 46.778977, 0.0 ], [ 33.1522931, 46.7838576, 0.0 ], [ 33.1738351, 46.7766257, 0.0 ], [ 33.3020616, 46.7501686, 0.0 ], [ 33.3468287, 46.7629377, 0.0 ], [ 33.3750257, 46.7884392, 0.0 ], [ 33.4004315, 46.8142908, 0.0 ], [ 33.4677228, 46.8420087, 0.0 ], [ 33.5542401, 46.851871, 0.0 ], [ 33.5968122, 46.8593838, 0.0 ], [ 33.6002454, 46.9147589, 0.0 ], [ 33.6283978, 46.9536749, 0.0 ], [ 33.6558395, 46.9790462, 0.0 ], [ 33.6681992, 47.0062107, 0.0 ], [ 33.6778122, 47.0422528, 0.0 ], [ 33.74785, 47.0806085, 0.0 ], [ 33.7917953, 47.1067868, 0.0 ], [ 33.7945419, 47.1478981, 0.0 ], [ 33.7986618, 47.1759103, 0.0 ], [ 33.8838058, 47.2057737, 0.0 ], [ 33.9098983, 47.2216318, 0.0 ], [ 33.9167648, 47.2458762, 0.0 ], [ 33.9346176, 47.2738368, 0.0 ], [ 33.9730697, 47.3045763, 0.0 ], [ 33.9758163, 47.348326, 0.0 ], [ 33.9689499, 47.404124, 0.0 ], [ 33.9510971, 47.4505772, 0.0 ], [ 33.9469772, 47.5109052, 0.0 ], [ 33.6434799, 47.50905, 0.0 ], [ 33.5816818, 47.4886383, 0.0 ], [ 33.5954147, 47.5359441, 0.0 ], [ 33.5679489, 47.6026562, 0.0 ], [ 33.4855514, 47.5952479, 0.0 ], [ 33.478685, 47.5470687, 0.0 ], [ 33.3303695, 47.5229624, 0.0 ], [ 33.3537155, 47.4942059, 0.0 ], [ 33.3152633, 47.4914222, 0.0 ], [ 33.2919174, 47.5484591, 0.0 ], [ 33.219133, 47.5345534, 0.0 ], [ 33.2479721, 47.5707006, 0.0 ], [ 33.0980973, 47.5828011, 0.0 ], [ 33.0980973, 47.5364647, 0.0 ], [ 33.1449753, 47.539189, 0.0 ], [ 33.1310563, 47.511426, 0.0 ], [ 33.143602, 47.425033, 0.0 ], [ 33.0761247, 47.4157983, 0.0 ], [ 33.0721908, 47.476109, 0.0 ], [ 33.0486589, 47.4696683, 0.0 ], [ 33.0529648, 47.4473268, 0.0 ], [ 33.0211931, 47.4353093, 0.0 ], [ 33.0296188, 47.4036592, 0.0 ], [ 33.0335527, 47.3776845, 0.0 ], [ 33.1188827, 47.3897152, 0.0 ], [ 33.1477218, 47.3366939, 0.0 ], [ 33.1024032, 47.3199393, 0.0 ], [ 33.1024032, 47.2873457, 0.0 ], [ 33.1793075, 47.2435455, 0.0 ], [ 33.1614547, 47.2365528, 0.0 ], [ 33.1214433, 47.232414, 0.0 ], [ 33.1463485, 47.2071732, 0.0 ], [ 33.1243759, 47.2006422, 0.0 ], [ 33.1099563, 47.2281603, 0.0 ], [ 33.0701309, 47.2220982, 0.0 ], [ 33.0567413, 47.1936437, 0.0 ], [ 33.0371719, 47.1889776, 0.0 ], [ 33.035112, 47.1766104, 0.0 ], [ 33.0220657, 47.1766104, 0.0 ], [ 33.0125011, 47.1927573, 0.0 ], [ 32.9648881, 47.1904349, 0.0 ], [ 32.9095043, 47.1273933, 0.0 ], [ 32.9122509, 47.0834608, 0.0 ], [ 33.0665117, 47.0203136, 0.0 ], [ 33.0198198, 46.9720762, 0.0 ], [ 32.9484086, 47.0011175, 0.0 ], [ 32.9381089, 46.9842568, 0.0 ], [ 32.93903, 46.9739397, 0.0 ], [ 32.9497819, 46.9458318, 0.0 ], [ 32.978621, 46.945363, 0.0 ], [ 32.9809154, 46.9336318, 0.0 ], [ 32.924376, 46.9275468, 0.0 ], [ 32.9252971, 46.9078376, 0.0 ], [ 32.8387798, 46.8970473, 0.0 ], [ 32.8367199, 46.8848469, 0.0 ], [ 32.8648723, 46.8749907, 0.0 ], [ 32.9149974, 46.880623, 0.0 ], [ 32.9232372, 46.8656021, 0.0 ], [ 32.9486431, 46.8660716, 0.0 ], [ 32.9452098, 46.8566815, 0.0 ], [ 32.817946, 46.8421343, 0.0 ], [ 32.8140606, 46.836957, 0.0 ], [ 32.7014507, 46.8200444, 0.0 ], [ 32.6867967, 46.8623264, 0.0 ], [ 32.5995927, 46.8510573, 0.0 ], [ 32.5723613, 46.8679494, 0.0 ], [ 32.5469555, 46.86748, 0.0 ], [ 32.5428356, 46.8768682, 0.0 ], [ 32.5277294, 46.8815617, 0.0 ], [ 32.5318492, 46.8496379, 0.0 ], [ 32.5194896, 46.8501075, 0.0 ], [ 32.5256694, 46.821454, 0.0 ], [ 32.474171, 46.8153456, 0.0 ], [ 32.4604381, 46.8393055, 0.0 ], [ 32.3636211, 46.8285014, 0.0 ], [ 32.3750596, 46.7960866, 0.0 ], [ 32.3395885, 46.7946657, 0.0 ], [ 32.2214855, 46.8458809, 0.0 ], [ 32.2535234, 46.8228743, 0.0 ], [ 32.2091259, 46.8007765, 0.0 ], [ 32.2173656, 46.7702156, 0.0 ], [ 32.1686138, 46.7612791, 0.0 ], [ 32.1682705, 46.7530468, 0.0 ], [ 32.1140255, 46.7474011, 0.0 ], [ 32.1099056, 46.7537525, 0.0 ], [ 32.0550828, 46.7443535, 0.0 ], [ 32.0587505, 46.7285778, 0.0 ], [ 32.0748867, 46.7302251, 0.0 ], [ 32.084843, 46.6826685, 0.0 ], [ 32.0178951, 46.677251, 0.0 ], [ 32.0340313, 46.6675923, 0.0 ], [ 31.9877916, 46.6680742, 0.0 ], [ 31.9795833, 46.6531529, 0.0 ] ] ] } }
]
}
