{
"type": "FeatureCollection",
"name": "opsec",
"crs": { "type": "name", "properties": { "name": "urn:ogc:def:crs:OGC:1.3:CRS84" } },
"features": [
{ "type": "Feature", "properties": { "Name": "Многоугольник 1", "tessellate": -1, "extrude": 0, "visibility": -1 }, "geometry": { "type": "Polygon", "coordinates": [ [ [ 35.3223354, 47.5531075, 0.0 ], [ 35.3422481, 47.5425404, 0.0 ], [ 35.3849575, 47.5401301, 0.0 ], [ 35.4668056, 47.5371634, 0.0 ], [ 35.5459072, 47.5249239, 0.0 ], [ 35.6008388, 47.5267786, 0.0 ], [ 35.633236, 47.547949, 0.0 ], [ 35.6326991, 47.5742352, 0.0 ], [ 35.5854579, 47.5897976, 0.0 ], [ 35.5360195, 47.604985, 0.0 ], [ 35.5052578, 47.62313, 0.0 ], [ 35.4679042, 47.6105403, 0.0 ], [ 35.4256069, 47.590909, 0.0 ], [ 35.3899013, 47.6131325, 0.0 ], [ 35.3401882, 47.6215565, 0.0 ], [ 35.2739955, 47.6297939, 0.0 ], [ 35.2833339, 47.5872042, 0.0 ], [ 35.3223354, 47.5531075, 0.0 ] ] ] } },
{ "type": "Feature", "properties": { "Name": "Многоугольник 3", "tessellate": -1, "extrude": 0, "visibility": -1 }, "geometry": { "type": "Polygon", "coordinates": [ [ [ 35.9459162, 47.6090701, 0.0 ], [ 35.9632197, 47.6023109, 0.0 ], [ 36.005517, 47.5830471, 0.0 ], [ 36.0450678, 47.5963844, 0.0 ], [ 36.0681391, 47.6078665, 0.0 ], [ 36.1131831, 47.6226783, 0.0 ], [ 36.1697627, 47.6456285, 0.0 ], [ 36.1631709, 47.6589497, 0.0 ], [ 36.1561671, 47.7024052, 0.0 ], [ 36.1638575, 47.7271679, 0.0 ], [ 36.1874781, 47.7364047, 0.0 ], [ 36.2308741, 47.7400989, 0.0 ], [ 36.267129, 47.7415765, 0.0 ], [ 36.3140955, 47.767059, 0.0 ], [ 36.3679286, 47.7958503, 0.0 ], [ 36.3882533, 47.8290512, 0.0 ], [ 36.4821864, 47.8253632, 0.0 ], [ 36.5272303, 47.8331076, 0.0 ], [ 36.5711756, 47.857071, 0.0 ], [ 36.5958949, 47.8880226, 0.0 ], [ 36.6189662, 47.8975991, 0.0 ], [ 36.6689539, 47.9112241, 0.0 ], [ 36.6903773, 47.9517099, 0.0 ], [ 36.7244349, 47.9616425, 0.0 ], [ 36.7447596, 47.9741474, 0.0 ], [ 36.7606898, 48.0006186, 0.0 ], [ 36.8194667, 48.0263413, 0.0 ], [ 36.8326502, 48.0803174, 0.0 ], [ 36.8035365, 48.0986637, 0.0 ], [ 36.7447596, 48.110402, 0.0 ], [ 36.6942225, 48.0810514, 0.0 ], [ 36.6623622, 48.0487464, 0.0 ], [ 36.6381922, 48.0211978, 0.0 ], [ 36.6145716, 48.0068667, 0.0 ], [ 36.5522242, 47.9780087, 0.0 ], [ 36.5038843, 47.9397515, 0.0 ], [ 36.4429102, 47.8959417, 0.0 ], [ 36.3995143, 47.8889435, 0.0 ], [ 36.3720484, 47.8985198, 0.0 ], [ 36.2967921, 47.8882067, 0.0 ], [ 36.2588892, 47.875681, 0.0 ], [ 36.2452937, 47.8142056, 0.0 ], [ 36.2029963, 47.8171566, 0.0 ], [ 36.1453181, 47.8101477, 0.0 ], [ 36.0881892, 47.7924368, 0.0 ], [ 36.0469904, 47.7610588, 0.0 ], [ 36.049737, 47.7252279, 0.0 ], [ 36.0008479, 47.6679212, 0.0 ], [ 35.9783259, 47.6571923, 0.0 ], [ 35.9508601, 47.6253625, 0.0 ], [ 35.9459162, 47.6090701, 0.0 ] ] ] } },
{ "type": "Feature", "properties": { "Name": "Многоугольник 4", "tessellate": -1, "extrude": 0, "visibility": -1 }, "geometry": { "type": "Polygon", "coordinates": [ [ [ 37.7939023, 48.9272908, 0.0 ], [ 37.8153257, 48.9209745, 0.0 ], [ 37.8559751, 48.9047289, 0.0 ], [ 37.9054136, 48.8895615, 0.0 ], [ 37.925479, 48.901326, 0.0 ], [ 37.9532041, 48.9144769, 0.0 ], [ 37.9575986, 48.9278322, 0.0 ], [ 37.9411191, 48.9379365, 0.0 ], [ 37.9224424, 48.9281931, 0.0 ], [ 37.9317807, 48.9617458, 0.0 ], [ 37.9416684, 48.9928431, 0.0 ], [ 37.9685849, 49.0169865, 0.0 ], [ 37.9389219, 49.0367969, 0.0 ], [ 37.9174985, 49.078553, 0.0 ], [ 37.9565, 49.124588, 0.0 ], [ 37.9714688, 49.1801866, 0.0 ], [ 37.9973484, 49.2135113, 0.0 ], [ 38.0047025, 49.2513227, 0.0 ], [ 38.0472873, 49.2880018, 0.0 ], [ 37.9865333, 49.3560193, 0.0 ], [ 37.9224966, 49.3841898, 0.0 ], [ 37.8845395, 49.3685227, 0.0 ], [ 37.9333931, 49.3085876, 0.0 ], [ 37.9136064, 49.280851, 0.0 ], [ 37.8383969, 49.2567008, 0.0 ], [ 37.8285093, 49.2287281, 0.0 ], [ 37.7884092, 49.2272932, 0.0 ], [ 37.7538022, 49.2140182, 0.0 ], [ 37.7521543, 49.1971501, 0.0 ], [ 37.7021665, 49.1831489, 0.0 ], [ 37.6565732, 49.1820717, 0.0 ], [ 37.6219663, 49.1705803, 0.0 ], [ 37.6181211, 49.1515418, 0.0 ], [ 37.5906553, 49.1221614, 0.0 ], [ 37.5945005, 49.0840399, 0.0 ], [ 37.6587705, 49.0494894, 0.0 ], [ 37.718646, 49.0325653, 0.0 ], [ 37.7356748, 49.0069882, 0.0 ], [ 37.7625913, 48.9770716, 0.0 ], [ 37.7906064, 48.9604835, 0.0 ], [ 37.7939023, 48.9272908, 0.0 ] ] ] } },
{ "type": "Feature", "properties": { "Name": "Многоугольник 5", "tessellate": -1, "extrude": 0, "visibility": -1 }, "geometry": { "type": "Polygon", "coordinates": [ [ [ 37.5578841, 49.7626183, 0.0 ], [ 37.591255, 49.7581826, 0.0 ], [ 37.6406935, 49.7716657, 0.0 ], [ 37.6478346, 49.7858543, 0.0 ], [ 37.66761, 49.807484, 0.0 ], [ 37.6840895, 49.8376076, 0.0 ], [ 37.7104567, 49.8631094, 0.0 ], [ 37.733528, 49.8995677, 0.0 ], [ 37.7115553, 49.9200856, 0.0 ], [ 37.6714552, 49.9126577, 0.0 ], [ 37.5989454, 49.8783332, 0.0 ], [ 37.5885084, 49.845047, 0.0 ], [ 37.5731276, 49.8128013, 0.0 ], [ 37.559944, 49.7794699, 0.0 ], [ 37.5578841, 49.7626183, 0.0 ] ] ] } },
{ "type": "Feature", "properties": { "Name": "Многоугольник 6", "tessellate": -1, "extrude": 0, "visibility": -1 }, "geometry": { "type": "Polygon", "coordinates": [ [ [ 37.4751968, 50.2055619, 0.0 ], [ 37.5065078, 50.1929033, 0.0 ], [ 37.5471573, 50.1921999, 0.0 ], [ 37.5898666, 50.2015185, 0.0 ], [ 37.6094408, 50.2255919, 0.0 ], [ 37.5939865, 50.2566896, 0.0 ], [ 37.5531997, 50.2666979, 0.0 ], [ 37.5048599, 50.2603771, 0.0 ], [ 37.4587173, 50.2357883, 0.0 ], [ 37.4751968, 50.2055619, 0.0 ] ] ] } }
]
}
