{
  "type": "FeatureCollection",
  "features": [
    {
      "type": "Feature",
      "properties": {
        "Name": "Advance 3",
        "_advanceId": "pending"
      },
      "geometry": {
        "type": "Polygon",
        "coordinates": [
          [
            [
              37.230606,
              50.27848
            ],
            [
              37.222281,
              50.275134
            ],
            [
              37.223651,
              50.268756,
              0
            ],
            [
              37.243221,
              50.264586,
              0
            ],
            [
              37.252748,
              50.255258,
              0
            ],
            [
              37.259102,
              50.252309
            ],
            [
              37.27807,
              50.25412
            ],
            [
              37.284336,
              50.252474
            ],
            [
              37.29043,
              50.247973
            ],
            [
              37.304935,
              50.249181
            ],
            [
              37.296524,
              50.251705
            ],
            [
              37.297554,
              50.256425
            ],
            [
              37.308369,
              50.257961
            ],
            [
              37.312145,
              50.261912
            ],
            [
              37.30648,
              50.269045
            ],
            [
              37.299614,
              50.266521
            ],
            [
              37.296867,
              50.268057
            ],
            [
              37.283134,
              50.264656
            ],
            [
              37.271118,
              50.260486
            ],
            [
              37.264595,
              50.270032
            ],
            [
              37.250519,
              50.266411
            ],
            [
              37.246227,
              50.273434
            ],
            [
              37.239361,
              50.272007
            ],
            [
              37.230606,
              50.27848
            ]
          ]
        ]
      }
    },
    {
      "type": "Feature",
      "properties": {
        "Name": "Advance 3",
        "_advanceId": "pending"
      },
      "geometry": {
        "type": "Polygon",
        "coordinates": [
          [
            [
              37.522825,
              50.253431,
              0
            ],
            [
              37.53303,
              50.253163,
              0
            ],
            [
              37.545648,
              50.251073,
              0
            ],
            [
              37.554832,
              50.250058,
              0
            ],
            [
              37.551441,
              50.255218
            ],
            [
              37.557449,
              50.255986
            ],
            [
              37.563629,
              50.256205
            ],
            [
              37.570496,
              50.253352
            ],
            [
              37.578735,
              50.25434
            ],
            [
              37.580967,
              50.252474
            ],
            [
              37.601527,
              50.253182
            ],
            [
              37.59882,
              50.257248
            ],
            [
              37.605,
              50.259827
            ],
            [
              37.60354,
              50.261748
            ],
            [
              37.599592,
              50.263119
            ],
            [
              37.602854,
              50.264656
            ],
            [
              37.602682,
              50.265698
            ],
            [
              37.60294,
              50.269429
            ],
            [
              37.600794,
              50.271678
            ],
            [
              37.587662,
              50.271514
            ],
            [
              37.581832,
              50.272947
            ],
            [
              37.57659,
              50.275079
            ],
            [
              37.570839,
              50.276505
            ],
            [
              37.565689,
              50.278864
            ],
            [
              37.562127,
              50.278617
            ],
            [
              37.559509,
              50.273653
            ],
            [
              37.56526,
              50.269045
            ],
            [
              37.567062,
              50.266302
            ],
            [
              37.564573,
              50.263284
            ],
            [
              37.555904,
              50.264052
            ],
            [
              37.548351,
              50.266302
            ],
            [
              37.544489,
              50.267179
            ],
            [
              37.539854,
              50.272062
            ],
            [
              37.531958,
              50.275353
            ],
            [
              37.521601,
              50.279768
            ],
            [
              37.520027,
              50.275408
            ],
            [
              37.518225,
              50.27272
            ],
            [
              37.512903,
              50.266027
            ],
            [
              37.518568,
              50.255437
            ],
            [
              37.51934,
              50.249815,
              0
            ],
            [
              37.522825,
              50.253431,
              0
            ]
          ]
        ]
      }
    },
    {
      "type": "Feature",
      "properties": {
        "Name": "Advance 3",
        "_advanceId": "pending"
      },
      "geometry": {
        "type": "Polygon",
        "coordinates": [
          [
            [
              37.445183,
              50.37065
            ],
            [
              37.446213,
              50.373003
            ],
            [
              37.465696,
              50.377656
            ],
            [
              37.471533,
              50.374427
            ],
            [
              37.471189,
              50.368733
            ],
            [
              37.467928,
              50.365449
            ],
            [
              37.474451,
              50.349952
            ],
            [
              37.467756,
              50.343927
            ],
            [
              37.469902,
              50.342283
            ],
            [
              37.458057,
              50.338778
            ],
            [
              37.456598,
              50.336477
            ],
            [
              37.450333,
              50.339271
            ],
            [
              37.446985,
              50.341352
            ],
            [
              37.441149,
              50.339873
            ],
            [
              37.432308,
              50.340311
            ],
            [
              37.419777,
              50.337298
            ],
            [
              37.410078,
              50.335984
            ],
            [
              37.406301,
              50.337627
            ],
            [
              37.404842,
              50.3419
            ],
            [
              37.417717,
              50.345351
            ],
            [
              37.425871,
              50.34798
            ],
            [
              37.430077,
              50.351211
            ],
            [
              37.429733,
              50.352197
            ],
            [
              37.443037,
              50.354497
            ],
            [
              37.437115,
              50.359426
            ],
            [
              37.434626,
              50.368241
            ],
            [
              37.445183,
              50.37065
            ]
          ]
        ]
      }
    }
  ]
}