{
  "type": "FeatureCollection",
  "features": [
    {
      "type": "Feature",
      "properties": {
        "Name": "Advance 69",
        "_advanceId": "adv-1791632973189"
      },
      "geometry": {
        "type": "Polygon",
        "coordinates": [
          [
            [
              37.336719,
              48.558104,
              0
            ],
            [
              37.336693,
              48.569111
            ],
            [
              37.328625,
              48.573995
            ],
            [
              37.336349,
              48.577061
            ],
            [
              37.336864,
              48.585352
            ],
            [
              37.350254,
              48.581263
            ],
            [
              37.348709,
              48.570928
            ],
            [
              37.361424,
              48.569284,
              0
            ],
            [
              37.384021,
              48.571926,
              0
            ],
            [
              37.392662,
              48.580569,
              0
            ],
            [
              37.407072,
              48.582314,
              0
            ],
            [
              37.418855,
              48.582738,
              0
            ],
            [
              37.427629,
              48.581462,
              0
            ],
            [
              37.44144,
              48.577165,
              0
            ],
            [
              37.436771,
              48.574506
            ],
            [
              37.428446,
              48.572348
            ],
            [
              37.427115,
              48.571524
            ],
            [
              37.426472,
              48.5708
            ],
            [
              37.427738,
              48.569508
            ],
            [
              37.428102,
              48.567975
            ],
            [
              37.42821,
              48.566881
            ],
            [
              37.42748,
              48.5662
            ],
            [
              37.425785,
              48.566029
            ],
            [
              37.424605,
              48.566569
            ],
            [
              37.423382,
              48.568514
            ],
            [
              37.421923,
              48.569082
            ],
            [
              37.418404,
              48.569167
            ],
            [
              37.41703,
              48.57036
            ],
            [
              37.415314,
              48.569565
            ],
            [
              37.415614,
              48.566782
            ],
            [
              37.412395,
              48.565703
            ],
            [
              37.410593,
              48.561642
            ],
            [
              37.410722,
              48.557921
            ],
            [
              37.409649,
              48.556216
            ],
            [
              37.399178,
              48.556671
            ],
            [
              37.38493,
              48.549001
            ],
            [
              37.366734,
              48.542978
            ],
            [
              37.361927,
              48.535704
            ],
            [
              37.352142,
              48.541501
            ],
            [
              37.345448,
              48.547524
            ],
            [
              37.330002,
              48.552217,
              0
            ],
            [
              37.336719,
              48.558104,
              0
            ]
          ]
        ]
      }
    }
  ]
}